{
    "type": "FeatureCollection",
    "name": "cluster_columbarium",
    "crs": {
        "type": "name",
        "properties": { "name": "urn:ogc:def:crs:OGC:1.3:CRS84" }
    },
    "features": [
        {
            "type": "Feature",
            "properties": {
                "id": 218,
                "phase_id": "9",
                "name": "1N",
                "type": "columbarium"
            },
            "geometry": {
                "type": "Polygon",
                "coordinates": [
                    [
                        [120.975807944644217, 14.30485437059806],
                        [120.975836209643461, 14.304829188628696],
                        [120.975872110211228, 14.304793622337252],
                        [120.975861259666459, 14.304785444685502],
                        [120.975829042925682, 14.304821075880243],
                        [120.975800576990423, 14.304846322752486],
                        [120.975807944644217, 14.30485437059806]
                    ]
                ]
            }
        },
        {
            "type": "Feature",
            "properties": {
                "id": 219,
                "phase_id": "9",
                "name": "1B",
                "type": "columbarium"
            },
            "geometry": {
                "type": "Polygon",
                "coordinates": [
                    [
                        [120.975807944644217, 14.30485437059806],
                        [120.97581352061863, 14.304860601187944],
                        [120.975881649492365, 14.304800801454089],
                        [120.975872110211228, 14.304793622337252],
                        [120.975841651660488, 14.30482409382269],
                        [120.975807944644217, 14.30485437059806]
                    ]
                ]
            }
        },
        {
            "type": "Feature",
            "properties": {
                "id": 220,
                "phase_id": "9",
                "name": "2F",
                "type": "columbarium"
            },
            "geometry": {
                "type": "Polygon",
                "coordinates": [
                    [
                        [120.975819448230951, 14.304863911188768],
                        [120.975825174907314, 14.304872672955414],
                        [120.975866768662101, 14.304842882947414],
                        [120.975898717488249, 14.304812508817539],
                        [120.975888469751538, 14.304805499402368],
                        [120.975859093805894, 14.304834036529051],
                        [120.975819448230951, 14.304863911188768]
                    ]
                ]
            }
        },
        {
            "type": "Feature",
            "properties": {
                "id": 221,
                "phase_id": "9",
                "name": "2B",
                "type": "columbarium"
            },
            "geometry": {
                "type": "Polygon",
                "coordinates": [
                    [
                        [120.975825174907314, 14.304872672955414],
                        [120.975831052285685, 14.30487939030961],
                        [120.975855756950111, 14.304863985196889],
                        [120.975874957546566, 14.304849355405668],
                        [120.97590971873494, 14.304819810291436],
                        [120.975898717488249, 14.304812508817539],
                        [120.975866768662101, 14.304842882947414],
                        [120.975825174907314, 14.304872672955414]
                    ]
                ]
            }
        },
        {
            "type": "Feature",
            "properties": {
                "id": 222,
                "phase_id": "9",
                "name": "3F",
                "type": "columbarium"
            },
            "geometry": {
                "type": "Polygon",
                "coordinates": [
                    [
                        [120.975839491598251, 14.304886691781343],
                        [120.975845519678657, 14.304895453547102],
                        [120.975894347129866, 14.304864787365446],
                        [120.975929611400232, 14.304831784708124],
                        [120.975919062259536, 14.30482389911672],
                        [120.975881534009233, 14.30485780110657],
                        [120.975839491598251, 14.304886691781343]
                    ]
                ]
            }
        },
        {
            "type": "Feature",
            "properties": {
                "id": 223,
                "phase_id": "9",
                "name": "3B",
                "type": "columbarium"
            },
            "geometry": {
                "type": "Polygon",
                "coordinates": [
                    [
                        [120.975845519678657, 14.304895453547102],
                        [120.975853769424006, 14.304906231364003],
                        [120.975887976754422, 14.304883544590179],
                        [120.975903690654505, 14.304872234867085],
                        [120.975941064753002, 14.304840400446555],
                        [120.975929611400232, 14.304831784708124],
                        [120.975890651101622, 14.304864927534524],
                        [120.975845519678657, 14.304895453547102]
                    ]
                ]
            }
        },
        {
            "type": "Feature",
            "properties": {
                "id": 224,
                "phase_id": "9",
                "name": "4F",
                "type": "columbarium"
            },
            "geometry": {
                "type": "Polygon",
                "coordinates": [
                    [
                        [120.975861494091745, 14.304915313548234],
                        [120.975869908287336, 14.304925024504024],
                        [120.975921322789688, 14.304885523545879],
                        [120.975954929337917, 14.304851352655975],
                        [120.975945284409278, 14.304843467065259],
                        [120.975911681194503, 14.304877466513306],
                        [120.975861494091745, 14.304915313548234]
                    ]
                ]
            }
        },
        {
            "type": "Feature",
            "properties": {
                "id": 225,
                "phase_id": "9",
                "name": "4B",
                "type": "columbarium"
            },
            "geometry": {
                "type": "Polygon",
                "coordinates": [
                    [
                        [120.975954929337917, 14.304851352655975],
                        [120.975921322789688, 14.304885523545879],
                        [120.975869908287336, 14.304925024504021],
                        [120.975881863980106, 14.304936804209236],
                        [120.975931696111431, 14.304891827149653],
                        [120.975963243065493, 14.304858727143333],
                        [120.975954929337917, 14.304851352655975]
                    ]
                ]
            }
        }
    ]
}
