{
"type": "FeatureCollection",
"name": "cltr-id-201-b-row",
"crs": { "type": "name", "properties": { "name": "urn:ogc:def:crs:OGC:1.3:CRS84" } },
"features": [
{ "type": "Feature", "properties": { "fid": 1, "id": 1, "cluster_id": "201", "column": null, "row": "B" }, "geometry": { "type": "Point", "coordinates": [ 120.976624286890484, 14.305476936079423 ] } },
{ "type": "Feature", "properties": { "fid": 2, "id": 2, "cluster_id": "201", "column": null, "row": "B" }, "geometry": { "type": "Point", "coordinates": [ 120.976634022821514, 14.305478558734595 ] } },
{ "type": "Feature", "properties": { "fid": 3, "id": 3, "cluster_id": "201", "column": null, "row": "B" }, "geometry": { "type": "Point", "coordinates": [ 120.976643758752559, 14.305478829177124 ] } },
{ "type": "Feature", "properties": { "fid": 4, "id": 4, "cluster_id": "201", "column": null, "row": "B" }, "geometry": { "type": "Point", "coordinates": [ 120.976652412913495, 14.305479910947243 ] } },
{ "type": "Feature", "properties": { "fid": 5, "id": 5, "cluster_id": "201", "column": null, "row": "B" }, "geometry": { "type": "Point", "coordinates": [ 120.976659850083053, 14.305480587053564 ] } },
{ "type": "Feature", "properties": { "fid": 6, "id": 6, "cluster_id": "201", "column": null, "row": "B" }, "geometry": { "type": "Point", "coordinates": [ 120.976667963358921, 14.305481263159887 ] } },
{ "type": "Feature", "properties": { "fid": 7, "id": 7, "cluster_id": "201", "column": null, "row": "B" }, "geometry": { "type": "Point", "coordinates": [ 120.976677564068709, 14.305481939266208 ] } },
{ "type": "Feature", "properties": { "fid": 8, "id": 8, "cluster_id": "201", "column": null, "row": "B" }, "geometry": { "type": "Point", "coordinates": [ 120.976687164778482, 14.305483156257592 ] } },
{ "type": "Feature", "properties": { "fid": 9, "id": 9, "cluster_id": "201", "column": null, "row": "B" }, "geometry": { "type": "Point", "coordinates": [ 120.976696630267014, 14.305483697142648 ] } },
{ "type": "Feature", "properties": { "fid": 10, "id": 10, "cluster_id": "201", "column": null, "row": "B" }, "geometry": { "type": "Point", "coordinates": [ 120.976705960534261, 14.305483832363914 ] } }
]
}
