{
"type": "FeatureCollection",
"name": "cltr-id-194-d-row",
"crs": { "type": "name", "properties": { "name": "urn:ogc:def:crs:OGC:1.3:CRS84" } },
"features": [
{ "type": "Feature", "properties": { "fid": 1, "id": 1, "cluster_id": "194", "column": null, "row": "D" }, "geometry": { "type": "Point", "coordinates": [ 120.976734413341887, 14.305714407156831 ] } },
{ "type": "Feature", "properties": { "fid": 2, "id": 2, "cluster_id": "194", "column": null, "row": "D" }, "geometry": { "type": "Point", "coordinates": [ 120.976746312813162, 14.30571765246718 ] } },
{ "type": "Feature", "properties": { "fid": 3, "id": 3, "cluster_id": "194", "column": null, "row": "D" }, "geometry": { "type": "Point", "coordinates": [ 120.976758212284437, 14.305719816007413 ] } },
{ "type": "Feature", "properties": { "fid": 4, "id": 4, "cluster_id": "194", "column": null, "row": "D" }, "geometry": { "type": "Point", "coordinates": [ 120.976771734410903, 14.305723061317762 ] } },
{ "type": "Feature", "properties": { "fid": 5, "id": 5, "cluster_id": "194", "column": null, "row": "D" }, "geometry": { "type": "Point", "coordinates": [ 120.9767847156523, 14.305723061317762 ] } },
{ "type": "Feature", "properties": { "fid": 6, "id": 6, "cluster_id": "194", "column": null, "row": "D" }, "geometry": { "type": "Point", "coordinates": [ 120.976798237778752, 14.305726306628111 ] } },
{ "type": "Feature", "properties": { "fid": 7, "id": 7, "cluster_id": "194", "column": null, "row": "D" }, "geometry": { "type": "Point", "coordinates": [ 120.976811219020149, 14.305729011053403 ] } },
{ "type": "Feature", "properties": { "fid": 8, "id": 8, "cluster_id": "194", "column": null, "row": "D" }, "geometry": { "type": "Point", "coordinates": [ 120.97682257760637, 14.305727388398228 ] } },
{ "type": "Feature", "properties": { "fid": 9, "id": 9, "cluster_id": "194", "column": null, "row": "D" }, "geometry": { "type": "Point", "coordinates": [ 120.976830149997184, 14.305728470168345 ] } },
{ "type": "Feature", "properties": { "fid": 10, "id": 10, "cluster_id": "194", "column": null, "row": "D" }, "geometry": { "type": "Point", "coordinates": [ 120.976838263273052, 14.30573009282352 ] } },
{ "type": "Feature", "properties": { "fid": 11, "id": 11, "cluster_id": "194", "column": null, "row": "D" }, "geometry": { "type": "Point", "coordinates": [ 120.976848540089165, 14.30573009282352 ] } },
{ "type": "Feature", "properties": { "fid": 12, "id": 12, "cluster_id": "194", "column": null, "row": "D" }, "geometry": { "type": "Point", "coordinates": [ 120.976857194250101, 14.305730633708578 ] } },
{ "type": "Feature", "properties": { "fid": 13, "id": 13, "cluster_id": "194", "column": null, "row": "D" }, "geometry": { "type": "Point", "coordinates": [ 120.976865307525969, 14.305733338133869 ] } },
{ "type": "Feature", "properties": { "fid": 14, "id": 14, "cluster_id": "194", "column": null, "row": "D" }, "geometry": { "type": "Point", "coordinates": [ 120.976873961686906, 14.305731715478695 ] } },
{ "type": "Feature", "properties": { "fid": 15, "id": 15, "cluster_id": "194", "column": null, "row": "D" }, "geometry": { "type": "Point", "coordinates": [ 120.976884238503004, 14.305736583444219 ] } },
{ "type": "Feature", "properties": { "fid": 16, "id": 16, "cluster_id": "194", "column": null, "row": "D" }, "geometry": { "type": "Point", "coordinates": [ 120.976893433548994, 14.305738206099393 ] } },
{ "type": "Feature", "properties": { "fid": 17, "id": 17, "cluster_id": "194", "column": null, "row": "D" }, "geometry": { "type": "Point", "coordinates": [ 120.976902628594985, 14.305736583444219 ] } },
{ "type": "Feature", "properties": { "fid": 18, "id": 18, "cluster_id": "194", "column": null, "row": "D" }, "geometry": { "type": "Point", "coordinates": [ 120.976910200985799, 14.305738746984451 ] } },
{ "type": "Feature", "properties": { "fid": 19, "id": 19, "cluster_id": "194", "column": null, "row": "D" }, "geometry": { "type": "Point", "coordinates": [ 120.97692155957202, 14.305737665214334 ] } },
{ "type": "Feature", "properties": { "fid": 20, "id": 20, "cluster_id": "194", "column": null, "row": "D" }, "geometry": { "type": "Point", "coordinates": [ 120.976930213732956, 14.305741451409741 ] } },
{ "type": "Feature", "properties": { "fid": 21, "id": 21, "cluster_id": "194", "column": null, "row": "D" }, "geometry": { "type": "Point", "coordinates": [ 120.976942113204231, 14.305740369639626 ] } },
{ "type": "Feature", "properties": { "fid": 22, "id": 22, "cluster_id": "194", "column": null, "row": "D" }, "geometry": { "type": "Point", "coordinates": [ 120.976950767365167, 14.3057419922948 ] } },
{ "type": "Feature", "properties": { "fid": 23, "id": 23, "cluster_id": "194", "column": null, "row": "D" }, "geometry": { "type": "Point", "coordinates": [ 120.976961044181266, 14.3057419922948 ] } },
{ "type": "Feature", "properties": { "fid": 24, "id": 24, "cluster_id": "194", "column": null, "row": "D" }, "geometry": { "type": "Point", "coordinates": [ 120.976972402767501, 14.305745778490207 ] } },
{ "type": "Feature", "properties": { "fid": 25, "id": 25, "cluster_id": "194", "column": null, "row": "D" }, "geometry": { "type": "Point", "coordinates": [ 120.97697781161807, 14.305746319375265 ] } },
{ "type": "Feature", "properties": { "fid": 26, "id": 26, "cluster_id": "194", "column": null, "row": "D" }, "geometry": { "type": "Point", "coordinates": [ 120.97698484312383, 14.30574794203044 ] } },
{ "type": "Feature", "properties": { "fid": 27, "id": 27, "cluster_id": "194", "column": null, "row": "D" }, "geometry": { "type": "Point", "coordinates": [ 120.976995660824997, 14.30574794203044 ] } },
{ "type": "Feature", "properties": { "fid": 28, "id": 28, "cluster_id": "194", "column": null, "row": "D" }, "geometry": { "type": "Point", "coordinates": [ 120.977006478526164, 14.305750105570674 ] } },
{ "type": "Feature", "properties": { "fid": 29, "id": 29, "cluster_id": "194", "column": null, "row": "D" }, "geometry": { "type": "Point", "coordinates": [ 120.977013510031924, 14.305749564685614 ] } },
{ "type": "Feature", "properties": { "fid": 30, "id": 30, "cluster_id": "194", "column": null, "row": "D" }, "geometry": { "type": "Point", "coordinates": [ 120.977020000652615, 14.305749564685614 ] } },
{ "type": "Feature", "properties": { "fid": 31, "id": 31, "cluster_id": "194", "column": null, "row": "D" }, "geometry": { "type": "Point", "coordinates": [ 120.977028654813552, 14.305750646455731 ] } },
{ "type": "Feature", "properties": { "fid": 32, "id": 32, "cluster_id": "194", "column": null, "row": "D" }, "geometry": { "type": "Point", "coordinates": [ 120.977026491273321, 14.305745778490207 ] } },
{ "type": "Feature", "properties": { "fid": 33, "id": 33, "cluster_id": "194", "column": null, "row": "D" }, "geometry": { "type": "Point", "coordinates": [ 120.977026491273321, 14.305739287869509 ] } }
]
}
