{
"type": "FeatureCollection",
"name": "cltr-id-156-b-row",
"crs": { "type": "name", "properties": { "name": "urn:ogc:def:crs:OGC:1.3:CRS84" } },
"features": [
{ "type": "Feature", "properties": { "fid": 1, "id": 1, "cluster_id": "156", "column": null, "rows": "B" }, "geometry": { "type": "Point", "coordinates": [ 120.976406107403861, 14.305567836112598 ] } },
{ "type": "Feature", "properties": { "fid": 2, "id": 2, "cluster_id": "156", "column": null, "rows": "B" }, "geometry": { "type": "Point", "coordinates": [ 120.976415646822886, 14.305569108035133 ] } },
{ "type": "Feature", "properties": { "fid": 3, "id": 3, "cluster_id": "156", "column": null, "rows": "B" }, "geometry": { "type": "Point", "coordinates": [ 120.976425398228983, 14.305569743996401 ] } },
{ "type": "Feature", "properties": { "fid": 4, "id": 4, "cluster_id": "156", "column": null, "rows": "B" }, "geometry": { "type": "Point", "coordinates": [ 120.976434725660923, 14.305570379957668 ] } },
{ "type": "Feature", "properties": { "fid": 5, "id": 5, "cluster_id": "156", "column": null, "rows": "B" }, "geometry": { "type": "Point", "coordinates": [ 120.976443205144491, 14.305570803931847 ] } },
{ "type": "Feature", "properties": { "fid": 6, "id": 6, "cluster_id": "156", "column": null, "rows": "B" }, "geometry": { "type": "Point", "coordinates": [ 120.976451896615146, 14.305571651880205 ] } },
{ "type": "Feature", "properties": { "fid": 7, "id": 7, "cluster_id": "156", "column": null, "rows": "B" }, "geometry": { "type": "Point", "coordinates": [ 120.976461224047071, 14.305572287841473 ] } },
{ "type": "Feature", "properties": { "fid": 8, "id": 8, "cluster_id": "156", "column": null, "rows": "B" }, "geometry": { "type": "Point", "coordinates": [ 120.976469491543554, 14.30557313578983 ] } },
{ "type": "Feature", "properties": { "fid": 9, "id": 9, "cluster_id": "156", "column": null, "rows": "B" }, "geometry": { "type": "Point", "coordinates": [ 120.976478183014223, 14.305573347776919 ] } },
{ "type": "Feature", "properties": { "fid": 10, "id": 10, "cluster_id": "156", "column": null, "rows": "B" }, "geometry": { "type": "Point", "coordinates": [ 120.976487510446148, 14.305573771751098 ] } },
{ "type": "Feature", "properties": { "fid": 11, "id": 11, "cluster_id": "156", "column": null, "rows": "B" }, "geometry": { "type": "Point", "coordinates": [ 120.976495565955545, 14.305574831686544 ] } },
{ "type": "Feature", "properties": { "fid": 12, "id": 12, "cluster_id": "156", "column": null, "rows": "B" }, "geometry": { "type": "Point", "coordinates": [ 120.976502773516572, 14.305575255660722 ] } },
{ "type": "Feature", "properties": { "fid": 13, "id": 13, "cluster_id": "156", "column": null, "rows": "B" }, "geometry": { "type": "Point", "coordinates": [ 120.976511676974326, 14.305575679634901 ] } },
{ "type": "Feature", "properties": { "fid": 14, "id": 14, "cluster_id": "156", "column": null, "rows": "B" }, "geometry": { "type": "Point", "coordinates": [ 120.976519732483723, 14.305571863867295 ] } },
{ "type": "Feature", "properties": { "fid": 15, "id": 15, "cluster_id": "156", "column": null, "rows": "B" }, "geometry": { "type": "Point", "coordinates": [ 120.976519944470809, 14.305563596370812 ] } }
]
}
