{
"type": "FeatureCollection",
"name": "cltr-id-186-a-row",
"crs": { "type": "name", "properties": { "name": "urn:ogc:def:crs:OGC:1.3:CRS84" } },
"features": [
{ "type": "Feature", "properties": { "fid": 1, "id": 1, "cluster_id": "186", "column": null, "row": "A" }, "geometry": { "type": "Point", "coordinates": [ 120.976582018976941, 14.305716029812015 ] } },
{ "type": "Feature", "properties": { "fid": 2, "id": 2, "cluster_id": "186", "column": null, "row": "A" }, "geometry": { "type": "Point", "coordinates": [ 120.976586210836146, 14.305716300254543 ] } },
{ "type": "Feature", "properties": { "fid": 3, "id": 3, "cluster_id": "186", "column": null, "row": "A" }, "geometry": { "type": "Point", "coordinates": [ 120.976590402695351, 14.305716435475807 ] } },
{ "type": "Feature", "properties": { "fid": 4, "id": 4, "cluster_id": "186", "column": null, "row": "A" }, "geometry": { "type": "Point", "coordinates": [ 120.976595541103407, 14.305716841139601 ] } },
{ "type": "Feature", "properties": { "fid": 5, "id": 5, "cluster_id": "186", "column": null, "row": "A" }, "geometry": { "type": "Point", "coordinates": [ 120.976599597741341, 14.305716976360866 ] } },
{ "type": "Feature", "properties": { "fid": 6, "id": 6, "cluster_id": "186", "column": null, "row": "A" }, "geometry": { "type": "Point", "coordinates": [ 120.976603519158019, 14.305717246803395 ] } },
{ "type": "Feature", "properties": { "fid": 7, "id": 7, "cluster_id": "186", "column": null, "row": "A" }, "geometry": { "type": "Point", "coordinates": [ 120.976606629247101, 14.305717922909718 ] } },
{ "type": "Feature", "properties": { "fid": 8, "id": 8, "cluster_id": "186", "column": null, "row": "A" }, "geometry": { "type": "Point", "coordinates": [ 120.976610685885035, 14.305718193352247 ] } },
{ "type": "Feature", "properties": { "fid": 9, "id": 9, "cluster_id": "186", "column": null, "row": "A" }, "geometry": { "type": "Point", "coordinates": [ 120.976614742522969, 14.305718599016041 ] } },
{ "type": "Feature", "properties": { "fid": 10, "id": 10, "cluster_id": "186", "column": null, "row": "A" }, "geometry": { "type": "Point", "coordinates": [ 120.976617852612051, 14.305718734237304 ] } },
{ "type": "Feature", "properties": { "fid": 11, "id": 11, "cluster_id": "186", "column": null, "row": "A" }, "geometry": { "type": "Point", "coordinates": [ 120.976621368364931, 14.305718734237304 ] } },
{ "type": "Feature", "properties": { "fid": 12, "id": 12, "cluster_id": "186", "column": null, "row": "A" }, "geometry": { "type": "Point", "coordinates": [ 120.976624208011486, 14.305719004679833 ] } },
{ "type": "Feature", "properties": { "fid": 13, "id": 13, "cluster_id": "186", "column": null, "row": "A" }, "geometry": { "type": "Point", "coordinates": [ 120.976626912436785, 14.305719275122364 ] } },
{ "type": "Feature", "properties": { "fid": 14, "id": 14, "cluster_id": "186", "column": null, "row": "A" }, "geometry": { "type": "Point", "coordinates": [ 120.976630022525868, 14.305719545564893 ] } },
{ "type": "Feature", "properties": { "fid": 15, "id": 15, "cluster_id": "186", "column": null, "row": "A" }, "geometry": { "type": "Point", "coordinates": [ 120.97663326783622, 14.305719951228685 ] } },
{ "type": "Feature", "properties": { "fid": 16, "id": 16, "cluster_id": "186", "column": null, "row": "A" }, "geometry": { "type": "Point", "coordinates": [ 120.976637054031627, 14.305720356892479 ] } },
{ "type": "Feature", "properties": { "fid": 17, "id": 17, "cluster_id": "186", "column": null, "row": "A" }, "geometry": { "type": "Point", "coordinates": [ 120.976640434563237, 14.305720356892479 ] } },
{ "type": "Feature", "properties": { "fid": 18, "id": 18, "cluster_id": "186", "column": null, "row": "A" }, "geometry": { "type": "Point", "coordinates": [ 120.976644220758644, 14.305720356892479 ] } },
{ "type": "Feature", "properties": { "fid": 19, "id": 19, "cluster_id": "186", "column": null, "row": "A" }, "geometry": { "type": "Point", "coordinates": [ 120.976647736511524, 14.305721303441331 ] } },
{ "type": "Feature", "properties": { "fid": 20, "id": 20, "cluster_id": "186", "column": null, "row": "A" }, "geometry": { "type": "Point", "coordinates": [ 120.97665138748566, 14.305721438662596 ] } },
{ "type": "Feature", "properties": { "fid": 21, "id": 21, "cluster_id": "186", "column": null, "row": "A" }, "geometry": { "type": "Point", "coordinates": [ 120.976654091910959, 14.305721438662596 ] } },
{ "type": "Feature", "properties": { "fid": 22, "id": 22, "cluster_id": "186", "column": null, "row": "A" }, "geometry": { "type": "Point", "coordinates": [ 120.97665706677877, 14.305722114768919 ] } },
{ "type": "Feature", "properties": { "fid": 23, "id": 23, "cluster_id": "186", "column": null, "row": "A" }, "geometry": { "type": "Point", "coordinates": [ 120.976659771204069, 14.305722114768919 ] } },
{ "type": "Feature", "properties": { "fid": 24, "id": 24, "cluster_id": "186", "column": null, "row": "A" }, "geometry": { "type": "Point", "coordinates": [ 120.976662205186827, 14.305722520432711 ] } },
{ "type": "Feature", "properties": { "fid": 25, "id": 25, "cluster_id": "186", "column": null, "row": "A" }, "geometry": { "type": "Point", "coordinates": [ 120.976664909612126, 14.305722520432711 ] } },
{ "type": "Feature", "properties": { "fid": 26, "id": 26, "cluster_id": "186", "column": null, "row": "A" }, "geometry": { "type": "Point", "coordinates": [ 120.97666747881614, 14.305722790875242 ] } },
{ "type": "Feature", "properties": { "fid": 27, "id": 27, "cluster_id": "186", "column": null, "row": "A" }, "geometry": { "type": "Point", "coordinates": [ 120.976669371913843, 14.305722790875242 ] } },
{ "type": "Feature", "properties": { "fid": 28, "id": 28, "cluster_id": "186", "column": null, "row": "A" }, "geometry": { "type": "Point", "coordinates": [ 120.976671400232817, 14.305722790875242 ] } },
{ "type": "Feature", "properties": { "fid": 29, "id": 29, "cluster_id": "186", "column": null, "row": "A" }, "geometry": { "type": "Point", "coordinates": [ 120.976673834215575, 14.305723196539034 ] } },
{ "type": "Feature", "properties": { "fid": 30, "id": 30, "cluster_id": "186", "column": null, "row": "A" }, "geometry": { "type": "Point", "coordinates": [ 120.976675727313278, 14.305723466981565 ] } },
{ "type": "Feature", "properties": { "fid": 31, "id": 31, "cluster_id": "186", "column": null, "row": "A" }, "geometry": { "type": "Point", "coordinates": [ 120.976677620410982, 14.305723196539034 ] } },
{ "type": "Feature", "properties": { "fid": 32, "id": 32, "cluster_id": "186", "column": null, "row": "A" }, "geometry": { "type": "Point", "coordinates": [ 120.976680054393753, 14.305723602202828 ] } },
{ "type": "Feature", "properties": { "fid": 33, "id": 33, "cluster_id": "186", "column": null, "row": "A" }, "geometry": { "type": "Point", "coordinates": [ 120.976682217933984, 14.305723872645357 ] } },
{ "type": "Feature", "properties": { "fid": 34, "id": 34, "cluster_id": "186", "column": null, "row": "A" }, "geometry": { "type": "Point", "coordinates": [ 120.97668735634204, 14.30571711158213 ] } },
{ "type": "Feature", "properties": { "fid": 35, "id": 35, "cluster_id": "186", "column": null, "row": "A" }, "geometry": { "type": "Point", "coordinates": [ 120.976688032448365, 14.305712378837871 ] } }
]
}
