{
"type": "FeatureCollection",
"name": "cltr-id-167-a -row",
"crs": { "type": "name", "properties": { "name": "urn:ogc:def:crs:OGC:1.3:CRS84" } },
"features": [
{ "type": "Feature", "properties": { "fid": 1, "id": 1, "cluster_id": "167", "column": null, "row": "A" }, "geometry": { "type": "Point", "coordinates": [ 120.976046143456202, 14.305566884977631 ] } },
{ "type": "Feature", "properties": { "fid": 2, "id": 2, "cluster_id": "167", "column": null, "row": "A" }, "geometry": { "type": "Point", "coordinates": [ 120.976056239977282, 14.305568754703758 ] } },
{ "type": "Feature", "properties": { "fid": 3, "id": 3, "cluster_id": "167", "column": null, "row": "A" }, "geometry": { "type": "Point", "coordinates": [ 120.976065588607923, 14.30556950259421 ] } },
{ "type": "Feature", "properties": { "fid": 4, "id": 4, "cluster_id": "167", "column": null, "row": "A" }, "geometry": { "type": "Point", "coordinates": [ 120.976075311183791, 14.305570998375112 ] } },
{ "type": "Feature", "properties": { "fid": 5, "id": 5, "cluster_id": "167", "column": null, "row": "A" }, "geometry": { "type": "Point", "coordinates": [ 120.976083911923979, 14.305570624429887 ] } },
{ "type": "Feature", "properties": { "fid": 6, "id": 6, "cluster_id": "167", "column": null, "row": "A" }, "geometry": { "type": "Point", "coordinates": [ 120.976092886609379, 14.305572120210789 ] } },
{ "type": "Feature", "properties": { "fid": 7, "id": 7, "cluster_id": "167", "column": null, "row": "A" }, "geometry": { "type": "Point", "coordinates": [ 120.97610223524002, 14.305572868101239 ] } },
{ "type": "Feature", "properties": { "fid": 8, "id": 8, "cluster_id": "167", "column": null, "row": "A" }, "geometry": { "type": "Point", "coordinates": [ 120.976110462034981, 14.305573242046465 ] } },
{ "type": "Feature", "properties": { "fid": 9, "id": 9, "cluster_id": "167", "column": null, "row": "A" }, "geometry": { "type": "Point", "coordinates": [ 120.976119062775169, 14.305573989936915 ] } },
{ "type": "Feature", "properties": { "fid": 10, "id": 10, "cluster_id": "167", "column": null, "row": "A" }, "geometry": { "type": "Point", "coordinates": [ 120.976126167734449, 14.305575485717817 ] } },
{ "type": "Feature", "properties": { "fid": 11, "id": 11, "cluster_id": "167", "column": null, "row": "A" }, "geometry": { "type": "Point", "coordinates": [ 120.976134020584183, 14.305575859663042 ] } },
{ "type": "Feature", "properties": { "fid": 12, "id": 12, "cluster_id": "167", "column": null, "row": "A" }, "geometry": { "type": "Point", "coordinates": [ 120.976143369214824, 14.305576607553494 ] } },
{ "type": "Feature", "properties": { "fid": 13, "id": 13, "cluster_id": "167", "column": null, "row": "A" }, "geometry": { "type": "Point", "coordinates": [ 120.976151969955012, 14.305576607553494 ] } },
{ "type": "Feature", "properties": { "fid": 14, "id": 14, "cluster_id": "167", "column": null, "row": "A" }, "geometry": { "type": "Point", "coordinates": [ 120.976160944640426, 14.305578103334396 ] } },
{ "type": "Feature", "properties": { "fid": 15, "id": 15, "cluster_id": "167", "column": null, "row": "A" }, "geometry": { "type": "Point", "coordinates": [ 120.976169919325827, 14.305577355443944 ] } },
{ "type": "Feature", "properties": { "fid": 16, "id": 16, "cluster_id": "167", "column": null, "row": "A" }, "geometry": { "type": "Point", "coordinates": [ 120.976180015846921, 14.305578477279621 ] } },
{ "type": "Feature", "properties": { "fid": 17, "id": 17, "cluster_id": "167", "column": null, "row": "A" }, "geometry": { "type": "Point", "coordinates": [ 120.976187120806202, 14.305580347005749 ] } },
{ "type": "Feature", "properties": { "fid": 18, "id": 18, "cluster_id": "167", "column": null, "row": "A" }, "geometry": { "type": "Point", "coordinates": [ 120.976194599710709, 14.305580720950974 ] } },
{ "type": "Feature", "properties": { "fid": 19, "id": 19, "cluster_id": "167", "column": null, "row": "A" }, "geometry": { "type": "Point", "coordinates": [ 120.976204696231804, 14.305581842786651 ] } },
{ "type": "Feature", "properties": { "fid": 20, "id": 20, "cluster_id": "167", "column": null, "row": "A" }, "geometry": { "type": "Point", "coordinates": [ 120.976212549081538, 14.305581094896199 ] } },
{ "type": "Feature", "properties": { "fid": 21, "id": 21, "cluster_id": "167", "column": null, "row": "A" }, "geometry": { "type": "Point", "coordinates": [ 120.976220775876499, 14.305582964622326 ] } },
{ "type": "Feature", "properties": { "fid": 22, "id": 22, "cluster_id": "167", "column": null, "row": "A" }, "geometry": { "type": "Point", "coordinates": [ 120.976229750561913, 14.305583338567553 ] } },
{ "type": "Feature", "properties": { "fid": 23, "id": 23, "cluster_id": "167", "column": null, "row": "A" }, "geometry": { "type": "Point", "coordinates": [ 120.976238725247327, 14.305584086458003 ] } },
{ "type": "Feature", "properties": { "fid": 24, "id": 24, "cluster_id": "167", "column": null, "row": "A" }, "geometry": { "type": "Point", "coordinates": [ 120.976248447823181, 14.305584460403228 ] } },
{ "type": "Feature", "properties": { "fid": 25, "id": 25, "cluster_id": "167", "column": null, "row": "A" }, "geometry": { "type": "Point", "coordinates": [ 120.976259666179942, 14.305587078019807 ] } },
{ "type": "Feature", "properties": { "fid": 26, "id": 26, "cluster_id": "167", "column": null, "row": "A" }, "geometry": { "type": "Point", "coordinates": [ 120.97626938875581, 14.305587825910258 ] } },
{ "type": "Feature", "properties": { "fid": 27, "id": 27, "cluster_id": "167", "column": null, "row": "A" }, "geometry": { "type": "Point", "coordinates": [ 120.976278363441224, 14.305587451965033 ] } },
{ "type": "Feature", "properties": { "fid": 28, "id": 28, "cluster_id": "167", "column": null, "row": "A" }, "geometry": { "type": "Point", "coordinates": [ 120.976286964181412, 14.305588199855483 ] } },
{ "type": "Feature", "properties": { "fid": 29, "id": 29, "cluster_id": "167", "column": null, "row": "A" }, "geometry": { "type": "Point", "coordinates": [ 120.976297060702493, 14.305588573800708 ] } },
{ "type": "Feature", "properties": { "fid": 30, "id": 30, "cluster_id": "167", "column": null, "row": "A" }, "geometry": { "type": "Point", "coordinates": [ 120.976304539607, 14.305589695636385 ] } },
{ "type": "Feature", "properties": { "fid": 31, "id": 31, "cluster_id": "167", "column": null, "row": "A" }, "geometry": { "type": "Point", "coordinates": [ 120.976313888237641, 14.30559006958161 ] } },
{ "type": "Feature", "properties": { "fid": 32, "id": 32, "cluster_id": "167", "column": null, "row": "A" }, "geometry": { "type": "Point", "coordinates": [ 120.976324732649175, 14.305592313252964 ] } },
{ "type": "Feature", "properties": { "fid": 33, "id": 33, "cluster_id": "167", "column": null, "row": "A" }, "geometry": { "type": "Point", "coordinates": [ 120.976333333389363, 14.305591939307739 ] } },
{ "type": "Feature", "properties": { "fid": 34, "id": 34, "cluster_id": "167", "column": null, "row": "A" }, "geometry": { "type": "Point", "coordinates": [ 120.976339690458204, 14.305591939307739 ] } }
]
}
