{
"type": "FeatureCollection",
"name": "cltr-id-203-a-row",
"crs": { "type": "name", "properties": { "name": "urn:ogc:def:crs:OGC:1.3:CRS84" } },
"features": [
{ "type": "Feature", "properties": { "fid": 1, "id": 1, "cluster_id": "203", "column": null, "row": "A" }, "geometry": { "type": "Point", "coordinates": [ 120.976610764763976, 14.305606342829593 ] } },
{ "type": "Feature", "properties": { "fid": 2, "id": 2, "cluster_id": "203", "column": null, "row": "A" }, "geometry": { "type": "Point", "coordinates": [ 120.976620230252493, 14.305607965484768 ] } },
{ "type": "Feature", "properties": { "fid": 3, "id": 3, "cluster_id": "203", "column": null, "row": "A" }, "geometry": { "type": "Point", "coordinates": [ 120.976629425298484, 14.305608506369827 ] } },
{ "type": "Feature", "properties": { "fid": 4, "id": 4, "cluster_id": "203", "column": null, "row": "A" }, "geometry": { "type": "Point", "coordinates": [ 120.976638890787001, 14.305609317697414 ] } },
{ "type": "Feature", "properties": { "fid": 5, "id": 5, "cluster_id": "203", "column": null, "row": "A" }, "geometry": { "type": "Point", "coordinates": [ 120.976648626718045, 14.305610399467531 ] } },
{ "type": "Feature", "properties": { "fid": 6, "id": 6, "cluster_id": "203", "column": null, "row": "A" }, "geometry": { "type": "Point", "coordinates": [ 120.976657551321509, 14.305611210795117 ] } },
{ "type": "Feature", "properties": { "fid": 7, "id": 7, "cluster_id": "203", "column": null, "row": "A" }, "geometry": { "type": "Point", "coordinates": [ 120.97666539415485, 14.305612292565234 ] } },
{ "type": "Feature", "properties": { "fid": 8, "id": 8, "cluster_id": "203", "column": null, "row": "A" }, "geometry": { "type": "Point", "coordinates": [ 120.976672696103137, 14.305613103892822 ] } },
{ "type": "Feature", "properties": { "fid": 9, "id": 9, "cluster_id": "203", "column": null, "row": "A" }, "geometry": { "type": "Point", "coordinates": [ 120.976683784246831, 14.30561364477788 ] } },
{ "type": "Feature", "properties": { "fid": 10, "id": 10, "cluster_id": "203", "column": null, "row": "A" }, "geometry": { "type": "Point", "coordinates": [ 120.976692438407767, 14.30561364477788 ] } }
]
}
