{
"type": "FeatureCollection",
"name": "cltr-id-194-b-row",
"crs": { "type": "name", "properties": { "name": "urn:ogc:def:crs:OGC:1.3:CRS84" } },
"features": [
{ "type": "Feature", "properties": { "fid": 1, "id": 1, "cluster_id": "194", "column": null, "row": "B" }, "geometry": { "type": "Point", "coordinates": [ 120.976733331571765, 14.305724143087883 ] } },
{ "type": "Feature", "properties": { "fid": 2, "id": 2, "cluster_id": "194", "column": null, "row": "B" }, "geometry": { "type": "Point", "coordinates": [ 120.976744149272918, 14.30572792928329 ] } },
{ "type": "Feature", "properties": { "fid": 3, "id": 3, "cluster_id": "194", "column": null, "row": "B" }, "geometry": { "type": "Point", "coordinates": [ 120.976757671399383, 14.305729551938466 ] } },
{ "type": "Feature", "properties": { "fid": 4, "id": 4, "cluster_id": "194", "column": null, "row": "B" }, "geometry": { "type": "Point", "coordinates": [ 120.976769570870673, 14.305729011053407 ] } },
{ "type": "Feature", "properties": { "fid": 5, "id": 5, "cluster_id": "194", "column": null, "row": "B" }, "geometry": { "type": "Point", "coordinates": [ 120.976783633882178, 14.305730633708581 ] } },
{ "type": "Feature", "properties": { "fid": 6, "id": 6, "cluster_id": "194", "column": null, "row": "B" }, "geometry": { "type": "Point", "coordinates": [ 120.976796615123575, 14.305732797248814 ] } },
{ "type": "Feature", "properties": { "fid": 7, "id": 7, "cluster_id": "194", "column": null, "row": "B" }, "geometry": { "type": "Point", "coordinates": [ 120.976810137250027, 14.305735501674105 ] } },
{ "type": "Feature", "properties": { "fid": 8, "id": 8, "cluster_id": "194", "column": null, "row": "B" }, "geometry": { "type": "Point", "coordinates": [ 120.976822036721316, 14.305735501674105 ] } },
{ "type": "Feature", "properties": { "fid": 9, "id": 9, "cluster_id": "194", "column": null, "row": "B" }, "geometry": { "type": "Point", "coordinates": [ 120.976829068227076, 14.305735501674105 ] } },
{ "type": "Feature", "properties": { "fid": 10, "id": 10, "cluster_id": "194", "column": null, "row": "B" }, "geometry": { "type": "Point", "coordinates": [ 120.976839345043174, 14.30573658344422 ] } },
{ "type": "Feature", "properties": { "fid": 11, "id": 11, "cluster_id": "194", "column": null, "row": "B" }, "geometry": { "type": "Point", "coordinates": [ 120.976847999204111, 14.305737665214338 ] } },
{ "type": "Feature", "properties": { "fid": 12, "id": 12, "cluster_id": "194", "column": null, "row": "B" }, "geometry": { "type": "Point", "coordinates": [ 120.976856653365033, 14.305739287869512 ] } },
{ "type": "Feature", "properties": { "fid": 13, "id": 13, "cluster_id": "194", "column": null, "row": "B" }, "geometry": { "type": "Point", "coordinates": [ 120.976864766640915, 14.30573982875457 ] } },
{ "type": "Feature", "properties": { "fid": 14, "id": 14, "cluster_id": "194", "column": null, "row": "B" }, "geometry": { "type": "Point", "coordinates": [ 120.976873961686906, 14.305740369639629 ] } },
{ "type": "Feature", "properties": { "fid": 15, "id": 15, "cluster_id": "194", "column": null, "row": "B" }, "geometry": { "type": "Point", "coordinates": [ 120.976883156732896, 14.305741992294804 ] } },
{ "type": "Feature", "properties": { "fid": 16, "id": 16, "cluster_id": "194", "column": null, "row": "B" }, "geometry": { "type": "Point", "coordinates": [ 120.976893974434049, 14.305743074064919 ] } },
{ "type": "Feature", "properties": { "fid": 17, "id": 17, "cluster_id": "194", "column": null, "row": "B" }, "geometry": { "type": "Point", "coordinates": [ 120.976902087709931, 14.305745237605151 ] } },
{ "type": "Feature", "properties": { "fid": 18, "id": 18, "cluster_id": "194", "column": null, "row": "B" }, "geometry": { "type": "Point", "coordinates": [ 120.976909119215691, 14.305745237605151 ] } },
{ "type": "Feature", "properties": { "fid": 19, "id": 19, "cluster_id": "194", "column": null, "row": "B" }, "geometry": { "type": "Point", "coordinates": [ 120.976922100457088, 14.305746319375269 ] } },
{ "type": "Feature", "properties": { "fid": 20, "id": 20, "cluster_id": "194", "column": null, "row": "B" }, "geometry": { "type": "Point", "coordinates": [ 120.97693075461801, 14.305748482915501 ] } },
{ "type": "Feature", "properties": { "fid": 21, "id": 21, "cluster_id": "194", "column": null, "row": "B" }, "geometry": { "type": "Point", "coordinates": [ 120.976942113204231, 14.305747942030443 ] } },
{ "type": "Feature", "properties": { "fid": 22, "id": 22, "cluster_id": "194", "column": null, "row": "B" }, "geometry": { "type": "Point", "coordinates": [ 120.97695184913529, 14.305749564685618 ] } },
{ "type": "Feature", "properties": { "fid": 23, "id": 23, "cluster_id": "194", "column": null, "row": "B" }, "geometry": { "type": "Point", "coordinates": [ 120.976961044181266, 14.305749564685618 ] } },
{ "type": "Feature", "properties": { "fid": 24, "id": 24, "cluster_id": "194", "column": null, "row": "B" }, "geometry": { "type": "Point", "coordinates": [ 120.976972402767501, 14.305752809995967 ] } },
{ "type": "Feature", "properties": { "fid": 25, "id": 25, "cluster_id": "194", "column": null, "row": "B" }, "geometry": { "type": "Point", "coordinates": [ 120.976977811618085, 14.305753350881025 ] } },
{ "type": "Feature", "properties": { "fid": 26, "id": 26, "cluster_id": "194", "column": null, "row": "B" }, "geometry": { "type": "Point", "coordinates": [ 120.976987547549129, 14.305753891766084 ] } },
{ "type": "Feature", "properties": { "fid": 27, "id": 27, "cluster_id": "194", "column": null, "row": "B" }, "geometry": { "type": "Point", "coordinates": [ 120.976996201710051, 14.3057549735362 ] } },
{ "type": "Feature", "properties": { "fid": 28, "id": 28, "cluster_id": "194", "column": null, "row": "B" }, "geometry": { "type": "Point", "coordinates": [ 120.977006478526164, 14.305757137076434 ] } },
{ "type": "Feature", "properties": { "fid": 29, "id": 29, "cluster_id": "194", "column": null, "row": "B" }, "geometry": { "type": "Point", "coordinates": [ 120.9770151326871, 14.305755514421259 ] } },
{ "type": "Feature", "properties": { "fid": 30, "id": 30, "cluster_id": "194", "column": null, "row": "B" }, "geometry": { "type": "Point", "coordinates": [ 120.977021623307792, 14.305757137076434 ] } },
{ "type": "Feature", "properties": { "fid": 31, "id": 31, "cluster_id": "194", "column": null, "row": "B" }, "geometry": { "type": "Point", "coordinates": [ 120.977028654813552, 14.305757677961491 ] } },
{ "type": "Feature", "properties": { "fid": 32, "id": 32, "cluster_id": "194", "column": null, "row": "B" }, "geometry": { "type": "Point", "coordinates": [ 120.977031359238836, 14.305746860260326 ] } },
{ "type": "Feature", "properties": { "fid": 33, "id": 33, "cluster_id": "194", "column": null, "row": "B" }, "geometry": { "type": "Point", "coordinates": [ 120.977033522779081, 14.305739828754572 ] } }
]
}
