{
"type": "FeatureCollection",
"name": "cltr-id-155-d-row",
"crs": { "type": "name", "properties": { "name": "urn:ogc:def:crs:OGC:1.3:CRS84" } },
"features": [
{ "type": "Feature", "properties": { "fid": 1, "id": 1, "cluster_id": "155", "column": null, "row": "D" }, "geometry": { "type": "Point", "coordinates": [ 120.976016457289717, 14.305907280257978 ] } },
{ "type": "Feature", "properties": { "fid": 2, "id": 2, "cluster_id": "155", "column": null, "row": "D" }, "geometry": { "type": "Point", "coordinates": [ 120.976015175191804, 14.305901190292877 ] } },
{ "type": "Feature", "properties": { "fid": 3, "id": 3, "cluster_id": "155", "column": null, "row": "D" }, "geometry": { "type": "Point", "coordinates": [ 120.976018059912121, 14.305895420852256 ] } },
{ "type": "Feature", "properties": { "fid": 4, "id": 4, "cluster_id": "155", "column": null, "row": "D" }, "geometry": { "type": "Point", "coordinates": [ 120.976025111450653, 14.305894779803298 ] } },
{ "type": "Feature", "properties": { "fid": 5, "id": 5, "cluster_id": "155", "column": null, "row": "D" }, "geometry": { "type": "Point", "coordinates": [ 120.976035688758458, 14.305895741376734 ] } },
{ "type": "Feature", "properties": { "fid": 6, "id": 6, "cluster_id": "155", "column": null, "row": "D" }, "geometry": { "type": "Point", "coordinates": [ 120.976042419772511, 14.30589702347465 ] } },
{ "type": "Feature", "properties": { "fid": 7, "id": 7, "cluster_id": "155", "column": null, "row": "D" }, "geometry": { "type": "Point", "coordinates": [ 120.976053317604809, 14.305897985048087 ] } },
{ "type": "Feature", "properties": { "fid": 8, "id": 8, "cluster_id": "155", "column": null, "row": "D" }, "geometry": { "type": "Point", "coordinates": [ 120.97606036914334, 14.305899908194961 ] } },
{ "type": "Feature", "properties": { "fid": 9, "id": 9, "cluster_id": "155", "column": null, "row": "D" }, "geometry": { "type": "Point", "coordinates": [ 120.976070946451145, 14.305900228719439 ] } },
{ "type": "Feature", "properties": { "fid": 10, "id": 10, "cluster_id": "155", "column": null, "row": "D" }, "geometry": { "type": "Point", "coordinates": [ 120.976077356940721, 14.305899587670481 ] } },
{ "type": "Feature", "properties": { "fid": 11, "id": 11, "cluster_id": "155", "column": null, "row": "D" }, "geometry": { "type": "Point", "coordinates": [ 120.976087293199569, 14.305900228719439 ] } },
{ "type": "Feature", "properties": { "fid": 12, "id": 12, "cluster_id": "155", "column": null, "row": "D" }, "geometry": { "type": "Point", "coordinates": [ 120.976093703689159, 14.305901831341835 ] } },
{ "type": "Feature", "properties": { "fid": 13, "id": 13, "cluster_id": "155", "column": null, "row": "D" }, "geometry": { "type": "Point", "coordinates": [ 120.976105242570398, 14.305901510817355 ] } },
{ "type": "Feature", "properties": { "fid": 14, "id": 14, "cluster_id": "155", "column": null, "row": "D" }, "geometry": { "type": "Point", "coordinates": [ 120.976111973584452, 14.305901831341835 ] } },
{ "type": "Feature", "properties": { "fid": 15, "id": 15, "cluster_id": "155", "column": null, "row": "D" }, "geometry": { "type": "Point", "coordinates": [ 120.976122871416734, 14.305903433964229 ] } },
{ "type": "Feature", "properties": { "fid": 16, "id": 16, "cluster_id": "155", "column": null, "row": "D" }, "geometry": { "type": "Point", "coordinates": [ 120.976131525577671, 14.305904716062145 ] } },
{ "type": "Feature", "properties": { "fid": 17, "id": 17, "cluster_id": "155", "column": null, "row": "D" }, "geometry": { "type": "Point", "coordinates": [ 120.976140179738607, 14.305903433964229 ] } },
{ "type": "Feature", "properties": { "fid": 18, "id": 18, "cluster_id": "155", "column": null, "row": "D" }, "geometry": { "type": "Point", "coordinates": [ 120.976148192850573, 14.305906959733498 ] } },
{ "type": "Feature", "properties": { "fid": 19, "id": 19, "cluster_id": "155", "column": null, "row": "D" }, "geometry": { "type": "Point", "coordinates": [ 120.976155885438075, 14.305905036586624 ] } },
{ "type": "Feature", "properties": { "fid": 20, "id": 20, "cluster_id": "155", "column": null, "row": "D" }, "geometry": { "type": "Point", "coordinates": [ 120.976164219074533, 14.305905998160062 ] } },
{ "type": "Feature", "properties": { "fid": 21, "id": 21, "cluster_id": "155", "column": null, "row": "D" }, "geometry": { "type": "Point", "coordinates": [ 120.976173514284412, 14.30590631868454 ] } },
{ "type": "Feature", "properties": { "fid": 22, "id": 22, "cluster_id": "155", "column": null, "row": "D" }, "geometry": { "type": "Point", "coordinates": [ 120.97618184792087, 14.305907921306936 ] } },
{ "type": "Feature", "properties": { "fid": 23, "id": 23, "cluster_id": "155", "column": null, "row": "D" }, "geometry": { "type": "Point", "coordinates": [ 120.976189540508372, 14.30590663920902 ] } },
{ "type": "Feature", "properties": { "fid": 24, "id": 24, "cluster_id": "155", "column": null, "row": "D" }, "geometry": { "type": "Point", "coordinates": [ 120.976198515193772, 14.305909203404852 ] } },
{ "type": "Feature", "properties": { "fid": 25, "id": 25, "cluster_id": "155", "column": null, "row": "D" }, "geometry": { "type": "Point", "coordinates": [ 120.976206207781274, 14.305910164978288 ] } },
{ "type": "Feature", "properties": { "fid": 26, "id": 26, "cluster_id": "155", "column": null, "row": "D" }, "geometry": { "type": "Point", "coordinates": [ 120.976214861942211, 14.305909203404852 ] } },
{ "type": "Feature", "properties": { "fid": 27, "id": 27, "cluster_id": "155", "column": null, "row": "D" }, "geometry": { "type": "Point", "coordinates": [ 120.97622223400522, 14.305911767600684 ] } },
{ "type": "Feature", "properties": { "fid": 28, "id": 28, "cluster_id": "155", "column": null, "row": "D" }, "geometry": { "type": "Point", "coordinates": [ 120.976232490788547, 14.305911126551726 ] } },
{ "type": "Feature", "properties": { "fid": 29, "id": 29, "cluster_id": "155", "column": null, "row": "D" }, "geometry": { "type": "Point", "coordinates": [ 120.976242427047396, 14.305912729174119 ] } },
{ "type": "Feature", "properties": { "fid": 30, "id": 30, "cluster_id": "155", "column": null, "row": "D" }, "geometry": { "type": "Point", "coordinates": [ 120.976253965928635, 14.305914011272035 ] } },
{ "type": "Feature", "properties": { "fid": 31, "id": 31, "cluster_id": "155", "column": null, "row": "D" }, "geometry": { "type": "Point", "coordinates": [ 120.976265825334366, 14.305913690747557 ] } },
{ "type": "Feature", "properties": { "fid": 32, "id": 32, "cluster_id": "155", "column": null, "row": "D" }, "geometry": { "type": "Point", "coordinates": [ 120.976275761593214, 14.305915293369951 ] } },
{ "type": "Feature", "properties": { "fid": 33, "id": 33, "cluster_id": "155", "column": null, "row": "D" }, "geometry": { "type": "Point", "coordinates": [ 120.976287620998932, 14.305913370223077 ] } },
{ "type": "Feature", "properties": { "fid": 34, "id": 34, "cluster_id": "155", "column": null, "row": "D" }, "geometry": { "type": "Point", "coordinates": [ 120.976297877782258, 14.305917537041305 ] } },
{ "type": "Feature", "properties": { "fid": 35, "id": 35, "cluster_id": "155", "column": null, "row": "D" }, "geometry": { "type": "Point", "coordinates": [ 120.976307493516629, 14.305916575467867 ] } },
{ "type": "Feature", "properties": { "fid": 36, "id": 36, "cluster_id": "155", "column": null, "row": "D" }, "geometry": { "type": "Point", "coordinates": [ 120.976316788726521, 14.305919780712657 ] } }
]
}
