{
"type": "FeatureCollection",
"name": "cltr-id-188-d-row",
"crs": { "type": "name", "properties": { "name": "urn:ogc:def:crs:OGC:1.3:CRS84" } },
"features": [
{ "type": "Feature", "properties": { "fid": 1, "id": 1, "cluster_id": "188", "column": null, "row": "D" }, "geometry": { "type": "Point", "coordinates": [ 120.976577691896424, 14.305843273021949 ] } },
{ "type": "Feature", "properties": { "fid": 2, "id": 2, "cluster_id": "188", "column": null, "row": "D" }, "geometry": { "type": "Point", "coordinates": [ 120.976585534729765, 14.305844895677124 ] } },
{ "type": "Feature", "properties": { "fid": 3, "id": 3, "cluster_id": "188", "column": null, "row": "D" }, "geometry": { "type": "Point", "coordinates": [ 120.976592295792997, 14.305845166119655 ] } },
{ "type": "Feature", "properties": { "fid": 4, "id": 4, "cluster_id": "188", "column": null, "row": "D" }, "geometry": { "type": "Point", "coordinates": [ 120.976599597741284, 14.305847059217358 ] } },
{ "type": "Feature", "properties": { "fid": 5, "id": 5, "cluster_id": "188", "column": null, "row": "D" }, "geometry": { "type": "Point", "coordinates": [ 120.976607711017152, 14.305846788774829 ] } },
{ "type": "Feature", "properties": { "fid": 6, "id": 6, "cluster_id": "188", "column": null, "row": "D" }, "geometry": { "type": "Point", "coordinates": [ 120.976616365178089, 14.305848411430004 ] } },
{ "type": "Feature", "properties": { "fid": 7, "id": 7, "cluster_id": "188", "column": null, "row": "D" }, "geometry": { "type": "Point", "coordinates": [ 120.976623667126375, 14.305848952315062 ] } },
{ "type": "Feature", "properties": { "fid": 8, "id": 8, "cluster_id": "188", "column": null, "row": "D" }, "geometry": { "type": "Point", "coordinates": [ 120.976631239517189, 14.305848952315062 ] } },
{ "type": "Feature", "properties": { "fid": 9, "id": 9, "cluster_id": "188", "column": null, "row": "D" }, "geometry": { "type": "Point", "coordinates": [ 120.976639893678112, 14.305850304527707 ] } },
{ "type": "Feature", "properties": { "fid": 10, "id": 10, "cluster_id": "188", "column": null, "row": "D" }, "geometry": { "type": "Point", "coordinates": [ 120.976648547839048, 14.305850304527707 ] } },
{ "type": "Feature", "properties": { "fid": 11, "id": 11, "cluster_id": "188", "column": null, "row": "D" }, "geometry": { "type": "Point", "coordinates": [ 120.976659095097688, 14.305851656740352 ] } },
{ "type": "Feature", "properties": { "fid": 12, "id": 12, "cluster_id": "188", "column": null, "row": "D" }, "geometry": { "type": "Point", "coordinates": [ 120.976669371913786, 14.305852197625411 ] } },
{ "type": "Feature", "properties": { "fid": 13, "id": 13, "cluster_id": "188", "column": null, "row": "D" }, "geometry": { "type": "Point", "coordinates": [ 120.976680189614953, 14.305848140987473 ] } },
{ "type": "Feature", "properties": { "fid": 14, "id": 14, "cluster_id": "188", "column": null, "row": "D" }, "geometry": { "type": "Point", "coordinates": [ 120.976680189614953, 14.305842461694363 ] } }
]
}
