{
"type": "FeatureCollection",
"name": "cltr-id-152-b-row",
"crs": { "type": "name", "properties": { "name": "urn:ogc:def:crs:OGC:1.3:CRS84" } },
"features": [
{ "type": "Feature", "properties": { "fid": 1, "id": 1, "cluster_id": "152", "column": null, "row": "B" }, "geometry": { "type": "Point", "coordinates": [ 120.976029238203395, 14.305800144950876 ] } },
{ "type": "Feature", "properties": { "fid": 2, "id": 2, "cluster_id": "152", "column": null, "row": "B" }, "geometry": { "type": "Point", "coordinates": [ 120.97603933472449, 14.305800705868714 ] } },
{ "type": "Feature", "properties": { "fid": 3, "id": 3, "cluster_id": "152", "column": null, "row": "B" }, "geometry": { "type": "Point", "coordinates": [ 120.976044943902863, 14.305801266786553 ] } },
{ "type": "Feature", "properties": { "fid": 4, "id": 4, "cluster_id": "152", "column": null, "row": "B" }, "geometry": { "type": "Point", "coordinates": [ 120.976053918588278, 14.305802949540068 ] } },
{ "type": "Feature", "properties": { "fid": 5, "id": 5, "cluster_id": "152", "column": null, "row": "B" }, "geometry": { "type": "Point", "coordinates": [ 120.976060088684505, 14.305801266786553 ] } },
{ "type": "Feature", "properties": { "fid": 6, "id": 6, "cluster_id": "152", "column": null, "row": "B" }, "geometry": { "type": "Point", "coordinates": [ 120.97606850245208, 14.305801827704391 ] } },
{ "type": "Feature", "properties": { "fid": 7, "id": 7, "cluster_id": "152", "column": null, "row": "B" }, "geometry": { "type": "Point", "coordinates": [ 120.976076355301814, 14.305804071375745 ] } },
{ "type": "Feature", "properties": { "fid": 8, "id": 8, "cluster_id": "152", "column": null, "row": "B" }, "geometry": { "type": "Point", "coordinates": [ 120.976084208151548, 14.305805754129258 ] } },
{ "type": "Feature", "properties": { "fid": 9, "id": 9, "cluster_id": "152", "column": null, "row": "B" }, "geometry": { "type": "Point", "coordinates": [ 120.976092061001282, 14.305806315047096 ] } },
{ "type": "Feature", "properties": { "fid": 10, "id": 10, "cluster_id": "152", "column": null, "row": "B" }, "geometry": { "type": "Point", "coordinates": [ 120.976100474768856, 14.305806315047096 ] } },
{ "type": "Feature", "properties": { "fid": 11, "id": 11, "cluster_id": "152", "column": null, "row": "B" }, "geometry": { "type": "Point", "coordinates": [ 120.97610832761859, 14.305810802389802 ] } },
{ "type": "Feature", "properties": { "fid": 12, "id": 12, "cluster_id": "152", "column": null, "row": "B" }, "geometry": { "type": "Point", "coordinates": [ 120.976116741386164, 14.305807997800612 ] } },
{ "type": "Feature", "properties": { "fid": 13, "id": 13, "cluster_id": "152", "column": null, "row": "B" }, "geometry": { "type": "Point", "coordinates": [ 120.976124033318058, 14.305809680554125 ] } },
{ "type": "Feature", "properties": { "fid": 14, "id": 14, "cluster_id": "152", "column": null, "row": "B" }, "geometry": { "type": "Point", "coordinates": [ 120.976135251674819, 14.305809119636288 ] } },
{ "type": "Feature", "properties": { "fid": 15, "id": 15, "cluster_id": "152", "column": null, "row": "B" }, "geometry": { "type": "Point", "coordinates": [ 120.976141982688873, 14.305811924225479 ] } },
{ "type": "Feature", "properties": { "fid": 16, "id": 16, "cluster_id": "152", "column": null, "row": "B" }, "geometry": { "type": "Point", "coordinates": [ 120.976154322881314, 14.30581136330764 ] } },
{ "type": "Feature", "properties": { "fid": 17, "id": 17, "cluster_id": "152", "column": null, "row": "B" }, "geometry": { "type": "Point", "coordinates": [ 120.976161053895382, 14.305809680554125 ] } },
{ "type": "Feature", "properties": { "fid": 18, "id": 18, "cluster_id": "152", "column": null, "row": "B" }, "geometry": { "type": "Point", "coordinates": [ 120.976168345827276, 14.305813606978994 ] } },
{ "type": "Feature", "properties": { "fid": 19, "id": 19, "cluster_id": "152", "column": null, "row": "B" }, "geometry": { "type": "Point", "coordinates": [ 120.97617675959485, 14.305813606978994 ] } },
{ "type": "Feature", "properties": { "fid": 20, "id": 20, "cluster_id": "152", "column": null, "row": "B" }, "geometry": { "type": "Point", "coordinates": [ 120.976185173362424, 14.305813046061155 ] } },
{ "type": "Feature", "properties": { "fid": 21, "id": 21, "cluster_id": "152", "column": null, "row": "B" }, "geometry": { "type": "Point", "coordinates": [ 120.976193026212158, 14.305814167896832 ] } },
{ "type": "Feature", "properties": { "fid": 22, "id": 22, "cluster_id": "152", "column": null, "row": "B" }, "geometry": { "type": "Point", "coordinates": [ 120.976200879061892, 14.305816411568184 ] } },
{ "type": "Feature", "properties": { "fid": 23, "id": 23, "cluster_id": "152", "column": null, "row": "B" }, "geometry": { "type": "Point", "coordinates": [ 120.976210414665147, 14.305815850650346 ] } },
{ "type": "Feature", "properties": { "fid": 24, "id": 24, "cluster_id": "152", "column": null, "row": "B" }, "geometry": { "type": "Point", "coordinates": [ 120.976218267514881, 14.305816411568184 ] } },
{ "type": "Feature", "properties": { "fid": 25, "id": 25, "cluster_id": "152", "column": null, "row": "B" }, "geometry": { "type": "Point", "coordinates": [ 120.976224998528934, 14.305815850650346 ] } },
{ "type": "Feature", "properties": { "fid": 26, "id": 26, "cluster_id": "152", "column": null, "row": "B" }, "geometry": { "type": "Point", "coordinates": [ 120.976232290460828, 14.305816972486022 ] } },
{ "type": "Feature", "properties": { "fid": 27, "id": 27, "cluster_id": "152", "column": null, "row": "B" }, "geometry": { "type": "Point", "coordinates": [ 120.976243508817589, 14.305815289732507 ] } },
{ "type": "Feature", "properties": { "fid": 28, "id": 28, "cluster_id": "152", "column": null, "row": "B" }, "geometry": { "type": "Point", "coordinates": [ 120.976252483503004, 14.305819216157376 ] } },
{ "type": "Feature", "properties": { "fid": 29, "id": 29, "cluster_id": "152", "column": null, "row": "B" }, "geometry": { "type": "Point", "coordinates": [ 120.976260336352738, 14.305817533403861 ] } },
{ "type": "Feature", "properties": { "fid": 30, "id": 30, "cluster_id": "152", "column": null, "row": "B" }, "geometry": { "type": "Point", "coordinates": [ 120.976269871955992, 14.305819216157376 ] } },
{ "type": "Feature", "properties": { "fid": 31, "id": 31, "cluster_id": "152", "column": null, "row": "B" }, "geometry": { "type": "Point", "coordinates": [ 120.976277724805726, 14.305820337993051 ] } },
{ "type": "Feature", "properties": { "fid": 32, "id": 32, "cluster_id": "152", "column": null, "row": "B" }, "geometry": { "type": "Point", "coordinates": [ 120.976289504080327, 14.305821459828728 ] } },
{ "type": "Feature", "properties": { "fid": 33, "id": 33, "cluster_id": "152", "column": null, "row": "B" }, "geometry": { "type": "Point", "coordinates": [ 120.976300161519248, 14.305823703500081 ] } },
{ "type": "Feature", "properties": { "fid": 34, "id": 34, "cluster_id": "152", "column": null, "row": "B" }, "geometry": { "type": "Point", "coordinates": [ 120.976311379876023, 14.305822581664405 ] } },
{ "type": "Feature", "properties": { "fid": 35, "id": 35, "cluster_id": "152", "column": null, "row": "B" }, "geometry": { "type": "Point", "coordinates": [ 120.976337743014412, 14.305822581664405 ] } },
{ "type": "Feature", "properties": { "fid": 36, "id": 36, "cluster_id": "152", "column": null, "row": "B" }, "geometry": { "type": "Point", "coordinates": [ 120.976339425767932, 14.305815289732507 ] } }
]
}
