{
"type": "FeatureCollection",
"name": "cltr-id-215-b-row",
"crs": { "type": "name", "properties": { "name": "urn:ogc:def:crs:OGC:1.3:CRS84" } },
"features": [
{ "type": "Feature", "properties": { "fid": 1, "id": 1, "cluster_id": "215", "column": null, "row": "B" }, "geometry": { "type": "Point", "coordinates": [ 120.976710614399323, 14.305764168582197 ] } },
{ "type": "Feature", "properties": { "fid": 2, "id": 2, "cluster_id": "215", "column": null, "row": "B" }, "geometry": { "type": "Point", "coordinates": [ 120.976717105020029, 14.305764709467255 ] } },
{ "type": "Feature", "properties": { "fid": 3, "id": 3, "cluster_id": "215", "column": null, "row": "B" }, "geometry": { "type": "Point", "coordinates": [ 120.976724136525789, 14.305764709467255 ] } },
{ "type": "Feature", "properties": { "fid": 4, "id": 4, "cluster_id": "215", "column": null, "row": "B" }, "geometry": { "type": "Point", "coordinates": [ 120.976734413341887, 14.305765250352314 ] } },
{ "type": "Feature", "properties": { "fid": 5, "id": 5, "cluster_id": "215", "column": null, "row": "B" }, "geometry": { "type": "Point", "coordinates": [ 120.976740903962593, 14.305766332122429 ] } },
{ "type": "Feature", "properties": { "fid": 6, "id": 6, "cluster_id": "215", "column": null, "row": "B" }, "geometry": { "type": "Point", "coordinates": [ 120.976749017238461, 14.305766873007489 ] } },
{ "type": "Feature", "properties": { "fid": 7, "id": 7, "cluster_id": "215", "column": null, "row": "B" }, "geometry": { "type": "Point", "coordinates": [ 120.976756048744221, 14.305767413892546 ] } },
{ "type": "Feature", "properties": { "fid": 8, "id": 8, "cluster_id": "215", "column": null, "row": "B" }, "geometry": { "type": "Point", "coordinates": [ 120.976761998479844, 14.305767954777604 ] } },
{ "type": "Feature", "properties": { "fid": 9, "id": 9, "cluster_id": "215", "column": null, "row": "B" }, "geometry": { "type": "Point", "coordinates": [ 120.976767407330442, 14.305767954777604 ] } },
{ "type": "Feature", "properties": { "fid": 10, "id": 10, "cluster_id": "215", "column": null, "row": "B" }, "geometry": { "type": "Point", "coordinates": [ 120.976780388571825, 14.305770118317838 ] } },
{ "type": "Feature", "properties": { "fid": 11, "id": 11, "cluster_id": "215", "column": null, "row": "B" }, "geometry": { "type": "Point", "coordinates": [ 120.976790665387938, 14.305770118317836 ] } },
{ "type": "Feature", "properties": { "fid": 12, "id": 12, "cluster_id": "215", "column": null, "row": "B" }, "geometry": { "type": "Point", "coordinates": [ 120.976797696893698, 14.305771200087953 ] } },
{ "type": "Feature", "properties": { "fid": 13, "id": 13, "cluster_id": "215", "column": null, "row": "B" }, "geometry": { "type": "Point", "coordinates": [ 120.976804728399458, 14.30577228185807 ] } },
{ "type": "Feature", "properties": { "fid": 14, "id": 14, "cluster_id": "215", "column": null, "row": "B" }, "geometry": { "type": "Point", "coordinates": [ 120.976815005215556, 14.305771740973013 ] } },
{ "type": "Feature", "properties": { "fid": 15, "id": 15, "cluster_id": "215", "column": null, "row": "B" }, "geometry": { "type": "Point", "coordinates": [ 120.976824200261547, 14.305773904513245 ] } },
{ "type": "Feature", "properties": { "fid": 16, "id": 16, "cluster_id": "215", "column": null, "row": "B" }, "geometry": { "type": "Point", "coordinates": [ 120.976834477077659, 14.305773363628187 ] } },
{ "type": "Feature", "properties": { "fid": 17, "id": 17, "cluster_id": "215", "column": null, "row": "B" }, "geometry": { "type": "Point", "coordinates": [ 120.976844753893758, 14.305773904513245 ] } },
{ "type": "Feature", "properties": { "fid": 18, "id": 18, "cluster_id": "215", "column": null, "row": "B" }, "geometry": { "type": "Point", "coordinates": [ 120.976855030709871, 14.305776608938537 ] } },
{ "type": "Feature", "properties": { "fid": 19, "id": 19, "cluster_id": "215", "column": null, "row": "B" }, "geometry": { "type": "Point", "coordinates": [ 120.976864766640915, 14.305777690708652 ] } },
{ "type": "Feature", "properties": { "fid": 20, "id": 20, "cluster_id": "215", "column": null, "row": "B" }, "geometry": { "type": "Point", "coordinates": [ 120.976873961686906, 14.305777690708652 ] } },
{ "type": "Feature", "properties": { "fid": 21, "id": 21, "cluster_id": "215", "column": null, "row": "B" }, "geometry": { "type": "Point", "coordinates": [ 120.97688369761795, 14.305779313363827 ] } },
{ "type": "Feature", "properties": { "fid": 22, "id": 22, "cluster_id": "215", "column": null, "row": "B" }, "geometry": { "type": "Point", "coordinates": [ 120.976891270008764, 14.305779854248886 ] } },
{ "type": "Feature", "properties": { "fid": 23, "id": 23, "cluster_id": "215", "column": null, "row": "B" }, "geometry": { "type": "Point", "coordinates": [ 120.9768999241697, 14.305782017789118 ] } },
{ "type": "Feature", "properties": { "fid": 24, "id": 24, "cluster_id": "215", "column": null, "row": "B" }, "geometry": { "type": "Point", "coordinates": [ 120.976909119215691, 14.305782558674176 ] } },
{ "type": "Feature", "properties": { "fid": 25, "id": 25, "cluster_id": "215", "column": null, "row": "B" }, "geometry": { "type": "Point", "coordinates": [ 120.976921559572034, 14.305783640444293 ] } },
{ "type": "Feature", "properties": { "fid": 26, "id": 26, "cluster_id": "215", "column": null, "row": "B" }, "geometry": { "type": "Point", "coordinates": [ 120.976930213732956, 14.30578472221441 ] } },
{ "type": "Feature", "properties": { "fid": 27, "id": 27, "cluster_id": "215", "column": null, "row": "B" }, "geometry": { "type": "Point", "coordinates": [ 120.976936163468608, 14.30578472221441 ] } },
{ "type": "Feature", "properties": { "fid": 28, "id": 28, "cluster_id": "215", "column": null, "row": "B" }, "geometry": { "type": "Point", "coordinates": [ 120.976945899399652, 14.30578472221441 ] } },
{ "type": "Feature", "properties": { "fid": 29, "id": 29, "cluster_id": "215", "column": null, "row": "B" }, "geometry": { "type": "Point", "coordinates": [ 120.976957257985873, 14.30578472221441 ] } },
{ "type": "Feature", "properties": { "fid": 30, "id": 30, "cluster_id": "215", "column": null, "row": "B" }, "geometry": { "type": "Point", "coordinates": [ 120.976970239227271, 14.305785263099468 ] } },
{ "type": "Feature", "properties": { "fid": 31, "id": 31, "cluster_id": "215", "column": null, "row": "B" }, "geometry": { "type": "Point", "coordinates": [ 120.976981056928437, 14.305786344869585 ] } },
{ "type": "Feature", "properties": { "fid": 32, "id": 32, "cluster_id": "215", "column": null, "row": "B" }, "geometry": { "type": "Point", "coordinates": [ 120.976989170204305, 14.305787967524759 ] } },
{ "type": "Feature", "properties": { "fid": 33, "id": 33, "cluster_id": "215", "column": null, "row": "B" }, "geometry": { "type": "Point", "coordinates": [ 120.977000528790526, 14.305787967524759 ] } },
{ "type": "Feature", "properties": { "fid": 34, "id": 34, "cluster_id": "215", "column": null, "row": "B" }, "geometry": { "type": "Point", "coordinates": [ 120.977010264721571, 14.305789049294875 ] } },
{ "type": "Feature", "properties": { "fid": 35, "id": 35, "cluster_id": "215", "column": null, "row": "B" }, "geometry": { "type": "Point", "coordinates": [ 120.977018918882507, 14.305790131064992 ] } }
]
}
