{
"type": "FeatureCollection",
"name": "cltr-id-187-c-row",
"crs": { "type": "name", "properties": { "name": "urn:ogc:def:crs:OGC:1.3:CRS84" } },
"features": [
{ "type": "Feature", "properties": { "fid": 1, "id": 1, "cluster_id": "187", "column": null, "row": "C" }, "geometry": { "type": "Point", "coordinates": [ 120.9765843177384, 14.305683982372315 ] } },
{ "type": "Feature", "properties": { "fid": 2, "id": 2, "cluster_id": "187", "column": null, "row": "C" }, "geometry": { "type": "Point", "coordinates": [ 120.976584993844725, 14.305679925734378 ] } },
{ "type": "Feature", "properties": { "fid": 3, "id": 3, "cluster_id": "187", "column": null, "row": "C" }, "geometry": { "type": "Point", "coordinates": [ 120.976590808359106, 14.305672894228621 ] } },
{ "type": "Feature", "properties": { "fid": 4, "id": 4, "cluster_id": "187", "column": null, "row": "C" }, "geometry": { "type": "Point", "coordinates": [ 120.976593918448188, 14.305672894228621 ] } },
{ "type": "Feature", "properties": { "fid": 5, "id": 5, "cluster_id": "187", "column": null, "row": "C" }, "geometry": { "type": "Point", "coordinates": [ 120.976597163758541, 14.305673029449885 ] } },
{ "type": "Feature", "properties": { "fid": 6, "id": 6, "cluster_id": "187", "column": null, "row": "C" }, "geometry": { "type": "Point", "coordinates": [ 120.97660054429015, 14.30567316467115 ] } },
{ "type": "Feature", "properties": { "fid": 7, "id": 7, "cluster_id": "187", "column": null, "row": "C" }, "geometry": { "type": "Point", "coordinates": [ 120.976604465706828, 14.305673299892415 ] } },
{ "type": "Feature", "properties": { "fid": 8, "id": 8, "cluster_id": "187", "column": null, "row": "C" }, "geometry": { "type": "Point", "coordinates": [ 120.976608387123491, 14.305673435113679 ] } },
{ "type": "Feature", "properties": { "fid": 9, "id": 9, "cluster_id": "187", "column": null, "row": "C" }, "geometry": { "type": "Point", "coordinates": [ 120.976611902876371, 14.305673975998738 ] } },
{ "type": "Feature", "properties": { "fid": 10, "id": 10, "cluster_id": "187", "column": null, "row": "C" }, "geometry": { "type": "Point", "coordinates": [ 120.976616094735576, 14.305673840777473 ] } },
{ "type": "Feature", "properties": { "fid": 11, "id": 11, "cluster_id": "187", "column": null, "row": "C" }, "geometry": { "type": "Point", "coordinates": [ 120.976619475267185, 14.305674381662531 ] } },
{ "type": "Feature", "properties": { "fid": 12, "id": 12, "cluster_id": "187", "column": null, "row": "C" }, "geometry": { "type": "Point", "coordinates": [ 120.976624208011444, 14.305674381662531 ] } },
{ "type": "Feature", "properties": { "fid": 13, "id": 13, "cluster_id": "187", "column": null, "row": "C" }, "geometry": { "type": "Point", "coordinates": [ 120.976627723764324, 14.305675192990119 ] } },
{ "type": "Feature", "properties": { "fid": 14, "id": 14, "cluster_id": "187", "column": null, "row": "C" }, "geometry": { "type": "Point", "coordinates": [ 120.976631645181001, 14.305675463432648 ] } },
{ "type": "Feature", "properties": { "fid": 15, "id": 15, "cluster_id": "187", "column": null, "row": "C" }, "geometry": { "type": "Point", "coordinates": [ 120.976635566597665, 14.305676139538971 ] } },
{ "type": "Feature", "properties": { "fid": 16, "id": 16, "cluster_id": "187", "column": null, "row": "C" }, "geometry": { "type": "Point", "coordinates": [ 120.976639488014342, 14.305676274760234 ] } },
{ "type": "Feature", "properties": { "fid": 17, "id": 17, "cluster_id": "187", "column": null, "row": "C" }, "geometry": { "type": "Point", "coordinates": [ 120.97664408553733, 14.305676409981499 ] } },
{ "type": "Feature", "properties": { "fid": 18, "id": 18, "cluster_id": "187", "column": null, "row": "C" }, "geometry": { "type": "Point", "coordinates": [ 120.976647466068954, 14.305676680424028 ] } },
{ "type": "Feature", "properties": { "fid": 19, "id": 19, "cluster_id": "187", "column": null, "row": "C" }, "geometry": { "type": "Point", "coordinates": [ 120.976650305715509, 14.305676545202765 ] } },
{ "type": "Feature", "properties": { "fid": 20, "id": 20, "cluster_id": "187", "column": null, "row": "C" }, "geometry": { "type": "Point", "coordinates": [ 120.976653145362064, 14.305676950866557 ] } },
{ "type": "Feature", "properties": { "fid": 21, "id": 21, "cluster_id": "187", "column": null, "row": "C" }, "geometry": { "type": "Point", "coordinates": [ 120.97665598500862, 14.305676815645294 ] } },
{ "type": "Feature", "properties": { "fid": 22, "id": 22, "cluster_id": "187", "column": null, "row": "C" }, "geometry": { "type": "Point", "coordinates": [ 120.976658418991377, 14.305677491751617 ] } },
{ "type": "Feature", "properties": { "fid": 23, "id": 23, "cluster_id": "187", "column": null, "row": "C" }, "geometry": { "type": "Point", "coordinates": [ 120.976661934744257, 14.305677897415409 ] } },
{ "type": "Feature", "properties": { "fid": 24, "id": 24, "cluster_id": "187", "column": null, "row": "C" }, "geometry": { "type": "Point", "coordinates": [ 120.976664233505758, 14.305677762194145 ] } },
{ "type": "Feature", "properties": { "fid": 25, "id": 25, "cluster_id": "187", "column": null, "row": "C" }, "geometry": { "type": "Point", "coordinates": [ 120.976666667488516, 14.30567762697288 ] } },
{ "type": "Feature", "properties": { "fid": 26, "id": 26, "cluster_id": "187", "column": null, "row": "C" }, "geometry": { "type": "Point", "coordinates": [ 120.976669912798869, 14.305677897415409 ] } },
{ "type": "Feature", "properties": { "fid": 27, "id": 27, "cluster_id": "187", "column": null, "row": "C" }, "geometry": { "type": "Point", "coordinates": [ 120.976672617224153, 14.305678303079203 ] } },
{ "type": "Feature", "properties": { "fid": 28, "id": 28, "cluster_id": "187", "column": null, "row": "C" }, "geometry": { "type": "Point", "coordinates": [ 120.976674780764384, 14.305678708742997 ] } },
{ "type": "Feature", "properties": { "fid": 29, "id": 29, "cluster_id": "187", "column": null, "row": "C" }, "geometry": { "type": "Point", "coordinates": [ 120.97667775563221, 14.305678573521732 ] } },
{ "type": "Feature", "properties": { "fid": 30, "id": 30, "cluster_id": "187", "column": null, "row": "C" }, "geometry": { "type": "Point", "coordinates": [ 120.97667991917244, 14.305678843964261 ] } },
{ "type": "Feature", "properties": { "fid": 31, "id": 31, "cluster_id": "187", "column": null, "row": "C" }, "geometry": { "type": "Point", "coordinates": [ 120.976682623597739, 14.305678979185526 ] } },
{ "type": "Feature", "properties": { "fid": 32, "id": 32, "cluster_id": "187", "column": null, "row": "C" }, "geometry": { "type": "Point", "coordinates": [ 120.976684651916699, 14.305679249628055 ] } },
{ "type": "Feature", "properties": { "fid": 33, "id": 33, "cluster_id": "187", "column": null, "row": "C" }, "geometry": { "type": "Point", "coordinates": [ 120.976686545014402, 14.30567938484932 ] } },
{ "type": "Feature", "properties": { "fid": 34, "id": 34, "cluster_id": "187", "column": null, "row": "C" }, "geometry": { "type": "Point", "coordinates": [ 120.976688843775904, 14.305679520070584 ] } },
{ "type": "Feature", "properties": { "fid": 35, "id": 35, "cluster_id": "187", "column": null, "row": "C" }, "geometry": { "type": "Point", "coordinates": [ 120.976691142537405, 14.305679925734378 ] } }
]
}
