{
"type": "FeatureCollection",
"name": "cltr-id-161-b-row",
"crs": { "type": "name", "properties": { "name": "urn:ogc:def:crs:OGC:1.3:CRS84" } },
"features": [
{ "type": "Feature", "properties": { "fid": 1, "id": 1, "cluster_id": "161", "column": null, "rows": "B" }, "geometry": { "type": "Point", "coordinates": [ 120.976379609017741, 14.305803247775241 ] } },
{ "type": "Feature", "properties": { "fid": 2, "id": 2, "cluster_id": "161", "column": null, "rows": "B" }, "geometry": { "type": "Point", "coordinates": [ 120.976380668953183, 14.305795192265848 ] } },
{ "type": "Feature", "properties": { "fid": 3, "id": 3, "cluster_id": "161", "column": null, "rows": "B" }, "geometry": { "type": "Point", "coordinates": [ 120.976386286611046, 14.305789786595072 ] } },
{ "type": "Feature", "properties": { "fid": 4, "id": 4, "cluster_id": "161", "column": null, "rows": "B" }, "geometry": { "type": "Point", "coordinates": [ 120.976396038017157, 14.305790210569251 ] } },
{ "type": "Feature", "properties": { "fid": 5, "id": 5, "cluster_id": "161", "column": null, "rows": "B" }, "geometry": { "type": "Point", "coordinates": [ 120.976406213397439, 14.305790952524063 ] } },
{ "type": "Feature", "properties": { "fid": 6, "id": 6, "cluster_id": "161", "column": null, "rows": "B" }, "geometry": { "type": "Point", "coordinates": [ 120.976415222848729, 14.305791588485331 ] } },
{ "type": "Feature", "properties": { "fid": 7, "id": 7, "cluster_id": "161", "column": null, "rows": "B" }, "geometry": { "type": "Point", "coordinates": [ 120.976424126306483, 14.305791906465965 ] } },
{ "type": "Feature", "properties": { "fid": 8, "id": 8, "cluster_id": "161", "column": null, "rows": "B" }, "geometry": { "type": "Point", "coordinates": [ 120.976432393802966, 14.305792542427232 ] } },
{ "type": "Feature", "properties": { "fid": 9, "id": 9, "cluster_id": "161", "column": null, "rows": "B" }, "geometry": { "type": "Point", "coordinates": [ 120.976440449312364, 14.305793072394955 ] } },
{ "type": "Feature", "properties": { "fid": 10, "id": 10, "cluster_id": "161", "column": null, "rows": "B" }, "geometry": { "type": "Point", "coordinates": [ 120.976448928795932, 14.305793496369134 ] } },
{ "type": "Feature", "properties": { "fid": 11, "id": 11, "cluster_id": "161", "column": null, "rows": "B" }, "geometry": { "type": "Point", "coordinates": [ 120.976457938247222, 14.305794132330401 ] } },
{ "type": "Feature", "properties": { "fid": 12, "id": 12, "cluster_id": "161", "column": null, "rows": "B" }, "geometry": { "type": "Point", "coordinates": [ 120.976466629717891, 14.30579455630458 ] } },
{ "type": "Feature", "properties": { "fid": 13, "id": 13, "cluster_id": "161", "column": null, "rows": "B" }, "geometry": { "type": "Point", "coordinates": [ 120.976475215194995, 14.305795192265848 ] } },
{ "type": "Feature", "properties": { "fid": 14, "id": 14, "cluster_id": "161", "column": null, "rows": "B" }, "geometry": { "type": "Point", "coordinates": [ 120.976484330639835, 14.305795828227117 ] } },
{ "type": "Feature", "properties": { "fid": 15, "id": 15, "cluster_id": "161", "column": null, "rows": "B" }, "geometry": { "type": "Point", "coordinates": [ 120.976491644194425, 14.305796040214206 ] } }
]
}
