{
"type": "FeatureCollection",
"name": "cltr-id-211-a-row",
"crs": { "type": "name", "properties": { "name": "urn:ogc:def:crs:OGC:1.3:CRS84" } },
"features": [
{ "type": "Feature", "properties": { "fid": 1, "id": 1, "cluster_id": "211", "column": null, "row": "A" }, "geometry": { "type": "Point", "coordinates": [ 120.976747800247239, 14.305483719679509 ] } },
{ "type": "Feature", "properties": { "fid": 2, "id": 2, "cluster_id": "211", "column": null, "row": "A" }, "geometry": { "type": "Point", "coordinates": [ 120.976755372638053, 14.305483178794452 ] } },
{ "type": "Feature", "properties": { "fid": 3, "id": 3, "cluster_id": "211", "column": null, "row": "A" }, "geometry": { "type": "Point", "coordinates": [ 120.976760781488636, 14.305484260564567 ] } },
{ "type": "Feature", "properties": { "fid": 4, "id": 4, "cluster_id": "211", "column": null, "row": "A" }, "geometry": { "type": "Point", "coordinates": [ 120.976769435649572, 14.305484260564567 ] } },
{ "type": "Feature", "properties": { "fid": 5, "id": 5, "cluster_id": "211", "column": null, "row": "A" }, "geometry": { "type": "Point", "coordinates": [ 120.976778089810495, 14.305485883219742 ] } },
{ "type": "Feature", "properties": { "fid": 6, "id": 6, "cluster_id": "211", "column": null, "row": "A" }, "geometry": { "type": "Point", "coordinates": [ 120.976782957776024, 14.305485342334684 ] } },
{ "type": "Feature", "properties": { "fid": 7, "id": 7, "cluster_id": "211", "column": null, "row": "A" }, "geometry": { "type": "Point", "coordinates": [ 120.976792693707068, 14.305486964989859 ] } },
{ "type": "Feature", "properties": { "fid": 8, "id": 8, "cluster_id": "211", "column": null, "row": "A" }, "geometry": { "type": "Point", "coordinates": [ 120.976801888753059, 14.305486964989859 ] } },
{ "type": "Feature", "properties": { "fid": 9, "id": 9, "cluster_id": "211", "column": null, "row": "A" }, "geometry": { "type": "Point", "coordinates": [ 120.976808379373765, 14.305488046759976 ] } },
{ "type": "Feature", "properties": { "fid": 10, "id": 10, "cluster_id": "211", "column": null, "row": "A" }, "geometry": { "type": "Point", "coordinates": [ 120.976815951764578, 14.305486964989859 ] } },
{ "type": "Feature", "properties": { "fid": 11, "id": 11, "cluster_id": "211", "column": null, "row": "A" }, "geometry": { "type": "Point", "coordinates": [ 120.976821901500216, 14.305488587645034 ] } },
{ "type": "Feature", "properties": { "fid": 12, "id": 12, "cluster_id": "211", "column": null, "row": "A" }, "geometry": { "type": "Point", "coordinates": [ 120.976832178316329, 14.305488046759976 ] } },
{ "type": "Feature", "properties": { "fid": 13, "id": 13, "cluster_id": "211", "column": null, "row": "A" }, "geometry": { "type": "Point", "coordinates": [ 120.976839750707143, 14.305489669415151 ] } },
{ "type": "Feature", "properties": { "fid": 14, "id": 14, "cluster_id": "211", "column": null, "row": "A" }, "geometry": { "type": "Point", "coordinates": [ 120.976850027523241, 14.305489128530091 ] } },
{ "type": "Feature", "properties": { "fid": 15, "id": 15, "cluster_id": "211", "column": null, "row": "A" }, "geometry": { "type": "Point", "coordinates": [ 120.976855977258879, 14.305490210300208 ] } },
{ "type": "Feature", "properties": { "fid": 16, "id": 16, "cluster_id": "211", "column": null, "row": "A" }, "geometry": { "type": "Point", "coordinates": [ 120.97686192699453, 14.305491292070325 ] } },
{ "type": "Feature", "properties": { "fid": 17, "id": 17, "cluster_id": "211", "column": null, "row": "A" }, "geometry": { "type": "Point", "coordinates": [ 120.976873826465805, 14.305491292070325 ] } },
{ "type": "Feature", "properties": { "fid": 18, "id": 18, "cluster_id": "211", "column": null, "row": "A" }, "geometry": { "type": "Point", "coordinates": [ 120.976880317086497, 14.305491832955383 ] } },
{ "type": "Feature", "properties": { "fid": 19, "id": 19, "cluster_id": "211", "column": null, "row": "A" }, "geometry": { "type": "Point", "coordinates": [ 120.976886266822149, 14.305491832955383 ] } },
{ "type": "Feature", "properties": { "fid": 20, "id": 20, "cluster_id": "211", "column": null, "row": "A" }, "geometry": { "type": "Point", "coordinates": [ 120.976902493373885, 14.305493455610558 ] } },
{ "type": "Feature", "properties": { "fid": 21, "id": 21, "cluster_id": "211", "column": null, "row": "A" }, "geometry": { "type": "Point", "coordinates": [ 120.976909524879645, 14.305494537380673 ] } },
{ "type": "Feature", "properties": { "fid": 22, "id": 22, "cluster_id": "211", "column": null, "row": "A" }, "geometry": { "type": "Point", "coordinates": [ 120.976920342580812, 14.305495078265732 ] } },
{ "type": "Feature", "properties": { "fid": 23, "id": 23, "cluster_id": "211", "column": null, "row": "A" }, "geometry": { "type": "Point", "coordinates": [ 120.976932242052087, 14.305496700920907 ] } },
{ "type": "Feature", "properties": { "fid": 24, "id": 24, "cluster_id": "211", "column": null, "row": "A" }, "geometry": { "type": "Point", "coordinates": [ 120.976940355327969, 14.305497782691022 ] } },
{ "type": "Feature", "properties": { "fid": 25, "id": 25, "cluster_id": "211", "column": null, "row": "A" }, "geometry": { "type": "Point", "coordinates": [ 120.976952254799244, 14.305497782691022 ] } },
{ "type": "Feature", "properties": { "fid": 26, "id": 26, "cluster_id": "211", "column": null, "row": "A" }, "geometry": { "type": "Point", "coordinates": [ 120.976965776925695, 14.305499405346197 ] } },
{ "type": "Feature", "properties": { "fid": 27, "id": 27, "cluster_id": "211", "column": null, "row": "A" }, "geometry": { "type": "Point", "coordinates": [ 120.976973890201577, 14.305499405346197 ] } },
{ "type": "Feature", "properties": { "fid": 28, "id": 28, "cluster_id": "211", "column": null, "row": "A" }, "geometry": { "type": "Point", "coordinates": [ 120.976984707902744, 14.305500487116314 ] } },
{ "type": "Feature", "properties": { "fid": 29, "id": 29, "cluster_id": "211", "column": null, "row": "A" }, "geometry": { "type": "Point", "coordinates": [ 120.976999311799304, 14.305501568886431 ] } },
{ "type": "Feature", "properties": { "fid": 30, "id": 30, "cluster_id": "211", "column": null, "row": "A" }, "geometry": { "type": "Point", "coordinates": [ 120.977009588615417, 14.305502650656546 ] } },
{ "type": "Feature", "properties": { "fid": 31, "id": 31, "cluster_id": "211", "column": null, "row": "A" }, "geometry": { "type": "Point", "coordinates": [ 120.977018783661407, 14.305503191541606 ] } },
{ "type": "Feature", "properties": { "fid": 32, "id": 32, "cluster_id": "211", "column": null, "row": "A" }, "geometry": { "type": "Point", "coordinates": [ 120.977032846672913, 14.305502650656546 ] } },
{ "type": "Feature", "properties": { "fid": 33, "id": 33, "cluster_id": "211", "column": null, "row": "A" }, "geometry": { "type": "Point", "coordinates": [ 120.977039337293618, 14.305505355081838 ] } },
{ "type": "Feature", "properties": { "fid": 34, "id": 34, "cluster_id": "211", "column": null, "row": "A" }, "geometry": { "type": "Point", "coordinates": [ 120.977053941190192, 14.30550481419678 ] } },
{ "type": "Feature", "properties": { "fid": 35, "id": 35, "cluster_id": "211", "column": null, "row": "A" }, "geometry": { "type": "Point", "coordinates": [ 120.977060972695952, 14.305505895966895 ] } }
]
}
