{
    "type": "FeatureCollection",
    "name": "cltr-id-173-a-row",
    "crs": {
        "type": "name",
        "properties": { "name": "urn:ogc:def:crs:OGC:1.3:CRS84" }
    },
    "features": [
        {
            "type": "Feature",
            "properties": {
                "fid": 1,
                "id": 1,
                "cluster_id": "173",
                "column": null,
                "row": "A"
            },
            "geometry": {
                "type": "Point",
                "coordinates": [120.976399853784713, 14.305390826893049]
            }
        },
        {
            "type": "Feature",
            "properties": {
                "fid": 2,
                "id": 2,
                "cluster_id": "173",
                "column": null,
                "row": "A"
            },
            "geometry": {
                "type": "Point",
                "coordinates": [120.976412149035895, 14.305391462854317]
            }
        },
        {
            "type": "Feature",
            "properties": {
                "fid": 3,
                "id": 3,
                "cluster_id": "173",
                "column": null,
                "row": "A"
            },
            "geometry": {
                "type": "Point",
                "coordinates": [120.976422324416177, 14.305392310802674]
            }
        },
        {
            "type": "Feature",
            "properties": {
                "fid": 4,
                "id": 4,
                "cluster_id": "173",
                "column": null,
                "row": "A"
            },
            "geometry": {
                "type": "Point",
                "coordinates": [120.976432075822274, 14.305393158751031]
            }
        },
        {
            "type": "Feature",
            "properties": {
                "fid": 5,
                "id": 5,
                "cluster_id": "173",
                "column": null,
                "row": "A"
            },
            "geometry": {
                "type": "Point",
                "coordinates": [120.976441615241299, 14.305394430673566]
            }
        },
        {
            "type": "Feature",
            "properties": {
                "fid": 6,
                "id": 6,
                "cluster_id": "173",
                "column": null,
                "row": "A"
            },
            "geometry": {
                "type": "Point",
                "coordinates": [120.976450306711953, 14.305394218686477]
            }
        },
        {
            "type": "Feature",
            "properties": {
                "fid": 7,
                "id": 7,
                "cluster_id": "173",
                "column": null,
                "row": "A"
            },
            "geometry": {
                "type": "Point",
                "coordinates": [120.976458998182622, 14.305394642660655]
            }
        },
        {
            "type": "Feature",
            "properties": {
                "fid": 8,
                "id": 8,
                "cluster_id": "173",
                "column": null,
                "row": "A"
            },
            "geometry": {
                "type": "Point",
                "coordinates": [120.976467265679105, 14.305396338557369]
            }
        },
        {
            "type": "Feature",
            "properties": {
                "fid": 9,
                "id": 9,
                "cluster_id": "173",
                "column": null,
                "row": "A"
            },
            "geometry": {
                "type": "Point",
                "coordinates": [120.97647659311103, 14.305396338557369]
            }
        },
        {
            "type": "Feature",
            "properties": {
                "fid": 10,
                "id": 10,
                "cluster_id": "173",
                "column": null,
                "row": "A"
            },
            "geometry": {
                "type": "Point",
                "coordinates": [120.976484860607513, 14.305397186505727]
            }
        },
        {
            "type": "Feature",
            "properties": {
                "fid": 11,
                "id": 11,
                "cluster_id": "173",
                "column": null,
                "row": "A"
            },
            "geometry": {
                "type": "Point",
                "coordinates": [120.976492492142725, 14.305397398492817]
            }
        },
        {
            "type": "Feature",
            "properties": {
                "fid": 12,
                "id": 12,
                "cluster_id": "173",
                "column": null,
                "row": "A"
            },
            "geometry": {
                "type": "Point",
                "coordinates": [120.976500335665023, 14.305398034454084]
            }
        },
        {
            "type": "Feature",
            "properties": {
                "fid": 13,
                "id": 13,
                "cluster_id": "173",
                "column": null,
                "row": "A"
            },
            "geometry": {
                "type": "Point",
                "coordinates": [120.976507119251892, 14.305398882402441]
            }
        }
    ]
}
