{
"type": "FeatureCollection",
"name": "cltr-id-164-a-row",
"crs": { "type": "name", "properties": { "name": "urn:ogc:def:crs:OGC:1.3:CRS84" } },
"features": [
{ "type": "Feature", "properties": { "fid": 1, "id": 1, "cluster_id": "164", "column": null, "row": "A" }, "geometry": { "type": "Point", "coordinates": [ 120.976055211628037, 14.305465452335216 ] } },
{ "type": "Feature", "properties": { "fid": 2, "id": 2, "cluster_id": "164", "column": null, "row": "A" }, "geometry": { "type": "Point", "coordinates": [ 120.976064934203904, 14.305466574170891 ] } },
{ "type": "Feature", "properties": { "fid": 3, "id": 3, "cluster_id": "164", "column": null, "row": "A" }, "geometry": { "type": "Point", "coordinates": [ 120.976075030724985, 14.305468069951793 ] } },
{ "type": "Feature", "properties": { "fid": 4, "id": 4, "cluster_id": "164", "column": null, "row": "A" }, "geometry": { "type": "Point", "coordinates": [ 120.976084005410399, 14.305467696006568 ] } },
{ "type": "Feature", "properties": { "fid": 5, "id": 5, "cluster_id": "164", "column": null, "row": "A" }, "geometry": { "type": "Point", "coordinates": [ 120.976092980095814, 14.305469939677922 ] } },
{ "type": "Feature", "properties": { "fid": 6, "id": 6, "cluster_id": "164", "column": null, "row": "A" }, "geometry": { "type": "Point", "coordinates": [ 120.976102702671668, 14.305470687568372 ] } },
{ "type": "Feature", "properties": { "fid": 7, "id": 7, "cluster_id": "164", "column": null, "row": "A" }, "geometry": { "type": "Point", "coordinates": [ 120.976111677357082, 14.305471435458823 ] } },
{ "type": "Feature", "properties": { "fid": 8, "id": 8, "cluster_id": "164", "column": null, "row": "A" }, "geometry": { "type": "Point", "coordinates": [ 120.976120652042496, 14.305472183349274 ] } },
{ "type": "Feature", "properties": { "fid": 9, "id": 9, "cluster_id": "164", "column": null, "row": "A" }, "geometry": { "type": "Point", "coordinates": [ 120.976130000673137, 14.3054725572945 ] } },
{ "type": "Feature", "properties": { "fid": 10, "id": 10, "cluster_id": "164", "column": null, "row": "A" }, "geometry": { "type": "Point", "coordinates": [ 120.976138601413325, 14.305473679130175 ] } },
{ "type": "Feature", "properties": { "fid": 11, "id": 11, "cluster_id": "164", "column": null, "row": "A" }, "geometry": { "type": "Point", "coordinates": [ 120.976147576098725, 14.305474053075402 ] } },
{ "type": "Feature", "properties": { "fid": 12, "id": 12, "cluster_id": "164", "column": null, "row": "A" }, "geometry": { "type": "Point", "coordinates": [ 120.976155055003247, 14.305474427020627 ] } },
{ "type": "Feature", "properties": { "fid": 13, "id": 13, "cluster_id": "164", "column": null, "row": "A" }, "geometry": { "type": "Point", "coordinates": [ 120.976163281798208, 14.305475174911077 ] } },
{ "type": "Feature", "properties": { "fid": 14, "id": 14, "cluster_id": "164", "column": null, "row": "A" }, "geometry": { "type": "Point", "coordinates": [ 120.976171134647942, 14.305476296746754 ] } },
{ "type": "Feature", "properties": { "fid": 15, "id": 15, "cluster_id": "164", "column": null, "row": "A" }, "geometry": { "type": "Point", "coordinates": [ 120.976178613552449, 14.305477044637206 ] } },
{ "type": "Feature", "properties": { "fid": 16, "id": 16, "cluster_id": "164", "column": null, "row": "A" }, "geometry": { "type": "Point", "coordinates": [ 120.976187214292636, 14.305477418582431 ] } },
{ "type": "Feature", "properties": { "fid": 17, "id": 17, "cluster_id": "164", "column": null, "row": "A" }, "geometry": { "type": "Point", "coordinates": [ 120.976195815032824, 14.305478166472883 ] } },
{ "type": "Feature", "properties": { "fid": 18, "id": 18, "cluster_id": "164", "column": null, "row": "A" }, "geometry": { "type": "Point", "coordinates": [ 120.976204041827785, 14.305479288308558 ] } },
{ "type": "Feature", "properties": { "fid": 19, "id": 19, "cluster_id": "164", "column": null, "row": "A" }, "geometry": { "type": "Point", "coordinates": [ 120.976212642567958, 14.305479288308558 ] } },
{ "type": "Feature", "properties": { "fid": 20, "id": 20, "cluster_id": "164", "column": null, "row": "A" }, "geometry": { "type": "Point", "coordinates": [ 120.976220869362919, 14.305481531979911 ] } },
{ "type": "Feature", "properties": { "fid": 21, "id": 21, "cluster_id": "164", "column": null, "row": "A" }, "geometry": { "type": "Point", "coordinates": [ 120.976229470103107, 14.305482653815588 ] } },
{ "type": "Feature", "properties": { "fid": 22, "id": 22, "cluster_id": "164", "column": null, "row": "A" }, "geometry": { "type": "Point", "coordinates": [ 120.976238070843294, 14.305483775651265 ] } },
{ "type": "Feature", "properties": { "fid": 23, "id": 23, "cluster_id": "164", "column": null, "row": "A" }, "geometry": { "type": "Point", "coordinates": [ 120.976246671583482, 14.305484523541715 ] } },
{ "type": "Feature", "properties": { "fid": 24, "id": 24, "cluster_id": "164", "column": null, "row": "A" }, "geometry": { "type": "Point", "coordinates": [ 120.976254524433216, 14.30548414959649 ] } },
{ "type": "Feature", "properties": { "fid": 25, "id": 25, "cluster_id": "164", "column": null, "row": "A" }, "geometry": { "type": "Point", "coordinates": [ 120.97626349911863, 14.305484523541715 ] } },
{ "type": "Feature", "properties": { "fid": 26, "id": 26, "cluster_id": "164", "column": null, "row": "A" }, "geometry": { "type": "Point", "coordinates": [ 120.976271351968364, 14.305485645377392 ] } },
{ "type": "Feature", "properties": { "fid": 27, "id": 27, "cluster_id": "164", "column": null, "row": "A" }, "geometry": { "type": "Point", "coordinates": [ 120.976280326653779, 14.305486393267842 ] } },
{ "type": "Feature", "properties": { "fid": 28, "id": 28, "cluster_id": "164", "column": null, "row": "A" }, "geometry": { "type": "Point", "coordinates": [ 120.97628855344874, 14.305486393267842 ] } },
{ "type": "Feature", "properties": { "fid": 29, "id": 29, "cluster_id": "164", "column": null, "row": "A" }, "geometry": { "type": "Point", "coordinates": [ 120.976297154188927, 14.305487889048743 ] } },
{ "type": "Feature", "properties": { "fid": 30, "id": 30, "cluster_id": "164", "column": null, "row": "A" }, "geometry": { "type": "Point", "coordinates": [ 120.976305380983888, 14.305487889048743 ] } },
{ "type": "Feature", "properties": { "fid": 31, "id": 31, "cluster_id": "164", "column": null, "row": "A" }, "geometry": { "type": "Point", "coordinates": [ 120.976313607778849, 14.30548901088442 ] } },
{ "type": "Feature", "properties": { "fid": 32, "id": 32, "cluster_id": "164", "column": null, "row": "A" }, "geometry": { "type": "Point", "coordinates": [ 120.97632183457381, 14.305489384829647 ] } },
{ "type": "Feature", "properties": { "fid": 33, "id": 33, "cluster_id": "164", "column": null, "row": "A" }, "geometry": { "type": "Point", "coordinates": [ 120.976331183204437, 14.305490506665322 ] } },
{ "type": "Feature", "properties": { "fid": 34, "id": 34, "cluster_id": "164", "column": null, "row": "A" }, "geometry": { "type": "Point", "coordinates": [ 120.976341279725531, 14.305491254555774 ] } }
]
}
