{
"type": "FeatureCollection",
"name": "cltr-id-214-b-row",
"crs": { "type": "name", "properties": { "name": "urn:ogc:def:crs:OGC:1.3:CRS84" } },
"features": [
{ "type": "Feature", "properties": { "fid": 1, "id": 1, "cluster_id": "214", "column": null, "row": "B" }, "geometry": { "type": "Point", "coordinates": [ 120.976707909974053, 14.305785803984525 ] } },
{ "type": "Feature", "properties": { "fid": 2, "id": 2, "cluster_id": "214", "column": null, "row": "B" }, "geometry": { "type": "Point", "coordinates": [ 120.976717105020057, 14.305785803984525 ] } },
{ "type": "Feature", "properties": { "fid": 3, "id": 3, "cluster_id": "214", "column": null, "row": "B" }, "geometry": { "type": "Point", "coordinates": [ 120.976721972985558, 14.305786344869585 ] } },
{ "type": "Feature", "properties": { "fid": 4, "id": 4, "cluster_id": "214", "column": null, "row": "B" }, "geometry": { "type": "Point", "coordinates": [ 120.976731708916617, 14.305787426639702 ] } },
{ "type": "Feature", "properties": { "fid": 5, "id": 5, "cluster_id": "214", "column": null, "row": "B" }, "geometry": { "type": "Point", "coordinates": [ 120.976738740422377, 14.305788508409819 ] } },
{ "type": "Feature", "properties": { "fid": 6, "id": 6, "cluster_id": "214", "column": null, "row": "B" }, "geometry": { "type": "Point", "coordinates": [ 120.976745771928123, 14.305789590179932 ] } },
{ "type": "Feature", "properties": { "fid": 7, "id": 7, "cluster_id": "214", "column": null, "row": "B" }, "geometry": { "type": "Point", "coordinates": [ 120.976758753169534, 14.305791212835107 ] } },
{ "type": "Feature", "properties": { "fid": 8, "id": 8, "cluster_id": "214", "column": null, "row": "B" }, "geometry": { "type": "Point", "coordinates": [ 120.976767948215524, 14.305792835490282 ] } },
{ "type": "Feature", "properties": { "fid": 9, "id": 9, "cluster_id": "214", "column": null, "row": "B" }, "geometry": { "type": "Point", "coordinates": [ 120.976779847686785, 14.305792835490282 ] } },
{ "type": "Feature", "properties": { "fid": 10, "id": 10, "cluster_id": "214", "column": null, "row": "B" }, "geometry": { "type": "Point", "coordinates": [ 120.976794992468413, 14.305794999030516 ] } },
{ "type": "Feature", "properties": { "fid": 11, "id": 11, "cluster_id": "214", "column": null, "row": "B" }, "geometry": { "type": "Point", "coordinates": [ 120.976805810169594, 14.305796080800633 ] } },
{ "type": "Feature", "properties": { "fid": 12, "id": 12, "cluster_id": "214", "column": null, "row": "B" }, "geometry": { "type": "Point", "coordinates": [ 120.976816086985693, 14.30579932611098 ] } },
{ "type": "Feature", "properties": { "fid": 13, "id": 13, "cluster_id": "214", "column": null, "row": "B" }, "geometry": { "type": "Point", "coordinates": [ 120.976828527342022, 14.305797703455807 ] } },
{ "type": "Feature", "properties": { "fid": 14, "id": 14, "cluster_id": "214", "column": null, "row": "B" }, "geometry": { "type": "Point", "coordinates": [ 120.976838804158135, 14.305798785225925 ] } },
{ "type": "Feature", "properties": { "fid": 15, "id": 15, "cluster_id": "214", "column": null, "row": "B" }, "geometry": { "type": "Point", "coordinates": [ 120.976851244514492, 14.305798785225925 ] } },
{ "type": "Feature", "properties": { "fid": 16, "id": 16, "cluster_id": "214", "column": null, "row": "B" }, "geometry": { "type": "Point", "coordinates": [ 120.976863684870821, 14.305800948766155 ] } },
{ "type": "Feature", "properties": { "fid": 17, "id": 17, "cluster_id": "214", "column": null, "row": "B" }, "geometry": { "type": "Point", "coordinates": [ 120.976871257261621, 14.305802571421331 ] } },
{ "type": "Feature", "properties": { "fid": 18, "id": 18, "cluster_id": "214", "column": null, "row": "B" }, "geometry": { "type": "Point", "coordinates": [ 120.976882074962802, 14.305802030536272 ] } },
{ "type": "Feature", "properties": { "fid": 19, "id": 19, "cluster_id": "214", "column": null, "row": "B" }, "geometry": { "type": "Point", "coordinates": [ 120.976886402043263, 14.305803653191447 ] } },
{ "type": "Feature", "properties": { "fid": 20, "id": 20, "cluster_id": "214", "column": null, "row": "B" }, "geometry": { "type": "Point", "coordinates": [ 120.976894515319131, 14.305803653191447 ] } },
{ "type": "Feature", "properties": { "fid": 21, "id": 21, "cluster_id": "214", "column": null, "row": "B" }, "geometry": { "type": "Point", "coordinates": [ 120.976903710365121, 14.305805275846621 ] } },
{ "type": "Feature", "properties": { "fid": 22, "id": 22, "cluster_id": "214", "column": null, "row": "B" }, "geometry": { "type": "Point", "coordinates": [ 120.976910741870867, 14.305804194076504 ] } },
{ "type": "Feature", "properties": { "fid": 23, "id": 23, "cluster_id": "214", "column": null, "row": "B" }, "geometry": { "type": "Point", "coordinates": [ 120.976921559572034, 14.305806357616737 ] } },
{ "type": "Feature", "properties": { "fid": 24, "id": 24, "cluster_id": "214", "column": null, "row": "B" }, "geometry": { "type": "Point", "coordinates": [ 120.976934540813446, 14.305807439386854 ] } },
{ "type": "Feature", "properties": { "fid": 25, "id": 25, "cluster_id": "214", "column": null, "row": "B" }, "geometry": { "type": "Point", "coordinates": [ 120.976946981169789, 14.305807439386856 ] } },
{ "type": "Feature", "properties": { "fid": 26, "id": 26, "cluster_id": "214", "column": null, "row": "B" }, "geometry": { "type": "Point", "coordinates": [ 120.976953471790495, 14.30580906204203 ] } },
{ "type": "Feature", "properties": { "fid": 27, "id": 27, "cluster_id": "214", "column": null, "row": "B" }, "geometry": { "type": "Point", "coordinates": [ 120.976963748606579, 14.305810143812145 ] } },
{ "type": "Feature", "properties": { "fid": 28, "id": 28, "cluster_id": "214", "column": null, "row": "B" }, "geometry": { "type": "Point", "coordinates": [ 120.976973484537638, 14.305812307352378 ] } },
{ "type": "Feature", "properties": { "fid": 29, "id": 29, "cluster_id": "214", "column": null, "row": "B" }, "geometry": { "type": "Point", "coordinates": [ 120.976978893388221, 14.30581176646732 ] } },
{ "type": "Feature", "properties": { "fid": 30, "id": 30, "cluster_id": "214", "column": null, "row": "B" }, "geometry": { "type": "Point", "coordinates": [ 120.97698917020432, 14.305812848237437 ] } },
{ "type": "Feature", "properties": { "fid": 31, "id": 31, "cluster_id": "214", "column": null, "row": "B" }, "geometry": { "type": "Point", "coordinates": [ 120.976994038169849, 14.305813930007552 ] } },
{ "type": "Feature", "properties": { "fid": 32, "id": 32, "cluster_id": "214", "column": null, "row": "B" }, "geometry": { "type": "Point", "coordinates": [ 120.977004855871016, 14.305812848237435 ] } },
{ "type": "Feature", "properties": { "fid": 33, "id": 33, "cluster_id": "214", "column": null, "row": "B" }, "geometry": { "type": "Point", "coordinates": [ 120.977010264721599, 14.305813930007552 ] } },
{ "type": "Feature", "properties": { "fid": 34, "id": 34, "cluster_id": "214", "column": null, "row": "B" }, "geometry": { "type": "Point", "coordinates": [ 120.977016214457223, 14.305813389122495 ] } },
{ "type": "Feature", "properties": { "fid": 35, "id": 35, "cluster_id": "214", "column": null, "row": "B" }, "geometry": { "type": "Point", "coordinates": [ 120.977022164192874, 14.305812307352376 ] } }
]
}
