{
"type": "FeatureCollection",
"name": "cltr-id-155-b-row",
"crs": { "type": "name", "properties": { "name": "urn:ogc:def:crs:OGC:1.3:CRS84" } },
"features": [
{ "type": "Feature", "properties": { "fid": 1, "id": 1, "cluster_id": "155", "column": null, "row": "B" }, "geometry": { "type": "Point", "coordinates": [ 120.976013572569414, 14.305907280257978 ] } },
{ "type": "Feature", "properties": { "fid": 2, "id": 2, "cluster_id": "155", "column": null, "row": "B" }, "geometry": { "type": "Point", "coordinates": [ 120.976012931520444, 14.305900228719439 ] } },
{ "type": "Feature", "properties": { "fid": 3, "id": 3, "cluster_id": "155", "column": null, "row": "B" }, "geometry": { "type": "Point", "coordinates": [ 120.976018059912121, 14.305893177180902 ] } },
{ "type": "Feature", "properties": { "fid": 4, "id": 4, "cluster_id": "155", "column": null, "row": "B" }, "geometry": { "type": "Point", "coordinates": [ 120.976026393548565, 14.305892856656424 ] } },
{ "type": "Feature", "properties": { "fid": 5, "id": 5, "cluster_id": "155", "column": null, "row": "B" }, "geometry": { "type": "Point", "coordinates": [ 120.97603536823398, 14.30589413875434 ] } },
{ "type": "Feature", "properties": { "fid": 6, "id": 6, "cluster_id": "155", "column": null, "row": "B" }, "geometry": { "type": "Point", "coordinates": [ 120.976042419772511, 14.305894779803298 ] } },
{ "type": "Feature", "properties": { "fid": 7, "id": 7, "cluster_id": "155", "column": null, "row": "B" }, "geometry": { "type": "Point", "coordinates": [ 120.976052997080316, 14.305895420852256 ] } },
{ "type": "Feature", "properties": { "fid": 8, "id": 8, "cluster_id": "155", "column": null, "row": "B" }, "geometry": { "type": "Point", "coordinates": [ 120.976061651241253, 14.30589702347465 ] } },
{ "type": "Feature", "properties": { "fid": 9, "id": 9, "cluster_id": "155", "column": null, "row": "B" }, "geometry": { "type": "Point", "coordinates": [ 120.976069984877711, 14.30589702347465 ] } },
{ "type": "Feature", "properties": { "fid": 10, "id": 10, "cluster_id": "155", "column": null, "row": "B" }, "geometry": { "type": "Point", "coordinates": [ 120.976077036416243, 14.30589702347465 ] } },
{ "type": "Feature", "properties": { "fid": 11, "id": 11, "cluster_id": "155", "column": null, "row": "B" }, "geometry": { "type": "Point", "coordinates": [ 120.976086011101657, 14.305897664523608 ] } },
{ "type": "Feature", "properties": { "fid": 12, "id": 12, "cluster_id": "155", "column": null, "row": "B" }, "geometry": { "type": "Point", "coordinates": [ 120.976094344738115, 14.305899908194961 ] } },
{ "type": "Feature", "properties": { "fid": 13, "id": 13, "cluster_id": "155", "column": null, "row": "B" }, "geometry": { "type": "Point", "coordinates": [ 120.976104280996964, 14.305900549243919 ] } },
{ "type": "Feature", "properties": { "fid": 14, "id": 14, "cluster_id": "155", "column": null, "row": "B" }, "geometry": { "type": "Point", "coordinates": [ 120.976111653059974, 14.305899908194961 ] } },
{ "type": "Feature", "properties": { "fid": 15, "id": 15, "cluster_id": "155", "column": null, "row": "B" }, "geometry": { "type": "Point", "coordinates": [ 120.976122550892256, 14.305900869768397 ] } },
{ "type": "Feature", "properties": { "fid": 16, "id": 16, "cluster_id": "155", "column": null, "row": "B" }, "geometry": { "type": "Point", "coordinates": [ 120.976131846102149, 14.305902151866313 ] } },
{ "type": "Feature", "properties": { "fid": 17, "id": 17, "cluster_id": "155", "column": null, "row": "B" }, "geometry": { "type": "Point", "coordinates": [ 120.976140820787563, 14.305902472390793 ] } },
{ "type": "Feature", "properties": { "fid": 18, "id": 18, "cluster_id": "155", "column": null, "row": "B" }, "geometry": { "type": "Point", "coordinates": [ 120.976148192850573, 14.305903754488709 ] } },
{ "type": "Feature", "properties": { "fid": 19, "id": 19, "cluster_id": "155", "column": null, "row": "B" }, "geometry": { "type": "Point", "coordinates": [ 120.976155885438075, 14.305903754488709 ] } },
{ "type": "Feature", "properties": { "fid": 20, "id": 20, "cluster_id": "155", "column": null, "row": "B" }, "geometry": { "type": "Point", "coordinates": [ 120.976163898550041, 14.305904075013187 ] } },
{ "type": "Feature", "properties": { "fid": 21, "id": 21, "cluster_id": "155", "column": null, "row": "B" }, "geometry": { "type": "Point", "coordinates": [ 120.97617383480889, 14.305904075013187 ] } },
{ "type": "Feature", "properties": { "fid": 22, "id": 22, "cluster_id": "155", "column": null, "row": "B" }, "geometry": { "type": "Point", "coordinates": [ 120.976182488969826, 14.30590663920902 ] } },
{ "type": "Feature", "properties": { "fid": 23, "id": 23, "cluster_id": "155", "column": null, "row": "B" }, "geometry": { "type": "Point", "coordinates": [ 120.976189540508372, 14.305904716062145 ] } },
{ "type": "Feature", "properties": { "fid": 24, "id": 24, "cluster_id": "155", "column": null, "row": "B" }, "geometry": { "type": "Point", "coordinates": [ 120.976199156242728, 14.30590631868454 ] } },
{ "type": "Feature", "properties": { "fid": 25, "id": 25, "cluster_id": "155", "column": null, "row": "B" }, "geometry": { "type": "Point", "coordinates": [ 120.976205566732318, 14.305907921306936 ] } },
{ "type": "Feature", "properties": { "fid": 26, "id": 26, "cluster_id": "155", "column": null, "row": "B" }, "geometry": { "type": "Point", "coordinates": [ 120.976215182466689, 14.305906959733498 ] } },
{ "type": "Feature", "properties": { "fid": 27, "id": 27, "cluster_id": "155", "column": null, "row": "B" }, "geometry": { "type": "Point", "coordinates": [ 120.976221592956264, 14.305908882880372 ] } },
{ "type": "Feature", "properties": { "fid": 28, "id": 28, "cluster_id": "155", "column": null, "row": "B" }, "geometry": { "type": "Point", "coordinates": [ 120.976232490788547, 14.305908562355894 ] } },
{ "type": "Feature", "properties": { "fid": 29, "id": 29, "cluster_id": "155", "column": null, "row": "B" }, "geometry": { "type": "Point", "coordinates": [ 120.97624178599844, 14.305908882880372 ] } },
{ "type": "Feature", "properties": { "fid": 30, "id": 30, "cluster_id": "155", "column": null, "row": "B" }, "geometry": { "type": "Point", "coordinates": [ 120.976254286453113, 14.305911447076204 ] } },
{ "type": "Feature", "properties": { "fid": 31, "id": 31, "cluster_id": "155", "column": null, "row": "B" }, "geometry": { "type": "Point", "coordinates": [ 120.976265825334366, 14.305911767600684 ] } },
{ "type": "Feature", "properties": { "fid": 32, "id": 32, "cluster_id": "155", "column": null, "row": "B" }, "geometry": { "type": "Point", "coordinates": [ 120.976276082117693, 14.305913049698599 ] } },
{ "type": "Feature", "properties": { "fid": 33, "id": 33, "cluster_id": "155", "column": null, "row": "B" }, "geometry": { "type": "Point", "coordinates": [ 120.976286979949975, 14.305912088125162 ] } },
{ "type": "Feature", "properties": { "fid": 34, "id": 34, "cluster_id": "155", "column": null, "row": "B" }, "geometry": { "type": "Point", "coordinates": [ 120.976299480404649, 14.305914652320993 ] } },
{ "type": "Feature", "properties": { "fid": 35, "id": 35, "cluster_id": "155", "column": null, "row": "B" }, "geometry": { "type": "Point", "coordinates": [ 120.976307814041107, 14.305914652320993 ] } },
{ "type": "Feature", "properties": { "fid": 36, "id": 36, "cluster_id": "155", "column": null, "row": "B" }, "geometry": { "type": "Point", "coordinates": [ 120.976317109250999, 14.305916254943389 ] } }
]
}
