{
"type": "FeatureCollection",
"name": "cltr-id-198-b-row",
"crs": { "type": "name", "properties": { "name": "urn:ogc:def:crs:OGC:1.3:CRS84" } },
"features": [
{ "type": "Feature", "properties": { "fid": 1, "id": 1, "cluster_id": "198", "column": null, "row": "B" }, "geometry": { "type": "Point", "coordinates": [ 120.976634969370366, 14.305370246501692 ] } },
{ "type": "Feature", "properties": { "fid": 2, "id": 2, "cluster_id": "198", "column": null, "row": "B" }, "geometry": { "type": "Point", "coordinates": [ 120.976644434858898, 14.305372410041924 ] } },
{ "type": "Feature", "properties": { "fid": 3, "id": 3, "cluster_id": "198", "column": null, "row": "B" }, "geometry": { "type": "Point", "coordinates": [ 120.976653900347415, 14.305371869156867 ] } },
{ "type": "Feature", "properties": { "fid": 4, "id": 4, "cluster_id": "198", "column": null, "row": "B" }, "geometry": { "type": "Point", "coordinates": [ 120.976663095393405, 14.305374303139628 ] } },
{ "type": "Feature", "properties": { "fid": 5, "id": 5, "cluster_id": "198", "column": null, "row": "B" }, "geometry": { "type": "Point", "coordinates": [ 120.976671479111801, 14.305374303139628 ] } },
{ "type": "Feature", "properties": { "fid": 6, "id": 6, "cluster_id": "198", "column": null, "row": "B" }, "geometry": { "type": "Point", "coordinates": [ 120.976679592387669, 14.305374303139628 ] } },
{ "type": "Feature", "properties": { "fid": 7, "id": 7, "cluster_id": "198", "column": null, "row": "B" }, "geometry": { "type": "Point", "coordinates": [ 120.976688787433659, 14.305375384909745 ] } },
{ "type": "Feature", "properties": { "fid": 8, "id": 8, "cluster_id": "198", "column": null, "row": "B" }, "geometry": { "type": "Point", "coordinates": [ 120.976698252922191, 14.305375925794802 ] } },
{ "type": "Feature", "properties": { "fid": 9, "id": 9, "cluster_id": "198", "column": null, "row": "B" }, "geometry": { "type": "Point", "coordinates": [ 120.976706907083113, 14.30537646667986 ] } },
{ "type": "Feature", "properties": { "fid": 10, "id": 10, "cluster_id": "198", "column": null, "row": "B" }, "geometry": { "type": "Point", "coordinates": [ 120.976715561244049, 14.30537646667986 ] } }
]
}
