{
"type": "FeatureCollection",
"name": "cltr-id-217-a-row",
"crs": { "type": "name", "properties": { "name": "urn:ogc:def:crs:OGC:1.3:CRS84" } },
"features": [
{ "type": "Feature", "properties": { "fid": 1, "id": 1, "Cluster_ID": "217", "column": null, "row": "A" }, "geometry": { "type": "Point", "coordinates": [ 120.976704529442529, 14.305894251438735 ] } },
{ "type": "Feature", "properties": { "fid": 2, "id": 2, "Cluster_ID": "217", "column": null, "row": "A" }, "geometry": { "type": "Point", "coordinates": [ 120.976716293692547, 14.305895874093912 ] } },
{ "type": "Feature", "properties": { "fid": 3, "id": 3, "Cluster_ID": "217", "column": null, "row": "A" }, "geometry": { "type": "Point", "coordinates": [ 120.976726435287389, 14.305895468430117 ] } },
{ "type": "Feature", "properties": { "fid": 4, "id": 4, "Cluster_ID": "217", "column": null, "row": "A" }, "geometry": { "type": "Point", "coordinates": [ 120.976736171218434, 14.305897091085292 ] } },
{ "type": "Feature", "properties": { "fid": 5, "id": 5, "Cluster_ID": "217", "column": null, "row": "A" }, "geometry": { "type": "Point", "coordinates": [ 120.976747935468453, 14.305898308076673 ] } },
{ "type": "Feature", "properties": { "fid": 6, "id": 6, "Cluster_ID": "217", "column": null, "row": "A" }, "geometry": { "type": "Point", "coordinates": [ 120.976755237416739, 14.305899930731847 ] } },
{ "type": "Feature", "properties": { "fid": 7, "id": 7, "Cluster_ID": "217", "column": null, "row": "A" }, "geometry": { "type": "Point", "coordinates": [ 120.976767407330556, 14.30590114772323 ] } },
{ "type": "Feature", "properties": { "fid": 8, "id": 8, "Cluster_ID": "217", "column": null, "row": "A" }, "geometry": { "type": "Point", "coordinates": [ 120.976774303615045, 14.305901959050816 ] } },
{ "type": "Feature", "properties": { "fid": 9, "id": 9, "Cluster_ID": "217", "column": null, "row": "A" }, "geometry": { "type": "Point", "coordinates": [ 120.976784850873685, 14.305903987369785 ] } },
{ "type": "Feature", "properties": { "fid": 10, "id": 10, "Cluster_ID": "217", "column": null, "row": "A" }, "geometry": { "type": "Point", "coordinates": [ 120.976792964149567, 14.305903581705993 ] } },
{ "type": "Feature", "properties": { "fid": 11, "id": 11, "Cluster_ID": "217", "column": null, "row": "A" }, "geometry": { "type": "Point", "coordinates": [ 120.976801077425435, 14.30590561002496 ] } },
{ "type": "Feature", "properties": { "fid": 12, "id": 12, "Cluster_ID": "217", "column": null, "row": "A" }, "geometry": { "type": "Point", "coordinates": [ 120.976810813356494, 14.305906015688754 ] } },
{ "type": "Feature", "properties": { "fid": 13, "id": 13, "Cluster_ID": "217", "column": null, "row": "A" }, "geometry": { "type": "Point", "coordinates": [ 120.976819737959943, 14.305906827016342 ] } },
{ "type": "Feature", "properties": { "fid": 14, "id": 14, "Cluster_ID": "217", "column": null, "row": "A" }, "geometry": { "type": "Point", "coordinates": [ 120.976828256899623, 14.305907638343928 ] } },
{ "type": "Feature", "properties": { "fid": 15, "id": 15, "Cluster_ID": "217", "column": null, "row": "A" }, "geometry": { "type": "Point", "coordinates": [ 120.976837181503086, 14.305907638343928 ] } },
{ "type": "Feature", "properties": { "fid": 16, "id": 16, "Cluster_ID": "217", "column": null, "row": "A" }, "geometry": { "type": "Point", "coordinates": [ 120.976846511770333, 14.305908855335311 ] } },
{ "type": "Feature", "properties": { "fid": 17, "id": 17, "Cluster_ID": "217", "column": null, "row": "A" }, "geometry": { "type": "Point", "coordinates": [ 120.976856653365175, 14.305910883654279 ] } },
{ "type": "Feature", "properties": { "fid": 18, "id": 18, "Cluster_ID": "217", "column": null, "row": "A" }, "geometry": { "type": "Point", "coordinates": [ 120.976865577968638, 14.305910477990485 ] } },
{ "type": "Feature", "properties": { "fid": 19, "id": 19, "Cluster_ID": "217", "column": null, "row": "A" }, "geometry": { "type": "Point", "coordinates": [ 120.976872068589344, 14.305911289318074 ] } },
{ "type": "Feature", "properties": { "fid": 20, "id": 20, "Cluster_ID": "217", "column": null, "row": "A" }, "geometry": { "type": "Point", "coordinates": [ 120.976880181865212, 14.30591210064566 ] } },
{ "type": "Feature", "properties": { "fid": 21, "id": 21, "Cluster_ID": "217", "column": null, "row": "A" }, "geometry": { "type": "Point", "coordinates": [ 120.976887483813499, 14.30591210064566 ] } },
{ "type": "Feature", "properties": { "fid": 22, "id": 22, "Cluster_ID": "217", "column": null, "row": "A" }, "geometry": { "type": "Point", "coordinates": [ 120.976895191425584, 14.305913317637041 ] } },
{ "type": "Feature", "properties": { "fid": 23, "id": 23, "Cluster_ID": "217", "column": null, "row": "A" }, "geometry": { "type": "Point", "coordinates": [ 120.976903304701452, 14.305914128964629 ] } },
{ "type": "Feature", "properties": { "fid": 24, "id": 24, "Cluster_ID": "217", "column": null, "row": "A" }, "geometry": { "type": "Point", "coordinates": [ 120.976911823641132, 14.305914534628423 ] } },
{ "type": "Feature", "properties": { "fid": 25, "id": 25, "Cluster_ID": "217", "column": null, "row": "A" }, "geometry": { "type": "Point", "coordinates": [ 120.976919936917, 14.305915345956009 ] } },
{ "type": "Feature", "properties": { "fid": 26, "id": 26, "Cluster_ID": "217", "column": null, "row": "A" }, "geometry": { "type": "Point", "coordinates": [ 120.976927238865287, 14.305915345956009 ] } },
{ "type": "Feature", "properties": { "fid": 27, "id": 27, "Cluster_ID": "217", "column": null, "row": "A" }, "geometry": { "type": "Point", "coordinates": [ 120.976935352141169, 14.305916157283598 ] } },
{ "type": "Feature", "properties": { "fid": 28, "id": 28, "Cluster_ID": "217", "column": null, "row": "A" }, "geometry": { "type": "Point", "coordinates": [ 120.976944682408416, 14.305917779938772 ] } },
{ "type": "Feature", "properties": { "fid": 29, "id": 29, "Cluster_ID": "217", "column": null, "row": "A" }, "geometry": { "type": "Point", "coordinates": [ 120.976950767365324, 14.305917779938772 ] } },
{ "type": "Feature", "properties": { "fid": 30, "id": 30, "Cluster_ID": "217", "column": null, "row": "A" }, "geometry": { "type": "Point", "coordinates": [ 120.976963748606721, 14.30591859126636 ] } },
{ "type": "Feature", "properties": { "fid": 31, "id": 31, "Cluster_ID": "217", "column": null, "row": "A" }, "geometry": { "type": "Point", "coordinates": [ 120.97697145621882, 14.305919808257741 ] } },
{ "type": "Feature", "properties": { "fid": 32, "id": 32, "Cluster_ID": "217", "column": null, "row": "A" }, "geometry": { "type": "Point", "coordinates": [ 120.976979975158471, 14.305919808257741 ] } },
{ "type": "Feature", "properties": { "fid": 33, "id": 33, "Cluster_ID": "217", "column": null, "row": "A" }, "geometry": { "type": "Point", "coordinates": [ 120.976992956399869, 14.305920619585331 ] } },
{ "type": "Feature", "properties": { "fid": 34, "id": 34, "Cluster_ID": "217", "column": null, "row": "A" }, "geometry": { "type": "Point", "coordinates": [ 120.977002692330927, 14.305922242240504 ] } },
{ "type": "Feature", "properties": { "fid": 35, "id": 35, "Cluster_ID": "217", "column": null, "row": "A" }, "geometry": { "type": "Point", "coordinates": [ 120.977012428261986, 14.305922647904298 ] } }
]
}
