{
"type": "FeatureCollection",
"name": "cltr-id-192-c-row",
"crs": { "type": "name", "properties": { "name": "urn:ogc:def:crs:OGC:1.3:CRS84" } },
"features": [
{ "type": "Feature", "properties": { "fid": 1, "id": 1, "cluster_id": "192", "column": null, "row": "C" }, "geometry": { "type": "Point", "coordinates": [ 120.976737117767257, 14.305590003593451 ] } },
{ "type": "Feature", "properties": { "fid": 2, "id": 2, "cluster_id": "192", "column": null, "row": "C" }, "geometry": { "type": "Point", "coordinates": [ 120.976744960600598, 14.305590814921038 ] } },
{ "type": "Feature", "properties": { "fid": 3, "id": 3, "cluster_id": "192", "column": null, "row": "C" }, "geometry": { "type": "Point", "coordinates": [ 120.976751992106358, 14.305591626248626 ] } },
{ "type": "Feature", "properties": { "fid": 4, "id": 4, "cluster_id": "192", "column": null, "row": "C" }, "geometry": { "type": "Point", "coordinates": [ 120.976760375824753, 14.305593248903799 ] } },
{ "type": "Feature", "properties": { "fid": 5, "id": 5, "cluster_id": "192", "column": null, "row": "C" }, "geometry": { "type": "Point", "coordinates": [ 120.976769300428217, 14.305594330673916 ] } },
{ "type": "Feature", "properties": { "fid": 6, "id": 6, "cluster_id": "192", "column": null, "row": "C" }, "geometry": { "type": "Point", "coordinates": [ 120.976780118129383, 14.305595953329091 ] } },
{ "type": "Feature", "properties": { "fid": 7, "id": 7, "cluster_id": "192", "column": null, "row": "C" }, "geometry": { "type": "Point", "coordinates": [ 120.976788772290305, 14.305598116869323 ] } },
{ "type": "Feature", "properties": { "fid": 8, "id": 8, "cluster_id": "192", "column": null, "row": "C" }, "geometry": { "type": "Point", "coordinates": [ 120.976799319548945, 14.305596764656679 ] } },
{ "type": "Feature", "properties": { "fid": 9, "id": 9, "cluster_id": "192", "column": null, "row": "C" }, "geometry": { "type": "Point", "coordinates": [ 120.976806351054705, 14.305599469081969 ] } },
{ "type": "Feature", "properties": { "fid": 10, "id": 10, "cluster_id": "192", "column": null, "row": "C" }, "geometry": { "type": "Point", "coordinates": [ 120.97681960273863, 14.305601091737143 ] } },
{ "type": "Feature", "properties": { "fid": 11, "id": 11, "cluster_id": "192", "column": null, "row": "C" }, "geometry": { "type": "Point", "coordinates": [ 120.97683096132485, 14.305601903064732 ] } },
{ "type": "Feature", "properties": { "fid": 12, "id": 12, "cluster_id": "192", "column": null, "row": "C" }, "geometry": { "type": "Point", "coordinates": [ 120.976842319911071, 14.305603796162435 ] } },
{ "type": "Feature", "properties": { "fid": 13, "id": 13, "cluster_id": "192", "column": null, "row": "C" }, "geometry": { "type": "Point", "coordinates": [ 120.976849892301885, 14.305604066604964 ] } },
{ "type": "Feature", "properties": { "fid": 14, "id": 14, "cluster_id": "192", "column": null, "row": "C" }, "geometry": { "type": "Point", "coordinates": [ 120.976862873543283, 14.305606500587727 ] } },
{ "type": "Feature", "properties": { "fid": 15, "id": 15, "cluster_id": "192", "column": null, "row": "C" }, "geometry": { "type": "Point", "coordinates": [ 120.976873150359395, 14.305605689260139 ] } },
{ "type": "Feature", "properties": { "fid": 16, "id": 16, "cluster_id": "192", "column": null, "row": "C" }, "geometry": { "type": "Point", "coordinates": [ 120.976886942928374, 14.3056081232429 ] } },
{ "type": "Feature", "properties": { "fid": 17, "id": 17, "cluster_id": "192", "column": null, "row": "C" }, "geometry": { "type": "Point", "coordinates": [ 120.976898842399663, 14.30560839368543 ] } },
{ "type": "Feature", "properties": { "fid": 18, "id": 18, "cluster_id": "192", "column": null, "row": "C" }, "geometry": { "type": "Point", "coordinates": [ 120.976906955675531, 14.305609205013017 ] } },
{ "type": "Feature", "properties": { "fid": 19, "id": 19, "cluster_id": "192", "column": null, "row": "C" }, "geometry": { "type": "Point", "coordinates": [ 120.976913987181291, 14.305610557225663 ] } },
{ "type": "Feature", "properties": { "fid": 20, "id": 20, "cluster_id": "192", "column": null, "row": "C" }, "geometry": { "type": "Point", "coordinates": [ 120.976923993554863, 14.305610016340605 ] } },
{ "type": "Feature", "properties": { "fid": 21, "id": 21, "cluster_id": "192", "column": null, "row": "C" }, "geometry": { "type": "Point", "coordinates": [ 120.976935893026138, 14.305612179880837 ] } },
{ "type": "Feature", "properties": { "fid": 22, "id": 22, "cluster_id": "192", "column": null, "row": "C" }, "geometry": { "type": "Point", "coordinates": [ 120.9769475220549, 14.305611368553249 ] } },
{ "type": "Feature", "properties": { "fid": 23, "id": 23, "cluster_id": "192", "column": null, "row": "C" }, "geometry": { "type": "Point", "coordinates": [ 120.976957528428471, 14.305612450323366 ] } },
{ "type": "Feature", "properties": { "fid": 24, "id": 24, "cluster_id": "192", "column": null, "row": "C" }, "geometry": { "type": "Point", "coordinates": [ 120.976964830376758, 14.305613532093483 ] } },
{ "type": "Feature", "properties": { "fid": 25, "id": 25, "cluster_id": "192", "column": null, "row": "C" }, "geometry": { "type": "Point", "coordinates": [ 120.976971320997464, 14.305613802536012 ] } },
{ "type": "Feature", "properties": { "fid": 26, "id": 26, "cluster_id": "192", "column": null, "row": "C" }, "geometry": { "type": "Point", "coordinates": [ 120.976977270733101, 14.305615154748658 ] } },
{ "type": "Feature", "properties": { "fid": 27, "id": 27, "cluster_id": "192", "column": null, "row": "C" }, "geometry": { "type": "Point", "coordinates": [ 120.976983490911266, 14.305615966076244 ] } },
{ "type": "Feature", "properties": { "fid": 28, "id": 28, "cluster_id": "192", "column": null, "row": "C" }, "geometry": { "type": "Point", "coordinates": [ 120.9769875475492, 14.305617047846361 ] } },
{ "type": "Feature", "properties": { "fid": 29, "id": 29, "cluster_id": "192", "column": null, "row": "C" }, "geometry": { "type": "Point", "coordinates": [ 120.976995119940014, 14.305618129616478 ] } },
{ "type": "Feature", "properties": { "fid": 30, "id": 30, "cluster_id": "192", "column": null, "row": "C" }, "geometry": { "type": "Point", "coordinates": [ 120.977000528790597, 14.305617047846361 ] } },
{ "type": "Feature", "properties": { "fid": 31, "id": 31, "cluster_id": "192", "column": null, "row": "C" }, "geometry": { "type": "Point", "coordinates": [ 120.97700728985383, 14.305619211386594 ] } },
{ "type": "Feature", "properties": { "fid": 32, "id": 32, "cluster_id": "192", "column": null, "row": "C" }, "geometry": { "type": "Point", "coordinates": [ 120.977013780474522, 14.305618940944065 ] } },
{ "type": "Feature", "properties": { "fid": 33, "id": 33, "cluster_id": "192", "column": null, "row": "C" }, "geometry": { "type": "Point", "coordinates": [ 120.977021082422809, 14.305620022714182 ] } },
{ "type": "Feature", "properties": { "fid": 34, "id": 34, "cluster_id": "192", "column": null, "row": "C" }, "geometry": { "type": "Point", "coordinates": [ 120.977030007026272, 14.305621104484297 ] } },
{ "type": "Feature", "properties": { "fid": 35, "id": 35, "cluster_id": "192", "column": null, "row": "C" }, "geometry": { "type": "Point", "coordinates": [ 120.977037579417086, 14.305621374926828 ] } },
{ "type": "Feature", "properties": { "fid": 36, "id": 36, "cluster_id": "192", "column": null, "row": "C" }, "geometry": { "type": "Point", "coordinates": [ 120.977046504020549, 14.30562056359924 ] } },
{ "type": "Feature", "properties": { "fid": 37, "id": 37, "cluster_id": "192", "column": null, "row": "C" }, "geometry": { "type": "Point", "coordinates": [ 120.977054617296417, 14.305621645369357 ] } },
{ "type": "Feature", "properties": { "fid": 38, "id": 38, "cluster_id": "192", "column": null, "row": "C" }, "geometry": { "type": "Point", "coordinates": [ 120.9770627305723, 14.30562353846706 ] } },
{ "type": "Feature", "properties": { "fid": 39, "id": 39, "cluster_id": "192", "column": null, "row": "C" }, "geometry": { "type": "Point", "coordinates": [ 120.977077334468873, 14.305618940944065 ] } },
{ "type": "Feature", "properties": { "fid": 40, "id": 40, "cluster_id": "192", "column": null, "row": "C" }, "geometry": { "type": "Point", "coordinates": [ 120.9770776049114, 14.305613532093483 ] } }
]
}
