{
"type": "FeatureCollection",
"name": "cltr-id-171-a-row",
"crs": { "type": "name", "properties": { "name": "urn:ogc:def:crs:OGC:1.3:CRS84" } },
"features": [
{ "type": "Feature", "properties": { "fid": 1, "id": 1, "cluster_id": "171", "column": null, "row": "A" }, "geometry": { "type": "Point", "coordinates": [ 120.976028396826621, 14.305834921856842 ] } },
{ "type": "Feature", "properties": { "fid": 2, "id": 2, "cluster_id": "171", "column": null, "row": "A" }, "geometry": { "type": "Point", "coordinates": [ 120.976038493347716, 14.305835482774681 ] } },
{ "type": "Feature", "properties": { "fid": 3, "id": 3, "cluster_id": "171", "column": null, "row": "A" }, "geometry": { "type": "Point", "coordinates": [ 120.976050833540157, 14.305836043692519 ] } },
{ "type": "Feature", "properties": { "fid": 4, "id": 4, "cluster_id": "171", "column": null, "row": "A" }, "geometry": { "type": "Point", "coordinates": [ 120.976063173732598, 14.305836604610358 ] } },
{ "type": "Feature", "properties": { "fid": 5, "id": 5, "cluster_id": "171", "column": null, "row": "A" }, "geometry": { "type": "Point", "coordinates": [ 120.976073270253679, 14.305838848281709 ] } },
{ "type": "Feature", "properties": { "fid": 6, "id": 6, "cluster_id": "171", "column": null, "row": "A" }, "geometry": { "type": "Point", "coordinates": [ 120.976084488610454, 14.305837165528196 ] } },
{ "type": "Feature", "properties": { "fid": 7, "id": 7, "cluster_id": "171", "column": null, "row": "A" }, "geometry": { "type": "Point", "coordinates": [ 120.976093463295854, 14.305839970117386 ] } },
{ "type": "Feature", "properties": { "fid": 8, "id": 8, "cluster_id": "171", "column": null, "row": "A" }, "geometry": { "type": "Point", "coordinates": [ 120.976102437981268, 14.305840531035225 ] } },
{ "type": "Feature", "properties": { "fid": 9, "id": 9, "cluster_id": "171", "column": null, "row": "A" }, "geometry": { "type": "Point", "coordinates": [ 120.976113095420189, 14.305839409199548 ] } },
{ "type": "Feature", "properties": { "fid": 10, "id": 10, "cluster_id": "171", "column": null, "row": "A" }, "geometry": { "type": "Point", "coordinates": [ 120.976122070105603, 14.305841652870901 ] } },
{ "type": "Feature", "properties": { "fid": 11, "id": 11, "cluster_id": "171", "column": null, "row": "A" }, "geometry": { "type": "Point", "coordinates": [ 120.976131605708858, 14.305841652870901 ] } },
{ "type": "Feature", "properties": { "fid": 12, "id": 12, "cluster_id": "171", "column": null, "row": "A" }, "geometry": { "type": "Point", "coordinates": [ 120.976138897640752, 14.305843896542253 ] } },
{ "type": "Feature", "properties": { "fid": 13, "id": 13, "cluster_id": "171", "column": null, "row": "A" }, "geometry": { "type": "Point", "coordinates": [ 120.976150676915353, 14.305842774706576 ] } },
{ "type": "Feature", "properties": { "fid": 14, "id": 14, "cluster_id": "171", "column": null, "row": "A" }, "geometry": { "type": "Point", "coordinates": [ 120.976159090682927, 14.305843335624415 ] } },
{ "type": "Feature", "properties": { "fid": 15, "id": 15, "cluster_id": "171", "column": null, "row": "A" }, "geometry": { "type": "Point", "coordinates": [ 120.976168626286182, 14.305844457460092 ] } },
{ "type": "Feature", "properties": { "fid": 16, "id": 16, "cluster_id": "171", "column": null, "row": "A" }, "geometry": { "type": "Point", "coordinates": [ 120.976178722807262, 14.305845579295768 ] } },
{ "type": "Feature", "properties": { "fid": 17, "id": 17, "cluster_id": "171", "column": null, "row": "A" }, "geometry": { "type": "Point", "coordinates": [ 120.976188819328357, 14.305846701131445 ] } },
{ "type": "Feature", "properties": { "fid": 18, "id": 18, "cluster_id": "171", "column": null, "row": "A" }, "geometry": { "type": "Point", "coordinates": [ 120.976198915849437, 14.305847262049284 ] } },
{ "type": "Feature", "properties": { "fid": 19, "id": 19, "cluster_id": "171", "column": null, "row": "A" }, "geometry": { "type": "Point", "coordinates": [ 120.976207329617012, 14.305849505720635 ] } },
{ "type": "Feature", "properties": { "fid": 20, "id": 20, "cluster_id": "171", "column": null, "row": "A" }, "geometry": { "type": "Point", "coordinates": [ 120.976215743384586, 14.305850627556312 ] } },
{ "type": "Feature", "properties": { "fid": 21, "id": 21, "cluster_id": "171", "column": null, "row": "A" }, "geometry": { "type": "Point", "coordinates": [ 120.97622359623432, 14.305851188474151 ] } },
{ "type": "Feature", "properties": { "fid": 22, "id": 22, "cluster_id": "171", "column": null, "row": "A" }, "geometry": { "type": "Point", "coordinates": [ 120.976232010001894, 14.305852310309827 ] } },
{ "type": "Feature", "properties": { "fid": 23, "id": 23, "cluster_id": "171", "column": null, "row": "A" }, "geometry": { "type": "Point", "coordinates": [ 120.976239862851628, 14.305853993063341 ] } },
{ "type": "Feature", "properties": { "fid": 24, "id": 24, "cluster_id": "171", "column": null, "row": "A" }, "geometry": { "type": "Point", "coordinates": [ 120.976246032947856, 14.305852871227666 ] } },
{ "type": "Feature", "properties": { "fid": 25, "id": 25, "cluster_id": "171", "column": null, "row": "A" }, "geometry": { "type": "Point", "coordinates": [ 120.97625332487975, 14.305853993063341 ] } },
{ "type": "Feature", "properties": { "fid": 26, "id": 26, "cluster_id": "171", "column": null, "row": "A" }, "geometry": { "type": "Point", "coordinates": [ 120.976260055893803, 14.305854553981179 ] } },
{ "type": "Feature", "properties": { "fid": 27, "id": 27, "cluster_id": "171", "column": null, "row": "A" }, "geometry": { "type": "Point", "coordinates": [ 120.976270152414898, 14.305855675816856 ] } },
{ "type": "Feature", "properties": { "fid": 28, "id": 28, "cluster_id": "171", "column": null, "row": "A" }, "geometry": { "type": "Point", "coordinates": [ 120.976275200675431, 14.305855675816856 ] } },
{ "type": "Feature", "properties": { "fid": 29, "id": 29, "cluster_id": "171", "column": null, "row": "A" }, "geometry": { "type": "Point", "coordinates": [ 120.976281370771659, 14.305856236734694 ] } },
{ "type": "Feature", "properties": { "fid": 30, "id": 30, "cluster_id": "171", "column": null, "row": "A" }, "geometry": { "type": "Point", "coordinates": [ 120.976288101785713, 14.305856797652533 ] } },
{ "type": "Feature", "properties": { "fid": 31, "id": 31, "cluster_id": "171", "column": null, "row": "A" }, "geometry": { "type": "Point", "coordinates": [ 120.976295393717606, 14.305856797652533 ] } },
{ "type": "Feature", "properties": { "fid": 32, "id": 32, "cluster_id": "171", "column": null, "row": "A" }, "geometry": { "type": "Point", "coordinates": [ 120.976304368403021, 14.305858480406046 ] } },
{ "type": "Feature", "properties": { "fid": 33, "id": 33, "cluster_id": "171", "column": null, "row": "A" }, "geometry": { "type": "Point", "coordinates": [ 120.976312782170595, 14.30585791948821 ] } },
{ "type": "Feature", "properties": { "fid": 34, "id": 34, "cluster_id": "171", "column": null, "row": "A" }, "geometry": { "type": "Point", "coordinates": [ 120.976318952266823, 14.305859602241723 ] } }
]
}
