{
"type": "FeatureCollection",
"name": "cltr-id-208-b-row",
"crs": { "type": "name", "properties": { "name": "urn:ogc:def:crs:OGC:1.3:CRS84" } },
"features": [
{ "type": "Feature", "properties": { "fid": 1, "id": 1, "cluster_id": "208", "column": null, "row": "B" }, "geometry": { "type": "Point", "coordinates": [ 120.976758077063366, 14.305388794351792 ] } },
{ "type": "Feature", "properties": { "fid": 2, "id": 2, "cluster_id": "208", "column": null, "row": "B" }, "geometry": { "type": "Point", "coordinates": [ 120.97676781299441, 14.305390417006967 ] } },
{ "type": "Feature", "properties": { "fid": 3, "id": 3, "cluster_id": "208", "column": null, "row": "B" }, "geometry": { "type": "Point", "coordinates": [ 120.976779171580631, 14.305391498777084 ] } },
{ "type": "Feature", "properties": { "fid": 4, "id": 4, "cluster_id": "208", "column": null, "row": "B" }, "geometry": { "type": "Point", "coordinates": [ 120.976791611936974, 14.305393121432258 ] } },
{ "type": "Feature", "properties": { "fid": 5, "id": 5, "cluster_id": "208", "column": null, "row": "B" }, "geometry": { "type": "Point", "coordinates": [ 120.976806756718602, 14.30539582585755 ] } },
{ "type": "Feature", "properties": { "fid": 6, "id": 6, "cluster_id": "208", "column": null, "row": "B" }, "geometry": { "type": "Point", "coordinates": [ 120.976818115304823, 14.305397448512725 ] } },
{ "type": "Feature", "properties": { "fid": 7, "id": 7, "cluster_id": "208", "column": null, "row": "B" }, "geometry": { "type": "Point", "coordinates": [ 120.976830555661166, 14.305397448512725 ] } },
{ "type": "Feature", "properties": { "fid": 8, "id": 8, "cluster_id": "208", "column": null, "row": "B" }, "geometry": { "type": "Point", "coordinates": [ 120.976841914247387, 14.30539853028284 ] } },
{ "type": "Feature", "properties": { "fid": 9, "id": 9, "cluster_id": "208", "column": null, "row": "B" }, "geometry": { "type": "Point", "coordinates": [ 120.976852191063486, 14.30539853028284 ] } },
{ "type": "Feature", "properties": { "fid": 10, "id": 10, "cluster_id": "208", "column": null, "row": "B" }, "geometry": { "type": "Point", "coordinates": [ 120.976864090534775, 14.305399612052957 ] } },
{ "type": "Feature", "properties": { "fid": 11, "id": 11, "cluster_id": "208", "column": null, "row": "B" }, "geometry": { "type": "Point", "coordinates": [ 120.97687599000605, 14.305400152938015 ] } },
{ "type": "Feature", "properties": { "fid": 12, "id": 12, "cluster_id": "208", "column": null, "row": "B" }, "geometry": { "type": "Point", "coordinates": [ 120.976888430362393, 14.305401775593189 ] } },
{ "type": "Feature", "properties": { "fid": 13, "id": 13, "cluster_id": "208", "column": null, "row": "B" }, "geometry": { "type": "Point", "coordinates": [ 120.976894380098031, 14.305404480018481 ] } },
{ "type": "Feature", "properties": { "fid": 14, "id": 14, "cluster_id": "208", "column": null, "row": "B" }, "geometry": { "type": "Point", "coordinates": [ 120.976904116029075, 14.305404480018481 ] } },
{ "type": "Feature", "properties": { "fid": 15, "id": 15, "cluster_id": "208", "column": null, "row": "B" }, "geometry": { "type": "Point", "coordinates": [ 120.976915474615296, 14.305404480018481 ] } },
{ "type": "Feature", "properties": { "fid": 16, "id": 16, "cluster_id": "208", "column": null, "row": "B" }, "geometry": { "type": "Point", "coordinates": [ 120.976926833201517, 14.305406102673656 ] } },
{ "type": "Feature", "properties": { "fid": 17, "id": 17, "cluster_id": "208", "column": null, "row": "B" }, "geometry": { "type": "Point", "coordinates": [ 120.976939273557861, 14.305407184443771 ] } },
{ "type": "Feature", "properties": { "fid": 18, "id": 18, "cluster_id": "208", "column": null, "row": "B" }, "geometry": { "type": "Point", "coordinates": [ 120.976946845948675, 14.305408266213888 ] } },
{ "type": "Feature", "properties": { "fid": 19, "id": 19, "cluster_id": "208", "column": null, "row": "B" }, "geometry": { "type": "Point", "coordinates": [ 120.976955500109611, 14.305408807098946 ] } },
{ "type": "Feature", "properties": { "fid": 20, "id": 20, "cluster_id": "208", "column": null, "row": "B" }, "geometry": { "type": "Point", "coordinates": [ 120.976964154270533, 14.305409888869063 ] } },
{ "type": "Feature", "properties": { "fid": 21, "id": 21, "cluster_id": "208", "column": null, "row": "B" }, "geometry": { "type": "Point", "coordinates": [ 120.976973890201592, 14.305409888869063 ] } },
{ "type": "Feature", "properties": { "fid": 22, "id": 22, "cluster_id": "208", "column": null, "row": "B" }, "geometry": { "type": "Point", "coordinates": [ 120.976983085247582, 14.305409347984005 ] } },
{ "type": "Feature", "properties": { "fid": 23, "id": 23, "cluster_id": "208", "column": null, "row": "B" }, "geometry": { "type": "Point", "coordinates": [ 120.976991739408504, 14.305412052409295 ] } },
{ "type": "Feature", "properties": { "fid": 24, "id": 24, "cluster_id": "208", "column": null, "row": "B" }, "geometry": { "type": "Point", "coordinates": [ 120.977001475339549, 14.305412052409295 ] } },
{ "type": "Feature", "properties": { "fid": 25, "id": 25, "cluster_id": "208", "column": null, "row": "B" }, "geometry": { "type": "Point", "coordinates": [ 120.9770074250752, 14.305411511524238 ] } },
{ "type": "Feature", "properties": { "fid": 26, "id": 26, "cluster_id": "208", "column": null, "row": "B" }, "geometry": { "type": "Point", "coordinates": [ 120.977014456580946, 14.305411511524238 ] } },
{ "type": "Feature", "properties": { "fid": 27, "id": 27, "cluster_id": "208", "column": null, "row": "B" }, "geometry": { "type": "Point", "coordinates": [ 120.977020406316598, 14.305412593294355 ] } },
{ "type": "Feature", "properties": { "fid": 28, "id": 28, "cluster_id": "208", "column": null, "row": "B" }, "geometry": { "type": "Point", "coordinates": [ 120.977027437822343, 14.305411511524238 ] } },
{ "type": "Feature", "properties": { "fid": 29, "id": 29, "cluster_id": "208", "column": null, "row": "B" }, "geometry": { "type": "Point", "coordinates": [ 120.977035010213157, 14.305415297719644 ] } },
{ "type": "Feature", "properties": { "fid": 30, "id": 30, "cluster_id": "208", "column": null, "row": "B" }, "geometry": { "type": "Point", "coordinates": [ 120.977041500833863, 14.30541367506447 ] } },
{ "type": "Feature", "properties": { "fid": 31, "id": 31, "cluster_id": "208", "column": null, "row": "B" }, "geometry": { "type": "Point", "coordinates": [ 120.977049614109731, 14.305415297719644 ] } },
{ "type": "Feature", "properties": { "fid": 32, "id": 32, "cluster_id": "208", "column": null, "row": "B" }, "geometry": { "type": "Point", "coordinates": [ 120.977053941190192, 14.305415838604704 ] } },
{ "type": "Feature", "properties": { "fid": 33, "id": 33, "cluster_id": "208", "column": null, "row": "B" }, "geometry": { "type": "Point", "coordinates": [ 120.977060431810898, 14.305415297719644 ] } },
{ "type": "Feature", "properties": { "fid": 34, "id": 34, "cluster_id": "208", "column": null, "row": "B" }, "geometry": { "type": "Point", "coordinates": [ 120.977067463316658, 14.305414756834587 ] } },
{ "type": "Feature", "properties": { "fid": 35, "id": 35, "cluster_id": "208", "column": null, "row": "B" }, "geometry": { "type": "Point", "coordinates": [ 120.977072872167241, 14.305416379489762 ] } }
]
}
