{
"type": "FeatureCollection",
"name": "cltr-id-187-a-row",
"crs": { "type": "name", "properties": { "name": "urn:ogc:def:crs:OGC:1.3:CRS84" } },
"features": [
{ "type": "Feature", "properties": { "fid": 1, "id": 1, "cluster_id": "187", "column": null, "row": "A" }, "geometry": { "type": "Point", "coordinates": [ 120.976583235968292, 14.305684117593579 ] } },
{ "type": "Feature", "properties": { "fid": 2, "id": 2, "cluster_id": "187", "column": null, "row": "A" }, "geometry": { "type": "Point", "coordinates": [ 120.976583506410819, 14.305680466619435 ] } },
{ "type": "Feature", "properties": { "fid": 3, "id": 3, "cluster_id": "187", "column": null, "row": "A" }, "geometry": { "type": "Point", "coordinates": [ 120.976591078801647, 14.305671001130918 ] } },
{ "type": "Feature", "properties": { "fid": 4, "id": 4, "cluster_id": "187", "column": null, "row": "A" }, "geometry": { "type": "Point", "coordinates": [ 120.976593918448188, 14.305671271573445 ] } },
{ "type": "Feature", "properties": { "fid": 5, "id": 5, "cluster_id": "187", "column": null, "row": "A" }, "geometry": { "type": "Point", "coordinates": [ 120.976597434201054, 14.305671542015974 ] } },
{ "type": "Feature", "properties": { "fid": 6, "id": 6, "cluster_id": "187", "column": null, "row": "A" }, "geometry": { "type": "Point", "coordinates": [ 120.976600679511421, 14.305671406794708 ] } },
{ "type": "Feature", "properties": { "fid": 7, "id": 7, "cluster_id": "187", "column": null, "row": "A" }, "geometry": { "type": "Point", "coordinates": [ 120.976604465706828, 14.305671812458504 ] } },
{ "type": "Feature", "properties": { "fid": 8, "id": 8, "cluster_id": "187", "column": null, "row": "A" }, "geometry": { "type": "Point", "coordinates": [ 120.976608522344748, 14.30567194767977 ] } },
{ "type": "Feature", "properties": { "fid": 9, "id": 9, "cluster_id": "187", "column": null, "row": "A" }, "geometry": { "type": "Point", "coordinates": [ 120.976612038097628, 14.30567194767977 ] } },
{ "type": "Feature", "properties": { "fid": 10, "id": 10, "cluster_id": "187", "column": null, "row": "A" }, "geometry": { "type": "Point", "coordinates": [ 120.976616094735576, 14.305672623786093 ] } },
{ "type": "Feature", "properties": { "fid": 11, "id": 11, "cluster_id": "187", "column": null, "row": "A" }, "geometry": { "type": "Point", "coordinates": [ 120.976619610488456, 14.30567316467115 ] } },
{ "type": "Feature", "properties": { "fid": 12, "id": 12, "cluster_id": "187", "column": null, "row": "A" }, "geometry": { "type": "Point", "coordinates": [ 120.976623937568917, 14.30567316467115 ] } },
{ "type": "Feature", "properties": { "fid": 13, "id": 13, "cluster_id": "187", "column": null, "row": "A" }, "geometry": { "type": "Point", "coordinates": [ 120.976628264649392, 14.30567370555621 ] } },
{ "type": "Feature", "properties": { "fid": 14, "id": 14, "cluster_id": "187", "column": null, "row": "A" }, "geometry": { "type": "Point", "coordinates": [ 120.976631915623514, 14.305673975998737 ] } },
{ "type": "Feature", "properties": { "fid": 15, "id": 15, "cluster_id": "187", "column": null, "row": "A" }, "geometry": { "type": "Point", "coordinates": [ 120.976635837040206, 14.305674381662532 ] } },
{ "type": "Feature", "properties": { "fid": 16, "id": 16, "cluster_id": "187", "column": null, "row": "A" }, "geometry": { "type": "Point", "coordinates": [ 120.97663989367814, 14.305674516883796 ] } },
{ "type": "Feature", "properties": { "fid": 17, "id": 17, "cluster_id": "187", "column": null, "row": "A" }, "geometry": { "type": "Point", "coordinates": [ 120.976644355979857, 14.30567492254759 ] } },
{ "type": "Feature", "properties": { "fid": 18, "id": 18, "cluster_id": "187", "column": null, "row": "A" }, "geometry": { "type": "Point", "coordinates": [ 120.976647330847683, 14.305675192990119 ] } },
{ "type": "Feature", "properties": { "fid": 19, "id": 19, "cluster_id": "187", "column": null, "row": "A" }, "geometry": { "type": "Point", "coordinates": [ 120.976650440936766, 14.305675328211382 ] } },
{ "type": "Feature", "properties": { "fid": 20, "id": 20, "cluster_id": "187", "column": null, "row": "A" }, "geometry": { "type": "Point", "coordinates": [ 120.976653280583321, 14.305675598653913 ] } },
{ "type": "Feature", "properties": { "fid": 21, "id": 21, "cluster_id": "187", "column": null, "row": "A" }, "geometry": { "type": "Point", "coordinates": [ 120.976655714566093, 14.305675733875177 ] } },
{ "type": "Feature", "properties": { "fid": 22, "id": 22, "cluster_id": "187", "column": null, "row": "A" }, "geometry": { "type": "Point", "coordinates": [ 120.976658689433904, 14.305676139538971 ] } },
{ "type": "Feature", "properties": { "fid": 23, "id": 23, "cluster_id": "187", "column": null, "row": "A" }, "geometry": { "type": "Point", "coordinates": [ 120.976661934744257, 14.305676139538971 ] } },
{ "type": "Feature", "properties": { "fid": 24, "id": 24, "cluster_id": "187", "column": null, "row": "A" }, "geometry": { "type": "Point", "coordinates": [ 120.976664368727015, 14.305676680424028 ] } },
{ "type": "Feature", "properties": { "fid": 25, "id": 25, "cluster_id": "187", "column": null, "row": "A" }, "geometry": { "type": "Point", "coordinates": [ 120.976666802709786, 14.305676680424028 ] } },
{ "type": "Feature", "properties": { "fid": 26, "id": 26, "cluster_id": "187", "column": null, "row": "A" }, "geometry": { "type": "Point", "coordinates": [ 120.976669642356342, 14.305676950866557 ] } },
{ "type": "Feature", "properties": { "fid": 27, "id": 27, "cluster_id": "187", "column": null, "row": "A" }, "geometry": { "type": "Point", "coordinates": [ 120.976672752445424, 14.305677086087822 ] } },
{ "type": "Feature", "properties": { "fid": 28, "id": 28, "cluster_id": "187", "column": null, "row": "A" }, "geometry": { "type": "Point", "coordinates": [ 120.976675186428182, 14.305677221309086 ] } },
{ "type": "Feature", "properties": { "fid": 29, "id": 29, "cluster_id": "187", "column": null, "row": "A" }, "geometry": { "type": "Point", "coordinates": [ 120.97667775563221, 14.305677356530351 ] } },
{ "type": "Feature", "properties": { "fid": 30, "id": 30, "cluster_id": "187", "column": null, "row": "A" }, "geometry": { "type": "Point", "coordinates": [ 120.976680189614967, 14.305677762194145 ] } },
{ "type": "Feature", "properties": { "fid": 31, "id": 31, "cluster_id": "187", "column": null, "row": "A" }, "geometry": { "type": "Point", "coordinates": [ 120.976682758818995, 14.305678167857939 ] } },
{ "type": "Feature", "properties": { "fid": 32, "id": 32, "cluster_id": "187", "column": null, "row": "A" }, "geometry": { "type": "Point", "coordinates": [ 120.976684651916699, 14.305678438300468 ] } },
{ "type": "Feature", "properties": { "fid": 33, "id": 33, "cluster_id": "187", "column": null, "row": "A" }, "geometry": { "type": "Point", "coordinates": [ 120.976687085899457, 14.305678303079203 ] } },
{ "type": "Feature", "properties": { "fid": 34, "id": 34, "cluster_id": "187", "column": null, "row": "A" }, "geometry": { "type": "Point", "coordinates": [ 120.976689114218431, 14.305678303079203 ] } },
{ "type": "Feature", "properties": { "fid": 35, "id": 35, "cluster_id": "187", "column": null, "row": "A" }, "geometry": { "type": "Point", "coordinates": [ 120.976691548201188, 14.305678303079203 ] } }
]
}
