{
"type": "FeatureCollection",
"name": "cltr-id-150-a-row",
"crs": { "type": "name", "properties": { "name": "urn:ogc:def:crs:OGC:1.3:CRS84" } },
"features": [
{ "type": "Feature", "properties": { "fid": 1, "id": 1, "cluster_id": "150", "column": null, "row": "B" }, "geometry": { "type": "Point", "coordinates": [ 120.976034268780992, 14.305678409373897 ] } },
{ "type": "Feature", "properties": { "fid": 2, "id": 2, "cluster_id": "150", "column": null, "row": "B" }, "geometry": { "type": "Point", "coordinates": [ 120.976043804384247, 14.30568009212741 ] } },
{ "type": "Feature", "properties": { "fid": 3, "id": 3, "cluster_id": "150", "column": null, "row": "B" }, "geometry": { "type": "Point", "coordinates": [ 120.976055022741008, 14.305681213963087 ] } },
{ "type": "Feature", "properties": { "fid": 4, "id": 4, "cluster_id": "150", "column": null, "row": "B" }, "geometry": { "type": "Point", "coordinates": [ 120.976065680179929, 14.305682896716602 ] } },
{ "type": "Feature", "properties": { "fid": 5, "id": 5, "cluster_id": "150", "column": null, "row": "B" }, "geometry": { "type": "Point", "coordinates": [ 120.976076898536704, 14.305681774880926 ] } },
{ "type": "Feature", "properties": { "fid": 6, "id": 6, "cluster_id": "150", "column": null, "row": "B" }, "geometry": { "type": "Point", "coordinates": [ 120.976089238729145, 14.305682896716602 ] } },
{ "type": "Feature", "properties": { "fid": 7, "id": 7, "cluster_id": "150", "column": null, "row": "B" }, "geometry": { "type": "Point", "coordinates": [ 120.976097652496719, 14.305685701305793 ] } },
{ "type": "Feature", "properties": { "fid": 8, "id": 8, "cluster_id": "150", "column": null, "row": "B" }, "geometry": { "type": "Point", "coordinates": [ 120.976110553606986, 14.305685140387954 ] } },
{ "type": "Feature", "properties": { "fid": 9, "id": 9, "cluster_id": "150", "column": null, "row": "B" }, "geometry": { "type": "Point", "coordinates": [ 120.976117845538894, 14.305686823141469 ] } },
{ "type": "Feature", "properties": { "fid": 10, "id": 10, "cluster_id": "150", "column": null, "row": "B" }, "geometry": { "type": "Point", "coordinates": [ 120.976127942059975, 14.305687384059308 ] } },
{ "type": "Feature", "properties": { "fid": 11, "id": 11, "cluster_id": "150", "column": null, "row": "B" }, "geometry": { "type": "Point", "coordinates": [ 120.976136916745389, 14.305687384059308 ] } },
{ "type": "Feature", "properties": { "fid": 12, "id": 12, "cluster_id": "150", "column": null, "row": "B" }, "geometry": { "type": "Point", "coordinates": [ 120.97614869601999, 14.305689066812823 ] } },
{ "type": "Feature", "properties": { "fid": 13, "id": 13, "cluster_id": "150", "column": null, "row": "B" }, "geometry": { "type": "Point", "coordinates": [ 120.976156548869724, 14.305692432319852 ] } },
{ "type": "Feature", "properties": { "fid": 14, "id": 14, "cluster_id": "150", "column": null, "row": "B" }, "geometry": { "type": "Point", "coordinates": [ 120.976166645390819, 14.30568962773066 ] } },
{ "type": "Feature", "properties": { "fid": 15, "id": 15, "cluster_id": "150", "column": null, "row": "B" }, "geometry": { "type": "Point", "coordinates": [ 120.976175620076219, 14.305690749566336 ] } },
{ "type": "Feature", "properties": { "fid": 16, "id": 16, "cluster_id": "150", "column": null, "row": "B" }, "geometry": { "type": "Point", "coordinates": [ 120.976185716597314, 14.30569299323769 ] } },
{ "type": "Feature", "properties": { "fid": 17, "id": 17, "cluster_id": "150", "column": null, "row": "B" }, "geometry": { "type": "Point", "coordinates": [ 120.976194691282728, 14.305691871402013 ] } },
{ "type": "Feature", "properties": { "fid": 18, "id": 18, "cluster_id": "150", "column": null, "row": "B" }, "geometry": { "type": "Point", "coordinates": [ 120.976205909639489, 14.305691871402013 ] } },
{ "type": "Feature", "properties": { "fid": 19, "id": 19, "cluster_id": "150", "column": null, "row": "B" }, "geometry": { "type": "Point", "coordinates": [ 120.976214884324904, 14.305697480580395 ] } },
{ "type": "Feature", "properties": { "fid": 20, "id": 20, "cluster_id": "150", "column": null, "row": "B" }, "geometry": { "type": "Point", "coordinates": [ 120.976225541763824, 14.305694675991203 ] } },
{ "type": "Feature", "properties": { "fid": 21, "id": 21, "cluster_id": "150", "column": null, "row": "B" }, "geometry": { "type": "Point", "coordinates": [ 120.976234516449239, 14.30569579782688 ] } },
{ "type": "Feature", "properties": { "fid": 22, "id": 22, "cluster_id": "150", "column": null, "row": "B" }, "geometry": { "type": "Point", "coordinates": [ 120.976243491134653, 14.305696919662557 ] } },
{ "type": "Feature", "properties": { "fid": 23, "id": 23, "cluster_id": "150", "column": null, "row": "B" }, "geometry": { "type": "Point", "coordinates": [ 120.976252465820053, 14.305695236909042 ] } },
{ "type": "Feature", "properties": { "fid": 24, "id": 24, "cluster_id": "150", "column": null, "row": "B" }, "geometry": { "type": "Point", "coordinates": [ 120.976260879587628, 14.305696919662557 ] } },
{ "type": "Feature", "properties": { "fid": 25, "id": 25, "cluster_id": "150", "column": null, "row": "B" }, "geometry": { "type": "Point", "coordinates": [ 120.976269854273042, 14.305696358744719 ] } },
{ "type": "Feature", "properties": { "fid": 26, "id": 26, "cluster_id": "150", "column": null, "row": "B" }, "geometry": { "type": "Point", "coordinates": [ 120.976277707122776, 14.305697480580395 ] } },
{ "type": "Feature", "properties": { "fid": 27, "id": 27, "cluster_id": "150", "column": null, "row": "B" }, "geometry": { "type": "Point", "coordinates": [ 120.976287803643871, 14.30569579782688 ] } },
{ "type": "Feature", "properties": { "fid": 28, "id": 28, "cluster_id": "150", "column": null, "row": "B" }, "geometry": { "type": "Point", "coordinates": [ 120.976298461082791, 14.305698602416072 ] } },
{ "type": "Feature", "properties": { "fid": 29, "id": 29, "cluster_id": "150", "column": null, "row": "B" }, "geometry": { "type": "Point", "coordinates": [ 120.976306874850366, 14.305701407005262 ] } },
{ "type": "Feature", "properties": { "fid": 30, "id": 30, "cluster_id": "150", "column": null, "row": "B" }, "geometry": { "type": "Point", "coordinates": [ 120.976313044946593, 14.305703650676616 ] } },
{ "type": "Feature", "properties": { "fid": 31, "id": 31, "cluster_id": "150", "column": null, "row": "B" }, "geometry": { "type": "Point", "coordinates": [ 120.976320897796327, 14.305700285169586 ] } },
{ "type": "Feature", "properties": { "fid": 32, "id": 32, "cluster_id": "150", "column": null, "row": "B" }, "geometry": { "type": "Point", "coordinates": [ 120.976329872481728, 14.305702528840939 ] } },
{ "type": "Feature", "properties": { "fid": 33, "id": 33, "cluster_id": "150", "column": null, "row": "B" }, "geometry": { "type": "Point", "coordinates": [ 120.976336603495795, 14.305705894347968 ] } },
{ "type": "Feature", "properties": { "fid": 34, "id": 34, "cluster_id": "150", "column": null, "row": "B" }, "geometry": { "type": "Point", "coordinates": [ 120.976343895427689, 14.305707016183645 ] } },
{ "type": "Feature", "properties": { "fid": 35, "id": 35, "cluster_id": "150", "column": null, "row": "B" }, "geometry": { "type": "Point", "coordinates": [ 120.976353966637745, 14.305691553804339 ] } },
{ "type": "Feature", "properties": { "fid": 36, "id": 36, "cluster_id": "150", "column": null, "row": "B" }, "geometry": { "type": "Point", "coordinates": [ 120.976355088473426, 14.30568482279028 ] } }
]
}
