{
"type": "FeatureCollection",
"name": "cltr-id-182-b-row",
"crs": { "type": "name", "properties": { "name": "urn:ogc:def:crs:OGC:1.3:CRS84" } },
"features": [
{ "type": "Feature", "properties": { "fid": 1, "id": 1, "cluster_id": "182", "column": null, "row": "B" }, "geometry": { "type": "Point", "coordinates": [ 120.976623069899105, 14.30544407731214 ] } },
{ "type": "Feature", "properties": { "fid": 2, "id": 2, "cluster_id": "182", "column": null, "row": "B" }, "geometry": { "type": "Point", "coordinates": [ 120.976634698927853, 14.305445699967315 ] } },
{ "type": "Feature", "properties": { "fid": 3, "id": 3, "cluster_id": "182", "column": null, "row": "B" }, "geometry": { "type": "Point", "coordinates": [ 120.976648221054305, 14.305446781737432 ] } },
{ "type": "Feature", "properties": { "fid": 4, "id": 4, "cluster_id": "182", "column": null, "row": "B" }, "geometry": { "type": "Point", "coordinates": [ 120.976659038755471, 14.305448404392607 ] } },
{ "type": "Feature", "properties": { "fid": 5, "id": 5, "cluster_id": "182", "column": null, "row": "B" }, "geometry": { "type": "Point", "coordinates": [ 120.976668774686516, 14.305448674835135 ] } },
{ "type": "Feature", "properties": { "fid": 6, "id": 6, "cluster_id": "182", "column": null, "row": "B" }, "geometry": { "type": "Point", "coordinates": [ 120.976678240175033, 14.305449486162722 ] } },
{ "type": "Feature", "properties": { "fid": 7, "id": 7, "cluster_id": "182", "column": null, "row": "B" }, "geometry": { "type": "Point", "coordinates": [ 120.976687976106092, 14.305451108817897 ] } },
{ "type": "Feature", "properties": { "fid": 8, "id": 8, "cluster_id": "182", "column": null, "row": "B" }, "geometry": { "type": "Point", "coordinates": [ 120.976697441594609, 14.305451108817897 ] } },
{ "type": "Feature", "properties": { "fid": 9, "id": 9, "cluster_id": "182", "column": null, "row": "B" }, "geometry": { "type": "Point", "coordinates": [ 120.976705554870477, 14.305451920145485 ] } },
{ "type": "Feature", "properties": { "fid": 10, "id": 10, "cluster_id": "182", "column": null, "row": "B" }, "geometry": { "type": "Point", "coordinates": [ 120.976714749916468, 14.305452731473071 ] } },
{ "type": "Feature", "properties": { "fid": 11, "id": 11, "cluster_id": "182", "column": null, "row": "B" }, "geometry": { "type": "Point", "coordinates": [ 120.976721781422228, 14.30544407731214 ] } },
{ "type": "Feature", "properties": { "fid": 12, "id": 12, "cluster_id": "182", "column": null, "row": "B" }, "geometry": { "type": "Point", "coordinates": [ 120.976721510979701, 14.305437316248913 ] } }
]
}
