{
    "type": "FeatureCollection",
    "name": "cltr-id-160-c-row",
    "crs": {
        "type": "name",
        "properties": { "name": "urn:ogc:def:crs:OGC:1.3:CRS84" }
    },
    "features": [
        {
            "type": "Feature",
            "properties": {
                "fid": 1,
                "id": 1,
                "cluster_id": "160",
                "column": null,
                "row": "C"
            },
            "geometry": {
                "type": "Point",
                "coordinates": [120.976382258856319, 14.305836211767623]
            }
        },
        {
            "type": "Feature",
            "properties": {
                "fid": 2,
                "id": 2,
                "cluster_id": "160",
                "column": null,
                "row": "C"
            },
            "geometry": {
                "type": "Point",
                "coordinates": [120.976393600165594, 14.305836741735346]
            }
        },
        {
            "type": "Feature",
            "properties": {
                "fid": 3,
                "id": 3,
                "cluster_id": "160",
                "column": null,
                "row": "C"
            },
            "geometry": {
                "type": "Point",
                "coordinates": [120.976404517500683, 14.305837589683703]
            }
        },
        {
            "type": "Feature",
            "properties": {
                "fid": 4,
                "id": 4,
                "cluster_id": "160",
                "column": null,
                "row": "C"
            },
            "geometry": {
                "type": "Point",
                "coordinates": [120.976416812751864, 14.305838967599783]
            }
        },
        {
            "type": "Feature",
            "properties": {
                "fid": 5,
                "id": 5,
                "cluster_id": "160",
                "column": null,
                "row": "C"
            },
            "geometry": {
                "type": "Point",
                "coordinates": [120.976425610216069, 14.305839709554597]
            }
        },
        {
            "type": "Feature",
            "properties": {
                "fid": 6,
                "id": 6,
                "cluster_id": "160",
                "column": null,
                "row": "C"
            },
            "geometry": {
                "type": "Point",
                "coordinates": [120.976433983706102, 14.305839921541686]
            }
        },
        {
            "type": "Feature",
            "properties": {
                "fid": 7,
                "id": 7,
                "cluster_id": "160",
                "column": null,
                "row": "C"
            },
            "geometry": {
                "type": "Point",
                "coordinates": [120.97644246318967, 14.305840451509409]
            }
        },
        {
            "type": "Feature",
            "properties": {
                "fid": 8,
                "id": 8,
                "cluster_id": "160",
                "column": null,
                "row": "C"
            },
            "geometry": {
                "type": "Point",
                "coordinates": [120.97644892879589, 14.305841193464222]
            }
        },
        {
            "type": "Feature",
            "properties": {
                "fid": 9,
                "id": 9,
                "cluster_id": "160",
                "column": null,
                "row": "C"
            },
            "geometry": {
                "type": "Point",
                "coordinates": [120.976458574208451, 14.3058416174384]
            }
        },
        {
            "type": "Feature",
            "properties": {
                "fid": 10,
                "id": 10,
                "cluster_id": "160",
                "column": null,
                "row": "C"
            },
            "geometry": {
                "type": "Point",
                "coordinates": [120.976466099750127, 14.305842465386757]
            }
        },
        {
            "type": "Feature",
            "properties": {
                "fid": 11,
                "id": 11,
                "cluster_id": "160",
                "column": null,
                "row": "C"
            },
            "geometry": {
                "type": "Point",
                "coordinates": [120.976475533175602, 14.305842889360935]
            }
        },
        {
            "type": "Feature",
            "properties": {
                "fid": 12,
                "id": 12,
                "cluster_id": "160",
                "column": null,
                "row": "C"
            },
            "geometry": {
                "type": "Point",
                "coordinates": [120.976483588684985, 14.305844161283471]
            }
        },
        {
            "type": "Feature",
            "properties": {
                "fid": 13,
                "id": 13,
                "cluster_id": "160",
                "column": null,
                "row": "C"
            },
            "geometry": {
                "type": "Point",
                "coordinates": [120.976491326213747, 14.305844691251194]
            }
        },
        {
            "type": "Feature",
            "properties": {
                "fid": 14,
                "id": 14,
                "cluster_id": "160",
                "column": null,
                "row": "C"
            },
            "geometry": {
                "type": "Point",
                "coordinates": [120.97649514198136, 14.305838967599783]
            }
        },
        {
            "type": "Feature",
            "properties": {
                "fid": 15,
                "id": 15,
                "cluster_id": "160",
                "column": null,
                "row": "C"
            },
            "geometry": {
                "type": "Point",
                "coordinates": [120.976495565955531, 14.305832078019382]
            }
        }
    ]
}
