{
"type": "FeatureCollection",
"name": "cltr-id-156-a-row",
"crs": { "type": "name", "properties": { "name": "urn:ogc:def:crs:OGC:1.3:CRS84" } },
"features": [
{ "type": "Feature", "properties": { "fid": 1, "id": 1, "cluster_id": "156", "column": null, "rows": "A" }, "geometry": { "type": "Point", "coordinates": [ 120.976405895416775, 14.305568896048044 ] } },
{ "type": "Feature", "properties": { "fid": 2, "id": 2, "cluster_id": "156", "column": null, "rows": "A" }, "geometry": { "type": "Point", "coordinates": [ 120.976415434835786, 14.30556995598349 ] } },
{ "type": "Feature", "properties": { "fid": 3, "id": 3, "cluster_id": "156", "column": null, "rows": "A" }, "geometry": { "type": "Point", "coordinates": [ 120.976424974254812, 14.305570803931847 ] } },
{ "type": "Feature", "properties": { "fid": 4, "id": 4, "cluster_id": "156", "column": null, "rows": "A" }, "geometry": { "type": "Point", "coordinates": [ 120.976434513673823, 14.305571015918936 ] } },
{ "type": "Feature", "properties": { "fid": 5, "id": 5, "cluster_id": "156", "column": null, "rows": "A" }, "geometry": { "type": "Point", "coordinates": [ 120.976442781170306, 14.305571863867295 ] } },
{ "type": "Feature", "properties": { "fid": 6, "id": 6, "cluster_id": "156", "column": null, "rows": "A" }, "geometry": { "type": "Point", "coordinates": [ 120.976451896615146, 14.305572923802741 ] } },
{ "type": "Feature", "properties": { "fid": 7, "id": 7, "cluster_id": "156", "column": null, "rows": "A" }, "geometry": { "type": "Point", "coordinates": [ 120.9764608000729, 14.305573559764008 ] } },
{ "type": "Feature", "properties": { "fid": 8, "id": 8, "cluster_id": "156", "column": null, "rows": "A" }, "geometry": { "type": "Point", "coordinates": [ 120.976469067569383, 14.305573983738187 ] } },
{ "type": "Feature", "properties": { "fid": 9, "id": 9, "cluster_id": "156", "column": null, "rows": "A" }, "geometry": { "type": "Point", "coordinates": [ 120.976478183014223, 14.305574195725276 ] } },
{ "type": "Feature", "properties": { "fid": 10, "id": 10, "cluster_id": "156", "column": null, "rows": "A" }, "geometry": { "type": "Point", "coordinates": [ 120.976487086471977, 14.305574831686544 ] } },
{ "type": "Feature", "properties": { "fid": 11, "id": 11, "cluster_id": "156", "column": null, "rows": "A" }, "geometry": { "type": "Point", "coordinates": [ 120.976495565955545, 14.305575679634901 ] } },
{ "type": "Feature", "properties": { "fid": 12, "id": 12, "cluster_id": "156", "column": null, "rows": "A" }, "geometry": { "type": "Point", "coordinates": [ 120.976502773516572, 14.305576103609079 ] } },
{ "type": "Feature", "properties": { "fid": 13, "id": 13, "cluster_id": "156", "column": null, "rows": "A" }, "geometry": { "type": "Point", "coordinates": [ 120.976511253000155, 14.305576527583257 ] } },
{ "type": "Feature", "properties": { "fid": 14, "id": 14, "cluster_id": "156", "column": null, "rows": "A" }, "geometry": { "type": "Point", "coordinates": [ 120.97652036844498, 14.305571863867295 ] } },
{ "type": "Feature", "properties": { "fid": 15, "id": 15, "cluster_id": "156", "column": null, "rows": "A" }, "geometry": { "type": "Point", "coordinates": [ 120.976521004406251, 14.305563808357901 ] } }
]
}
