{
"type": "FeatureCollection",
"name": "cltr-id-147-e-row",
"crs": { "type": "name", "properties": { "name": "urn:ogc:def:crs:OGC:1.3:CRS84" } },
"features": [
{ "type": "Feature", "properties": { "fid": 1, "id": 1, "cluster_id": "147", "column": null, "row": "E" }, "geometry": { "type": "Point", "coordinates": [ 120.976064557392107, 14.305375772184139 ] } },
{ "type": "Feature", "properties": { "fid": 2, "id": 2, "cluster_id": "147", "column": null, "row": "E" }, "geometry": { "type": "Point", "coordinates": [ 120.976065118309947, 14.305367919334403 ] } },
{ "type": "Feature", "properties": { "fid": 3, "id": 3, "cluster_id": "147", "column": null, "row": "E" }, "geometry": { "type": "Point", "coordinates": [ 120.976067336207478, 14.305373059647977 ] } },
{ "type": "Feature", "properties": { "fid": 4, "id": 4, "cluster_id": "147", "column": null, "row": "E" }, "geometry": { "type": "Point", "coordinates": [ 120.976080050345146, 14.305374181483653 ] } },
{ "type": "Feature", "properties": { "fid": 5, "id": 5, "cluster_id": "147", "column": null, "row": "E" }, "geometry": { "type": "Point", "coordinates": [ 120.976092764482814, 14.305374929374103 ] } },
{ "type": "Feature", "properties": { "fid": 6, "id": 6, "cluster_id": "147", "column": null, "row": "E" }, "geometry": { "type": "Point", "coordinates": [ 120.976105852565709, 14.305375677264555 ] } },
{ "type": "Feature", "properties": { "fid": 7, "id": 7, "cluster_id": "147", "column": null, "row": "E" }, "geometry": { "type": "Point", "coordinates": [ 120.976116323032016, 14.30537605120978 ] } },
{ "type": "Feature", "properties": { "fid": 8, "id": 8, "cluster_id": "147", "column": null, "row": "E" }, "geometry": { "type": "Point", "coordinates": [ 120.976126793498338, 14.305376799100232 ] } },
{ "type": "Feature", "properties": { "fid": 9, "id": 9, "cluster_id": "147", "column": null, "row": "E" }, "geometry": { "type": "Point", "coordinates": [ 120.976135020293299, 14.305377920935907 ] } },
{ "type": "Feature", "properties": { "fid": 10, "id": 10, "cluster_id": "147", "column": null, "row": "E" }, "geometry": { "type": "Point", "coordinates": [ 120.976145490759606, 14.305377920935907 ] } },
{ "type": "Feature", "properties": { "fid": 11, "id": 11, "cluster_id": "147", "column": null, "row": "E" }, "geometry": { "type": "Point", "coordinates": [ 120.976155587280701, 14.305378294881134 ] } },
{ "type": "Feature", "properties": { "fid": 12, "id": 12, "cluster_id": "147", "column": null, "row": "E" }, "geometry": { "type": "Point", "coordinates": [ 120.976165683801781, 14.305379790662036 ] } },
{ "type": "Feature", "properties": { "fid": 13, "id": 13, "cluster_id": "147", "column": null, "row": "E" }, "geometry": { "type": "Point", "coordinates": [ 120.976175032432423, 14.305380164607261 ] } },
{ "type": "Feature", "properties": { "fid": 14, "id": 14, "cluster_id": "147", "column": null, "row": "E" }, "geometry": { "type": "Point", "coordinates": [ 120.97618550289873, 14.305380912497711 ] } },
{ "type": "Feature", "properties": { "fid": 15, "id": 15, "cluster_id": "147", "column": null, "row": "E" }, "geometry": { "type": "Point", "coordinates": [ 120.976194477584144, 14.305381660388163 ] } },
{ "type": "Feature", "properties": { "fid": 16, "id": 16, "cluster_id": "147", "column": null, "row": "E" }, "geometry": { "type": "Point", "coordinates": [ 120.976203826214785, 14.305382034333388 ] } },
{ "type": "Feature", "properties": { "fid": 17, "id": 17, "cluster_id": "147", "column": null, "row": "E" }, "geometry": { "type": "Point", "coordinates": [ 120.976213548790639, 14.305382408278613 ] } },
{ "type": "Feature", "properties": { "fid": 18, "id": 18, "cluster_id": "147", "column": null, "row": "E" }, "geometry": { "type": "Point", "coordinates": [ 120.976222523476054, 14.305383530114289 ] } },
{ "type": "Feature", "properties": { "fid": 19, "id": 19, "cluster_id": "147", "column": null, "row": "E" }, "geometry": { "type": "Point", "coordinates": [ 120.976232993942375, 14.305384278004741 ] } },
{ "type": "Feature", "properties": { "fid": 20, "id": 20, "cluster_id": "147", "column": null, "row": "E" }, "geometry": { "type": "Point", "coordinates": [ 120.976241220737322, 14.305385399840418 ] } },
{ "type": "Feature", "properties": { "fid": 21, "id": 21, "cluster_id": "147", "column": null, "row": "E" }, "geometry": { "type": "Point", "coordinates": [ 120.976250195422736, 14.305386521676093 ] } },
{ "type": "Feature", "properties": { "fid": 22, "id": 22, "cluster_id": "147", "column": null, "row": "E" }, "geometry": { "type": "Point", "coordinates": [ 120.976259917998604, 14.30538689562132 ] } },
{ "type": "Feature", "properties": { "fid": 23, "id": 23, "cluster_id": "147", "column": null, "row": "E" }, "geometry": { "type": "Point", "coordinates": [ 120.976268518738792, 14.30538764351177 ] } },
{ "type": "Feature", "properties": { "fid": 24, "id": 24, "cluster_id": "147", "column": null, "row": "E" }, "geometry": { "type": "Point", "coordinates": [ 120.976276745533752, 14.305388391402222 ] } },
{ "type": "Feature", "properties": { "fid": 25, "id": 25, "cluster_id": "147", "column": null, "row": "E" }, "geometry": { "type": "Point", "coordinates": [ 120.976284598383486, 14.305388017456995 ] } },
{ "type": "Feature", "properties": { "fid": 26, "id": 26, "cluster_id": "147", "column": null, "row": "E" }, "geometry": { "type": "Point", "coordinates": [ 120.976292077287994, 14.305389139292672 ] } },
{ "type": "Feature", "properties": { "fid": 27, "id": 27, "cluster_id": "147", "column": null, "row": "E" }, "geometry": { "type": "Point", "coordinates": [ 120.976299556192501, 14.305389513237897 ] } },
{ "type": "Feature", "properties": { "fid": 28, "id": 28, "cluster_id": "147", "column": null, "row": "E" }, "geometry": { "type": "Point", "coordinates": [ 120.976307782987462, 14.305389887183123 ] } },
{ "type": "Feature", "properties": { "fid": 29, "id": 29, "cluster_id": "147", "column": null, "row": "E" }, "geometry": { "type": "Point", "coordinates": [ 120.976315635837196, 14.3053910090188 ] } },
{ "type": "Feature", "properties": { "fid": 30, "id": 30, "cluster_id": "147", "column": null, "row": "E" }, "geometry": { "type": "Point", "coordinates": [ 120.976322740796476, 14.305391382964025 ] } },
{ "type": "Feature", "properties": { "fid": 31, "id": 31, "cluster_id": "147", "column": null, "row": "E" }, "geometry": { "type": "Point", "coordinates": [ 120.976329845755771, 14.305392130854475 ] } },
{ "type": "Feature", "properties": { "fid": 32, "id": 32, "cluster_id": "147", "column": null, "row": "E" }, "geometry": { "type": "Point", "coordinates": [ 120.976336950715051, 14.305392504799702 ] } },
{ "type": "Feature", "properties": { "fid": 33, "id": 33, "cluster_id": "147", "column": null, "row": "E" }, "geometry": { "type": "Point", "coordinates": [ 120.976344429619559, 14.305393252690152 ] } },
{ "type": "Feature", "properties": { "fid": 34, "id": 34, "cluster_id": "147", "column": null, "row": "E" }, "geometry": { "type": "Point", "coordinates": [ 120.9763507866884, 14.305393626635377 ] } },
{ "type": "Feature", "properties": { "fid": 35, "id": 35, "cluster_id": "147", "column": null, "row": "E" }, "geometry": { "type": "Point", "coordinates": [ 120.97635789164768, 14.305394748471054 ] } },
{ "type": "Feature", "properties": { "fid": 36, "id": 36, "cluster_id": "147", "column": null, "row": "E" }, "geometry": { "type": "Point", "coordinates": [ 120.976365744497414, 14.305395122416279 ] } }
]
}
