{
"type": "FeatureCollection",
"name": "cltr-id-192-d-row",
"crs": { "type": "name", "properties": { "name": "urn:ogc:def:crs:OGC:1.3:CRS84" } },
"features": [
{ "type": "Feature", "properties": { "fid": 1, "id": 1, "cluster_id": "192", "column": null, "row": "D" }, "geometry": { "type": "Point", "coordinates": [ 120.976737388209784, 14.305585946955514 ] } },
{ "type": "Feature", "properties": { "fid": 2, "id": 2, "cluster_id": "192", "column": null, "row": "D" }, "geometry": { "type": "Point", "coordinates": [ 120.976745231043125, 14.305585406070456 ] } },
{ "type": "Feature", "properties": { "fid": 3, "id": 3, "cluster_id": "192", "column": null, "row": "D" }, "geometry": { "type": "Point", "coordinates": [ 120.976752532991412, 14.30558729916816 ] } },
{ "type": "Feature", "properties": { "fid": 4, "id": 4, "cluster_id": "192", "column": null, "row": "D" }, "geometry": { "type": "Point", "coordinates": [ 120.976761457594876, 14.305588110495746 ] } },
{ "type": "Feature", "properties": { "fid": 5, "id": 5, "cluster_id": "192", "column": null, "row": "D" }, "geometry": { "type": "Point", "coordinates": [ 120.976770111755798, 14.30559027403598 ] } },
{ "type": "Feature", "properties": { "fid": 6, "id": 6, "cluster_id": "192", "column": null, "row": "D" }, "geometry": { "type": "Point", "coordinates": [ 120.97678038857191, 14.305590814921038 ] } },
{ "type": "Feature", "properties": { "fid": 7, "id": 7, "cluster_id": "192", "column": null, "row": "D" }, "geometry": { "type": "Point", "coordinates": [ 120.976789313175374, 14.305593248903799 ] } },
{ "type": "Feature", "properties": { "fid": 8, "id": 8, "cluster_id": "192", "column": null, "row": "D" }, "geometry": { "type": "Point", "coordinates": [ 120.976799589991472, 14.305592167133684 ] } },
{ "type": "Feature", "properties": { "fid": 9, "id": 9, "cluster_id": "192", "column": null, "row": "D" }, "geometry": { "type": "Point", "coordinates": [ 120.976806080612178, 14.305594330673916 ] } },
{ "type": "Feature", "properties": { "fid": 10, "id": 10, "cluster_id": "192", "column": null, "row": "D" }, "geometry": { "type": "Point", "coordinates": [ 120.976819873181157, 14.305595682886562 ] } },
{ "type": "Feature", "properties": { "fid": 11, "id": 11, "cluster_id": "192", "column": null, "row": "D" }, "geometry": { "type": "Point", "coordinates": [ 120.97683096132485, 14.305596494214148 ] } },
{ "type": "Feature", "properties": { "fid": 12, "id": 12, "cluster_id": "192", "column": null, "row": "D" }, "geometry": { "type": "Point", "coordinates": [ 120.97684150858349, 14.305598657754382 ] } },
{ "type": "Feature", "properties": { "fid": 13, "id": 13, "cluster_id": "192", "column": null, "row": "D" }, "geometry": { "type": "Point", "coordinates": [ 120.976849621859358, 14.30559919863944 ] } },
{ "type": "Feature", "properties": { "fid": 14, "id": 14, "cluster_id": "192", "column": null, "row": "D" }, "geometry": { "type": "Point", "coordinates": [ 120.976864225755932, 14.305601091737143 ] } },
{ "type": "Feature", "properties": { "fid": 15, "id": 15, "cluster_id": "192", "column": null, "row": "D" }, "geometry": { "type": "Point", "coordinates": [ 120.976873150359395, 14.30560217350726 ] } },
{ "type": "Feature", "properties": { "fid": 16, "id": 16, "cluster_id": "192", "column": null, "row": "D" }, "geometry": { "type": "Point", "coordinates": [ 120.976887213370901, 14.305604607490022 ] } },
{ "type": "Feature", "properties": { "fid": 17, "id": 17, "cluster_id": "192", "column": null, "row": "D" }, "geometry": { "type": "Point", "coordinates": [ 120.97689911284219, 14.305603525719906 ] } },
{ "type": "Feature", "properties": { "fid": 18, "id": 18, "cluster_id": "192", "column": null, "row": "D" }, "geometry": { "type": "Point", "coordinates": [ 120.976906955675531, 14.305604607490022 ] } },
{ "type": "Feature", "properties": { "fid": 19, "id": 19, "cluster_id": "192", "column": null, "row": "D" }, "geometry": { "type": "Point", "coordinates": [ 120.976913987181291, 14.305606230145196 ] } },
{ "type": "Feature", "properties": { "fid": 20, "id": 20, "cluster_id": "192", "column": null, "row": "D" }, "geometry": { "type": "Point", "coordinates": [ 120.976923452669809, 14.305606771030256 ] } },
{ "type": "Feature", "properties": { "fid": 21, "id": 21, "cluster_id": "192", "column": null, "row": "D" }, "geometry": { "type": "Point", "coordinates": [ 120.976936163468679, 14.30560839368543 ] } },
{ "type": "Feature", "properties": { "fid": 22, "id": 22, "cluster_id": "192", "column": null, "row": "D" }, "geometry": { "type": "Point", "coordinates": [ 120.976948062939954, 14.305607311915313 ] } },
{ "type": "Feature", "properties": { "fid": 23, "id": 23, "cluster_id": "192", "column": null, "row": "D" }, "geometry": { "type": "Point", "coordinates": [ 120.976956987543417, 14.30560839368543 ] } },
{ "type": "Feature", "properties": { "fid": 24, "id": 24, "cluster_id": "192", "column": null, "row": "D" }, "geometry": { "type": "Point", "coordinates": [ 120.976964830376758, 14.305609475455546 ] } },
{ "type": "Feature", "properties": { "fid": 25, "id": 25, "cluster_id": "192", "column": null, "row": "D" }, "geometry": { "type": "Point", "coordinates": [ 120.976971861882518, 14.305609205013017 ] } },
{ "type": "Feature", "properties": { "fid": 26, "id": 26, "cluster_id": "192", "column": null, "row": "D" }, "geometry": { "type": "Point", "coordinates": [ 120.976977270733101, 14.305610016340605 ] } },
{ "type": "Feature", "properties": { "fid": 27, "id": 27, "cluster_id": "192", "column": null, "row": "D" }, "geometry": { "type": "Point", "coordinates": [ 120.97698403179632, 14.305610827668191 ] } },
{ "type": "Feature", "properties": { "fid": 28, "id": 28, "cluster_id": "192", "column": null, "row": "D" }, "geometry": { "type": "Point", "coordinates": [ 120.976988358876795, 14.30561163899578 ] } },
{ "type": "Feature", "properties": { "fid": 29, "id": 29, "cluster_id": "192", "column": null, "row": "D" }, "geometry": { "type": "Point", "coordinates": [ 120.976996201710136, 14.305613802536012 ] } },
{ "type": "Feature", "properties": { "fid": 30, "id": 30, "cluster_id": "192", "column": null, "row": "D" }, "geometry": { "type": "Point", "coordinates": [ 120.977000528790597, 14.305612720765895 ] } },
{ "type": "Feature", "properties": { "fid": 31, "id": 31, "cluster_id": "192", "column": null, "row": "D" }, "geometry": { "type": "Point", "coordinates": [ 120.977008101181411, 14.305615425191187 ] } },
{ "type": "Feature", "properties": { "fid": 32, "id": 32, "cluster_id": "192", "column": null, "row": "D" }, "geometry": { "type": "Point", "coordinates": [ 120.977013510031995, 14.305615154748658 ] } },
{ "type": "Feature", "properties": { "fid": 33, "id": 33, "cluster_id": "192", "column": null, "row": "D" }, "geometry": { "type": "Point", "coordinates": [ 120.97702135286535, 14.305616236518773 ] } },
{ "type": "Feature", "properties": { "fid": 34, "id": 34, "cluster_id": "192", "column": null, "row": "D" }, "geometry": { "type": "Point", "coordinates": [ 120.977030277468799, 14.305617047846361 ] } },
{ "type": "Feature", "properties": { "fid": 35, "id": 35, "cluster_id": "192", "column": null, "row": "D" }, "geometry": { "type": "Point", "coordinates": [ 120.977036497646978, 14.305617588731419 ] } },
{ "type": "Feature", "properties": { "fid": 36, "id": 36, "cluster_id": "192", "column": null, "row": "D" }, "geometry": { "type": "Point", "coordinates": [ 120.977046233578022, 14.305616506961304 ] } },
{ "type": "Feature", "properties": { "fid": 37, "id": 37, "cluster_id": "192", "column": null, "row": "D" }, "geometry": { "type": "Point", "coordinates": [ 120.97705434685389, 14.305617588731419 ] } },
{ "type": "Feature", "properties": { "fid": 38, "id": 38, "cluster_id": "192", "column": null, "row": "D" }, "geometry": { "type": "Point", "coordinates": [ 120.9770627305723, 14.305619211386594 ] } },
{ "type": "Feature", "properties": { "fid": 39, "id": 39, "cluster_id": "192", "column": null, "row": "D" }, "geometry": { "type": "Point", "coordinates": [ 120.977075170928629, 14.30561731828889 ] } },
{ "type": "Feature", "properties": { "fid": 40, "id": 40, "cluster_id": "192", "column": null, "row": "D" }, "geometry": { "type": "Point", "coordinates": [ 120.977075982256224, 14.305612450323366 ] } }
]
}
