{
"type": "FeatureCollection",
"name": "cltr-id-169-b-row",
"crs": { "type": "name", "properties": { "name": "urn:ogc:def:crs:OGC:1.3:CRS84" } },
"features": [
{ "type": "Feature", "properties": { "fid": 1, "id": 1, "cluster_id": "169", "column": null, "row": "B" }, "geometry": { "type": "Point", "coordinates": [ 120.976034940868061, 14.305707967452793 ] } },
{ "type": "Feature", "properties": { "fid": 2, "id": 2, "cluster_id": "169", "column": null, "row": "B" }, "geometry": { "type": "Point", "coordinates": [ 120.976043915553475, 14.305707967452793 ] } },
{ "type": "Feature", "properties": { "fid": 3, "id": 3, "cluster_id": "169", "column": null, "row": "B" }, "geometry": { "type": "Point", "coordinates": [ 120.97605401207457, 14.305708715343245 ] } },
{ "type": "Feature", "properties": { "fid": 4, "id": 4, "cluster_id": "169", "column": null, "row": "B" }, "geometry": { "type": "Point", "coordinates": [ 120.976062612814758, 14.305710585069372 ] } },
{ "type": "Feature", "properties": { "fid": 5, "id": 5, "cluster_id": "169", "column": null, "row": "B" }, "geometry": { "type": "Point", "coordinates": [ 120.976072335390612, 14.305710959014599 ] } },
{ "type": "Feature", "properties": { "fid": 6, "id": 6, "cluster_id": "169", "column": null, "row": "B" }, "geometry": { "type": "Point", "coordinates": [ 120.976082805856933, 14.305712454795501 ] } },
{ "type": "Feature", "properties": { "fid": 7, "id": 7, "cluster_id": "169", "column": null, "row": "B" }, "geometry": { "type": "Point", "coordinates": [ 120.97609028476144, 14.305712828740726 ] } },
{ "type": "Feature", "properties": { "fid": 8, "id": 8, "cluster_id": "169", "column": null, "row": "B" }, "geometry": { "type": "Point", "coordinates": [ 120.976101129172974, 14.305712828740726 ] } },
{ "type": "Feature", "properties": { "fid": 9, "id": 9, "cluster_id": "169", "column": null, "row": "B" }, "geometry": { "type": "Point", "coordinates": [ 120.976110851748842, 14.305713950576402 ] } },
{ "type": "Feature", "properties": { "fid": 10, "id": 10, "cluster_id": "169", "column": null, "row": "B" }, "geometry": { "type": "Point", "coordinates": [ 120.976118704598576, 14.305715446357304 ] } },
{ "type": "Feature", "properties": { "fid": 11, "id": 11, "cluster_id": "169", "column": null, "row": "B" }, "geometry": { "type": "Point", "coordinates": [ 120.976129175064884, 14.305716194247754 ] } },
{ "type": "Feature", "properties": { "fid": 12, "id": 12, "cluster_id": "169", "column": null, "row": "B" }, "geometry": { "type": "Point", "coordinates": [ 120.976138149750298, 14.305716194247754 ] } },
{ "type": "Feature", "properties": { "fid": 13, "id": 13, "cluster_id": "169", "column": null, "row": "B" }, "geometry": { "type": "Point", "coordinates": [ 120.976147498380939, 14.305717690028656 ] } },
{ "type": "Feature", "properties": { "fid": 14, "id": 14, "cluster_id": "169", "column": null, "row": "B" }, "geometry": { "type": "Point", "coordinates": [ 120.976156847011566, 14.305717316083431 ] } },
{ "type": "Feature", "properties": { "fid": 15, "id": 15, "cluster_id": "169", "column": null, "row": "B" }, "geometry": { "type": "Point", "coordinates": [ 120.976166569587434, 14.305718437919108 ] } },
{ "type": "Feature", "properties": { "fid": 16, "id": 16, "cluster_id": "169", "column": null, "row": "B" }, "geometry": { "type": "Point", "coordinates": [ 120.976175544272849, 14.305718063973883 ] } },
{ "type": "Feature", "properties": { "fid": 17, "id": 17, "cluster_id": "169", "column": null, "row": "B" }, "geometry": { "type": "Point", "coordinates": [ 120.976184145013036, 14.305719185809558 ] } },
{ "type": "Feature", "properties": { "fid": 18, "id": 18, "cluster_id": "169", "column": null, "row": "B" }, "geometry": { "type": "Point", "coordinates": [ 120.976193493643663, 14.30572068159046 ] } },
{ "type": "Feature", "properties": { "fid": 19, "id": 19, "cluster_id": "169", "column": null, "row": "B" }, "geometry": { "type": "Point", "coordinates": [ 120.976203590164758, 14.305721429480911 ] } },
{ "type": "Feature", "properties": { "fid": 20, "id": 20, "cluster_id": "169", "column": null, "row": "B" }, "geometry": { "type": "Point", "coordinates": [ 120.976213312740612, 14.305721803426136 ] } },
{ "type": "Feature", "properties": { "fid": 21, "id": 21, "cluster_id": "169", "column": null, "row": "B" }, "geometry": { "type": "Point", "coordinates": [ 120.97622303531648, 14.305722925261813 ] } },
{ "type": "Feature", "properties": { "fid": 22, "id": 22, "cluster_id": "169", "column": null, "row": "B" }, "geometry": { "type": "Point", "coordinates": [ 120.976230888166214, 14.305723299207038 ] } },
{ "type": "Feature", "properties": { "fid": 23, "id": 23, "cluster_id": "169", "column": null, "row": "B" }, "geometry": { "type": "Point", "coordinates": [ 120.976239114961174, 14.30572404709749 ] } },
{ "type": "Feature", "properties": { "fid": 24, "id": 24, "cluster_id": "169", "column": null, "row": "B" }, "geometry": { "type": "Point", "coordinates": [ 120.976248463591816, 14.30572479498794 ] } },
{ "type": "Feature", "properties": { "fid": 25, "id": 25, "cluster_id": "169", "column": null, "row": "B" }, "geometry": { "type": "Point", "coordinates": [ 120.976255194605869, 14.305725168933165 ] } },
{ "type": "Feature", "properties": { "fid": 26, "id": 26, "cluster_id": "169", "column": null, "row": "B" }, "geometry": { "type": "Point", "coordinates": [ 120.976263795346057, 14.305725542878392 ] } },
{ "type": "Feature", "properties": { "fid": 27, "id": 27, "cluster_id": "169", "column": null, "row": "B" }, "geometry": { "type": "Point", "coordinates": [ 120.976272022141018, 14.305726290768842 ] } },
{ "type": "Feature", "properties": { "fid": 28, "id": 28, "cluster_id": "169", "column": null, "row": "B" }, "geometry": { "type": "Point", "coordinates": [ 120.976279127100298, 14.305727786549744 ] } },
{ "type": "Feature", "properties": { "fid": 29, "id": 29, "cluster_id": "169", "column": null, "row": "B" }, "geometry": { "type": "Point", "coordinates": [ 120.976288101785713, 14.305727786549744 ] } },
{ "type": "Feature", "properties": { "fid": 30, "id": 30, "cluster_id": "169", "column": null, "row": "B" }, "geometry": { "type": "Point", "coordinates": [ 120.976297076471127, 14.305727038659294 ] } },
{ "type": "Feature", "properties": { "fid": 31, "id": 31, "cluster_id": "169", "column": null, "row": "B" }, "geometry": { "type": "Point", "coordinates": [ 120.976304555375634, 14.305728534440195 ] } },
{ "type": "Feature", "properties": { "fid": 32, "id": 32, "cluster_id": "169", "column": null, "row": "B" }, "geometry": { "type": "Point", "coordinates": [ 120.976311286389688, 14.305729656275872 ] } },
{ "type": "Feature", "properties": { "fid": 33, "id": 33, "cluster_id": "169", "column": null, "row": "B" }, "geometry": { "type": "Point", "coordinates": [ 120.976319139239422, 14.305730030221097 ] } },
{ "type": "Feature", "properties": { "fid": 34, "id": 34, "cluster_id": "169", "column": null, "row": "B" }, "geometry": { "type": "Point", "coordinates": [ 120.97632773997961, 14.305730030221097 ] } }
]
}
