{
"type": "FeatureCollection",
"name": "cltr-id-154-b-row",
"crs": { "type": "name", "properties": { "name": "urn:ogc:def:crs:OGC:1.3:CRS84" } },
"features": [
{ "type": "Feature", "properties": { "fid": 1, "id": 1, "cluster_id": "154", "column": null, "row": "B" }, "geometry": { "type": "Point", "coordinates": [ 120.976013252044908, 14.305934204314209 ] } },
{ "type": "Feature", "properties": { "fid": 2, "id": 2, "cluster_id": "154", "column": null, "row": "B" }, "geometry": { "type": "Point", "coordinates": [ 120.976021585681366, 14.305934204314209 ] } },
{ "type": "Feature", "properties": { "fid": 3, "id": 3, "cluster_id": "154", "column": null, "row": "B" }, "geometry": { "type": "Point", "coordinates": [ 120.97602991931781, 14.30593676851004 ] } },
{ "type": "Feature", "properties": { "fid": 4, "id": 4, "cluster_id": "154", "column": null, "row": "B" }, "geometry": { "type": "Point", "coordinates": [ 120.976039535052195, 14.305937409558998 ] } },
{ "type": "Feature", "properties": { "fid": 5, "id": 5, "cluster_id": "154", "column": null, "row": "B" }, "geometry": { "type": "Point", "coordinates": [ 120.976048509737595, 14.30593676851004 ] } },
{ "type": "Feature", "properties": { "fid": 6, "id": 6, "cluster_id": "154", "column": null, "row": "B" }, "geometry": { "type": "Point", "coordinates": [ 120.976058766520921, 14.305938050607958 ] } },
{ "type": "Feature", "properties": { "fid": 7, "id": 7, "cluster_id": "154", "column": null, "row": "B" }, "geometry": { "type": "Point", "coordinates": [ 120.976075433793838, 14.305939332705874 ] } },
{ "type": "Feature", "properties": { "fid": 8, "id": 8, "cluster_id": "154", "column": null, "row": "B" }, "geometry": { "type": "Point", "coordinates": [ 120.976089536870901, 14.305939973754832 ] } },
{ "type": "Feature", "properties": { "fid": 9, "id": 9, "cluster_id": "154", "column": null, "row": "B" }, "geometry": { "type": "Point", "coordinates": [ 120.976095947360491, 14.305939332705874 ] } },
{ "type": "Feature", "properties": { "fid": 10, "id": 10, "cluster_id": "154", "column": null, "row": "B" }, "geometry": { "type": "Point", "coordinates": [ 120.976102357850067, 14.305939332705874 ] } },
{ "type": "Feature", "properties": { "fid": 11, "id": 11, "cluster_id": "154", "column": null, "row": "B" }, "geometry": { "type": "Point", "coordinates": [ 120.976111332535481, 14.305941896901706 ] } },
{ "type": "Feature", "properties": { "fid": 12, "id": 12, "cluster_id": "154", "column": null, "row": "B" }, "geometry": { "type": "Point", "coordinates": [ 120.976119025122969, 14.305942537950664 ] } },
{ "type": "Feature", "properties": { "fid": 13, "id": 13, "cluster_id": "154", "column": null, "row": "B" }, "geometry": { "type": "Point", "coordinates": [ 120.976131846102135, 14.305945102146495 ] } },
{ "type": "Feature", "properties": { "fid": 14, "id": 14, "cluster_id": "154", "column": null, "row": "B" }, "geometry": { "type": "Point", "coordinates": [ 120.976141461836505, 14.305945102146495 ] } },
{ "type": "Feature", "properties": { "fid": 15, "id": 15, "cluster_id": "154", "column": null, "row": "B" }, "geometry": { "type": "Point", "coordinates": [ 120.976152359668788, 14.305944461097537 ] } },
{ "type": "Feature", "properties": { "fid": 16, "id": 16, "cluster_id": "154", "column": null, "row": "B" }, "geometry": { "type": "Point", "coordinates": [ 120.97615941120732, 14.305945102146495 ] } },
{ "type": "Feature", "properties": { "fid": 17, "id": 17, "cluster_id": "154", "column": null, "row": "B" }, "geometry": { "type": "Point", "coordinates": [ 120.976168385892734, 14.305945743195453 ] } },
{ "type": "Feature", "properties": { "fid": 18, "id": 18, "cluster_id": "154", "column": null, "row": "B" }, "geometry": { "type": "Point", "coordinates": [ 120.976178642676061, 14.305945743195453 ] } },
{ "type": "Feature", "properties": { "fid": 19, "id": 19, "cluster_id": "154", "column": null, "row": "B" }, "geometry": { "type": "Point", "coordinates": [ 120.97618441211668, 14.305947025293369 ] } },
{ "type": "Feature", "properties": { "fid": 20, "id": 20, "cluster_id": "154", "column": null, "row": "B" }, "geometry": { "type": "Point", "coordinates": [ 120.9761901815573, 14.305947025293369 ] } },
{ "type": "Feature", "properties": { "fid": 21, "id": 21, "cluster_id": "154", "column": null, "row": "B" }, "geometry": { "type": "Point", "coordinates": [ 120.976195309948963, 14.305947666342327 ] } },
{ "type": "Feature", "properties": { "fid": 22, "id": 22, "cluster_id": "154", "column": null, "row": "B" }, "geometry": { "type": "Point", "coordinates": [ 120.976203002536465, 14.305947025293369 ] } },
{ "type": "Feature", "properties": { "fid": 23, "id": 23, "cluster_id": "154", "column": null, "row": "B" }, "geometry": { "type": "Point", "coordinates": [ 120.976210695123953, 14.305947025293369 ] } },
{ "type": "Feature", "properties": { "fid": 24, "id": 24, "cluster_id": "154", "column": null, "row": "B" }, "geometry": { "type": "Point", "coordinates": [ 120.976220310858324, 14.305948307391285 ] } },
{ "type": "Feature", "properties": { "fid": 25, "id": 25, "cluster_id": "154", "column": null, "row": "B" }, "geometry": { "type": "Point", "coordinates": [ 120.976229285543738, 14.305948948440243 ] } },
{ "type": "Feature", "properties": { "fid": 26, "id": 26, "cluster_id": "154", "column": null, "row": "B" }, "geometry": { "type": "Point", "coordinates": [ 120.97623697813124, 14.305950230538159 ] } },
{ "type": "Feature", "properties": { "fid": 27, "id": 27, "cluster_id": "154", "column": null, "row": "B" }, "geometry": { "type": "Point", "coordinates": [ 120.976244670718728, 14.305950871587116 ] } },
{ "type": "Feature", "properties": { "fid": 28, "id": 28, "cluster_id": "154", "column": null, "row": "B" }, "geometry": { "type": "Point", "coordinates": [ 120.976254286453099, 14.305950871587116 ] } },
{ "type": "Feature", "properties": { "fid": 29, "id": 29, "cluster_id": "154", "column": null, "row": "B" }, "geometry": { "type": "Point", "coordinates": [ 120.976267107432264, 14.305953435782948 ] } },
{ "type": "Feature", "properties": { "fid": 30, "id": 30, "cluster_id": "154", "column": null, "row": "B" }, "geometry": { "type": "Point", "coordinates": [ 120.97627672316662, 14.305954717880864 ] } },
{ "type": "Feature", "properties": { "fid": 31, "id": 31, "cluster_id": "154", "column": null, "row": "B" }, "geometry": { "type": "Point", "coordinates": [ 120.976288262047888, 14.30595599997878 ] } },
{ "type": "Feature", "properties": { "fid": 32, "id": 32, "cluster_id": "154", "column": null, "row": "B" }, "geometry": { "type": "Point", "coordinates": [ 120.976297877782244, 14.305958564174611 ] } },
{ "type": "Feature", "properties": { "fid": 33, "id": 33, "cluster_id": "154", "column": null, "row": "B" }, "geometry": { "type": "Point", "coordinates": [ 120.976308134565571, 14.305958564174611 ] } },
{ "type": "Feature", "properties": { "fid": 34, "id": 34, "cluster_id": "154", "column": null, "row": "B" }, "geometry": { "type": "Point", "coordinates": [ 120.976317750299941, 14.305956641027738 ] } },
{ "type": "Feature", "properties": { "fid": 35, "id": 35, "cluster_id": "154", "column": null, "row": "B" }, "geometry": { "type": "Point", "coordinates": [ 120.976326724985341, 14.305951512636074 ] } },
{ "type": "Feature", "properties": { "fid": 36, "id": 36, "cluster_id": "154", "column": null, "row": "B" }, "geometry": { "type": "Point", "coordinates": [ 120.976327366034312, 14.305943820048579 ] } }
]
}
