{
"type": "FeatureCollection",
"name": "cltr-id-187-b-row",
"crs": { "type": "name", "properties": { "name": "urn:ogc:def:crs:OGC:1.3:CRS84" } },
"features": [
{ "type": "Feature", "properties": { "fid": 1, "id": 1, "cluster_id": "187", "column": null, "row": "B" }, "geometry": { "type": "Point", "coordinates": [ 120.976583776853346, 14.305683982372315 ] } },
{ "type": "Feature", "properties": { "fid": 2, "id": 2, "cluster_id": "187", "column": null, "row": "B" }, "geometry": { "type": "Point", "coordinates": [ 120.9765843177384, 14.305680331398172 ] } },
{ "type": "Feature", "properties": { "fid": 3, "id": 3, "cluster_id": "187", "column": null, "row": "B" }, "geometry": { "type": "Point", "coordinates": [ 120.976590943580362, 14.305671812458504 ] } },
{ "type": "Feature", "properties": { "fid": 4, "id": 4, "cluster_id": "187", "column": null, "row": "B" }, "geometry": { "type": "Point", "coordinates": [ 120.976593918448188, 14.305672082901033 ] } },
{ "type": "Feature", "properties": { "fid": 5, "id": 5, "cluster_id": "187", "column": null, "row": "B" }, "geometry": { "type": "Point", "coordinates": [ 120.976597163758541, 14.305672353343564 ] } },
{ "type": "Feature", "properties": { "fid": 6, "id": 6, "cluster_id": "187", "column": null, "row": "B" }, "geometry": { "type": "Point", "coordinates": [ 120.976600814732677, 14.305672218122298 ] } },
{ "type": "Feature", "properties": { "fid": 7, "id": 7, "cluster_id": "187", "column": null, "row": "B" }, "geometry": { "type": "Point", "coordinates": [ 120.976604330485557, 14.305672759007356 ] } },
{ "type": "Feature", "properties": { "fid": 8, "id": 8, "cluster_id": "187", "column": null, "row": "B" }, "geometry": { "type": "Point", "coordinates": [ 120.976608387123491, 14.305672894228621 ] } },
{ "type": "Feature", "properties": { "fid": 9, "id": 9, "cluster_id": "187", "column": null, "row": "B" }, "geometry": { "type": "Point", "coordinates": [ 120.976611902876371, 14.305672894228621 ] } },
{ "type": "Feature", "properties": { "fid": 10, "id": 10, "cluster_id": "187", "column": null, "row": "B" }, "geometry": { "type": "Point", "coordinates": [ 120.976615959514305, 14.305673435113679 ] } },
{ "type": "Feature", "properties": { "fid": 11, "id": 11, "cluster_id": "187", "column": null, "row": "B" }, "geometry": { "type": "Point", "coordinates": [ 120.976619069603387, 14.305673975998738 ] } },
{ "type": "Feature", "properties": { "fid": 12, "id": 12, "cluster_id": "187", "column": null, "row": "B" }, "geometry": { "type": "Point", "coordinates": [ 120.976624208011444, 14.305673975998738 ] } },
{ "type": "Feature", "properties": { "fid": 13, "id": 13, "cluster_id": "187", "column": null, "row": "B" }, "geometry": { "type": "Point", "coordinates": [ 120.976627858985594, 14.305674381662531 ] } },
{ "type": "Feature", "properties": { "fid": 14, "id": 14, "cluster_id": "187", "column": null, "row": "B" }, "geometry": { "type": "Point", "coordinates": [ 120.976631645181001, 14.305674787326325 ] } },
{ "type": "Feature", "properties": { "fid": 15, "id": 15, "cluster_id": "187", "column": null, "row": "B" }, "geometry": { "type": "Point", "coordinates": [ 120.976635837040192, 14.305675328211382 ] } },
{ "type": "Feature", "properties": { "fid": 16, "id": 16, "cluster_id": "187", "column": null, "row": "B" }, "geometry": { "type": "Point", "coordinates": [ 120.976639623235599, 14.305675463432648 ] } },
{ "type": "Feature", "properties": { "fid": 17, "id": 17, "cluster_id": "187", "column": null, "row": "B" }, "geometry": { "type": "Point", "coordinates": [ 120.976644355979857, 14.305675598653913 ] } },
{ "type": "Feature", "properties": { "fid": 18, "id": 18, "cluster_id": "187", "column": null, "row": "B" }, "geometry": { "type": "Point", "coordinates": [ 120.97664760129021, 14.305676004317705 ] } },
{ "type": "Feature", "properties": { "fid": 19, "id": 19, "cluster_id": "187", "column": null, "row": "B" }, "geometry": { "type": "Point", "coordinates": [ 120.976650305715509, 14.305676004317705 ] } },
{ "type": "Feature", "properties": { "fid": 20, "id": 20, "cluster_id": "187", "column": null, "row": "B" }, "geometry": { "type": "Point", "coordinates": [ 120.976653280583321, 14.305676274760234 ] } },
{ "type": "Feature", "properties": { "fid": 21, "id": 21, "cluster_id": "187", "column": null, "row": "B" }, "geometry": { "type": "Point", "coordinates": [ 120.97665598500862, 14.305676409981499 ] } },
{ "type": "Feature", "properties": { "fid": 22, "id": 22, "cluster_id": "187", "column": null, "row": "B" }, "geometry": { "type": "Point", "coordinates": [ 120.976658554212648, 14.305676815645294 ] } },
{ "type": "Feature", "properties": { "fid": 23, "id": 23, "cluster_id": "187", "column": null, "row": "B" }, "geometry": { "type": "Point", "coordinates": [ 120.976662069965514, 14.305677086087822 ] } },
{ "type": "Feature", "properties": { "fid": 24, "id": 24, "cluster_id": "187", "column": null, "row": "B" }, "geometry": { "type": "Point", "coordinates": [ 120.976664368727015, 14.305677356530351 ] } },
{ "type": "Feature", "properties": { "fid": 25, "id": 25, "cluster_id": "187", "column": null, "row": "B" }, "geometry": { "type": "Point", "coordinates": [ 120.976666667488516, 14.305677356530351 ] } },
{ "type": "Feature", "properties": { "fid": 26, "id": 26, "cluster_id": "187", "column": null, "row": "B" }, "geometry": { "type": "Point", "coordinates": [ 120.976669777577598, 14.30567762697288 ] } },
{ "type": "Feature", "properties": { "fid": 27, "id": 27, "cluster_id": "187", "column": null, "row": "B" }, "geometry": { "type": "Point", "coordinates": [ 120.976672752445424, 14.30567762697288 ] } },
{ "type": "Feature", "properties": { "fid": 28, "id": 28, "cluster_id": "187", "column": null, "row": "B" }, "geometry": { "type": "Point", "coordinates": [ 120.976674915985654, 14.305678303079203 ] } },
{ "type": "Feature", "properties": { "fid": 29, "id": 29, "cluster_id": "187", "column": null, "row": "B" }, "geometry": { "type": "Point", "coordinates": [ 120.97667775563221, 14.305678167857939 ] } },
{ "type": "Feature", "properties": { "fid": 30, "id": 30, "cluster_id": "187", "column": null, "row": "B" }, "geometry": { "type": "Point", "coordinates": [ 120.976680324836238, 14.305678303079203 ] } },
{ "type": "Feature", "properties": { "fid": 31, "id": 31, "cluster_id": "187", "column": null, "row": "B" }, "geometry": { "type": "Point", "coordinates": [ 120.976682353155198, 14.305678708742997 ] } },
{ "type": "Feature", "properties": { "fid": 32, "id": 32, "cluster_id": "187", "column": null, "row": "B" }, "geometry": { "type": "Point", "coordinates": [ 120.976685057580497, 14.305678979185526 ] } },
{ "type": "Feature", "properties": { "fid": 33, "id": 33, "cluster_id": "187", "column": null, "row": "B" }, "geometry": { "type": "Point", "coordinates": [ 120.976686815456929, 14.305678979185526 ] } },
{ "type": "Feature", "properties": { "fid": 34, "id": 34, "cluster_id": "187", "column": null, "row": "B" }, "geometry": { "type": "Point", "coordinates": [ 120.976689249439701, 14.305678979185526 ] } },
{ "type": "Feature", "properties": { "fid": 35, "id": 35, "cluster_id": "187", "column": null, "row": "B" }, "geometry": { "type": "Point", "coordinates": [ 120.976691412979932, 14.305679114406791 ] } }
]
}
