{
"type": "FeatureCollection",
"name": "cltr-id-154-e-row",
"crs": { "type": "name", "properties": { "name": "urn:ogc:def:crs:OGC:1.3:CRS84" } },
"features": [
{ "type": "Feature", "properties": { "fid": 1, "id": 1, "cluster_id": "154", "column": null, "row": "E" }, "geometry": { "type": "Point", "coordinates": [ 120.976013572569371, 14.305920421761614 ] } },
{ "type": "Feature", "properties": { "fid": 2, "id": 2, "cluster_id": "154", "column": null, "row": "E" }, "geometry": { "type": "Point", "coordinates": [ 120.976025431975089, 14.305920101237136 ] } },
{ "type": "Feature", "properties": { "fid": 3, "id": 3, "cluster_id": "154", "column": null, "row": "E" }, "geometry": { "type": "Point", "coordinates": [ 120.976032804038113, 14.305922985957446 ] } },
{ "type": "Feature", "properties": { "fid": 4, "id": 4, "cluster_id": "154", "column": null, "row": "E" }, "geometry": { "type": "Point", "coordinates": [ 120.976041137674571, 14.305923627006404 ] } },
{ "type": "Feature", "properties": { "fid": 5, "id": 5, "cluster_id": "154", "column": null, "row": "E" }, "geometry": { "type": "Point", "coordinates": [ 120.976051394457897, 14.3059252296288 ] } },
{ "type": "Feature", "properties": { "fid": 6, "id": 6, "cluster_id": "154", "column": null, "row": "E" }, "geometry": { "type": "Point", "coordinates": [ 120.976060369143298, 14.305925550153278 ] } },
{ "type": "Feature", "properties": { "fid": 7, "id": 7, "cluster_id": "154", "column": null, "row": "E" }, "geometry": { "type": "Point", "coordinates": [ 120.976074792744853, 14.305929396447025 ] } },
{ "type": "Feature", "properties": { "fid": 8, "id": 8, "cluster_id": "154", "column": null, "row": "E" }, "geometry": { "type": "Point", "coordinates": [ 120.976086972675063, 14.305929716971505 ] } },
{ "type": "Feature", "properties": { "fid": 9, "id": 9, "cluster_id": "154", "column": null, "row": "E" }, "geometry": { "type": "Point", "coordinates": [ 120.976095306311507, 14.305928434873589 ] } },
{ "type": "Feature", "properties": { "fid": 10, "id": 10, "cluster_id": "154", "column": null, "row": "E" }, "geometry": { "type": "Point", "coordinates": [ 120.976101396276619, 14.305929396447025 ] } },
{ "type": "Feature", "properties": { "fid": 11, "id": 11, "cluster_id": "154", "column": null, "row": "E" }, "geometry": { "type": "Point", "coordinates": [ 120.976109729913063, 14.305931319593901 ] } },
{ "type": "Feature", "properties": { "fid": 12, "id": 12, "cluster_id": "154", "column": null, "row": "E" }, "geometry": { "type": "Point", "coordinates": [ 120.976120948269823, 14.305930678544941 ] } },
{ "type": "Feature", "properties": { "fid": 13, "id": 13, "cluster_id": "154", "column": null, "row": "E" }, "geometry": { "type": "Point", "coordinates": [ 120.976129281906282, 14.305935165887648 ] } },
{ "type": "Feature", "properties": { "fid": 14, "id": 14, "cluster_id": "154", "column": null, "row": "E" }, "geometry": { "type": "Point", "coordinates": [ 120.976140500263043, 14.30593452483869 ] } },
{ "type": "Feature", "properties": { "fid": 15, "id": 15, "cluster_id": "154", "column": null, "row": "E" }, "geometry": { "type": "Point", "coordinates": [ 120.976148513375023, 14.30593452483869 ] } },
{ "type": "Feature", "properties": { "fid": 16, "id": 16, "cluster_id": "154", "column": null, "row": "E" }, "geometry": { "type": "Point", "coordinates": [ 120.976160052256262, 14.305932922216295 ] } },
{ "type": "Feature", "properties": { "fid": 17, "id": 17, "cluster_id": "154", "column": null, "row": "E" }, "geometry": { "type": "Point", "coordinates": [ 120.976168065368242, 14.305935486412126 ] } },
{ "type": "Feature", "properties": { "fid": 18, "id": 18, "cluster_id": "154", "column": null, "row": "E" }, "geometry": { "type": "Point", "coordinates": [ 120.976176078480208, 14.30593452483869 ] } },
{ "type": "Feature", "properties": { "fid": 19, "id": 19, "cluster_id": "154", "column": null, "row": "E" }, "geometry": { "type": "Point", "coordinates": [ 120.976184091592188, 14.305935165887648 ] } },
{ "type": "Feature", "properties": { "fid": 20, "id": 20, "cluster_id": "154", "column": null, "row": "E" }, "geometry": { "type": "Point", "coordinates": [ 120.976190502081764, 14.305935486412126 ] } },
{ "type": "Feature", "properties": { "fid": 21, "id": 21, "cluster_id": "154", "column": null, "row": "E" }, "geometry": { "type": "Point", "coordinates": [ 120.976198194669266, 14.305937089034522 ] } },
{ "type": "Feature", "properties": { "fid": 22, "id": 22, "cluster_id": "154", "column": null, "row": "E" }, "geometry": { "type": "Point", "coordinates": [ 120.976203323060929, 14.305935486412126 ] } },
{ "type": "Feature", "properties": { "fid": 23, "id": 23, "cluster_id": "154", "column": null, "row": "E" }, "geometry": { "type": "Point", "coordinates": [ 120.976210695123939, 14.305935165887648 ] } },
{ "type": "Feature", "properties": { "fid": 24, "id": 24, "cluster_id": "154", "column": null, "row": "E" }, "geometry": { "type": "Point", "coordinates": [ 120.97621614404008, 14.305938371132438 ] } },
{ "type": "Feature", "properties": { "fid": 25, "id": 25, "cluster_id": "154", "column": null, "row": "E" }, "geometry": { "type": "Point", "coordinates": [ 120.976223836627582, 14.305939012181396 ] } },
{ "type": "Feature", "properties": { "fid": 26, "id": 26, "cluster_id": "154", "column": null, "row": "E" }, "geometry": { "type": "Point", "coordinates": [ 120.976233772886431, 14.305940294279312 ] } },
{ "type": "Feature", "properties": { "fid": 27, "id": 27, "cluster_id": "154", "column": null, "row": "E" }, "geometry": { "type": "Point", "coordinates": [ 120.976242427047367, 14.305943499524101 ] } },
{ "type": "Feature", "properties": { "fid": 28, "id": 28, "cluster_id": "154", "column": null, "row": "E" }, "geometry": { "type": "Point", "coordinates": [ 120.976253004355172, 14.305943178999621 ] } },
{ "type": "Feature", "properties": { "fid": 29, "id": 29, "cluster_id": "154", "column": null, "row": "E" }, "geometry": { "type": "Point", "coordinates": [ 120.976266145858801, 14.305945422670975 ] } },
{ "type": "Feature", "properties": { "fid": 30, "id": 30, "cluster_id": "154", "column": null, "row": "E" }, "geometry": { "type": "Point", "coordinates": [ 120.976275120544216, 14.305947345817849 ] } },
{ "type": "Feature", "properties": { "fid": 31, "id": 31, "cluster_id": "154", "column": null, "row": "E" }, "geometry": { "type": "Point", "coordinates": [ 120.976284736278586, 14.305951192111596 ] } },
{ "type": "Feature", "properties": { "fid": 32, "id": 32, "cluster_id": "154", "column": null, "row": "E" }, "geometry": { "type": "Point", "coordinates": [ 120.976294031488479, 14.305951833160554 ] } },
{ "type": "Feature", "properties": { "fid": 33, "id": 33, "cluster_id": "154", "column": null, "row": "E" }, "geometry": { "type": "Point", "coordinates": [ 120.976303647222849, 14.305950871587118 ] } },
{ "type": "Feature", "properties": { "fid": 34, "id": 34, "cluster_id": "154", "column": null, "row": "E" }, "geometry": { "type": "Point", "coordinates": [ 120.976314224530654, 14.305951192111596 ] } },
{ "type": "Feature", "properties": { "fid": 35, "id": 35, "cluster_id": "154", "column": null, "row": "E" }, "geometry": { "type": "Point", "coordinates": [ 120.976321276069186, 14.305947986866807 ] } },
{ "type": "Feature", "properties": { "fid": 36, "id": 36, "cluster_id": "154", "column": null, "row": "E" }, "geometry": { "type": "Point", "coordinates": [ 120.976321917118142, 14.30594093532827 ] } }
]
}
