{
"type": "FeatureCollection",
"name": "cltr-id-186-d-row",
"crs": { "type": "name", "properties": { "name": "urn:ogc:def:crs:OGC:1.3:CRS84" } },
"features": [
{ "type": "Feature", "properties": { "fid": 1, "id": 1, "cluster_id": "186", "column": null, "row": "D" }, "geometry": { "type": "Point", "coordinates": [ 120.976582424640739, 14.305711432289019 ] } },
{ "type": "Feature", "properties": { "fid": 2, "id": 2, "cluster_id": "186", "column": null, "row": "D" }, "geometry": { "type": "Point", "coordinates": [ 120.976586616499944, 14.305711837952813 ] } },
{ "type": "Feature", "properties": { "fid": 3, "id": 3, "cluster_id": "186", "column": null, "row": "D" }, "geometry": { "type": "Point", "coordinates": [ 120.976591349244202, 14.305712108395342 ] } },
{ "type": "Feature", "properties": { "fid": 4, "id": 4, "cluster_id": "186", "column": null, "row": "D" }, "geometry": { "type": "Point", "coordinates": [ 120.976596487652259, 14.305712784501665 ] } },
{ "type": "Feature", "properties": { "fid": 5, "id": 5, "cluster_id": "186", "column": null, "row": "D" }, "geometry": { "type": "Point", "coordinates": [ 120.976600409068922, 14.305713460607986 ] } },
{ "type": "Feature", "properties": { "fid": 6, "id": 6, "cluster_id": "186", "column": null, "row": "D" }, "geometry": { "type": "Point", "coordinates": [ 120.976604600928127, 14.305713460607986 ] } },
{ "type": "Feature", "properties": { "fid": 7, "id": 7, "cluster_id": "186", "column": null, "row": "D" }, "geometry": { "type": "Point", "coordinates": [ 120.976607575795953, 14.305713731050517 ] } },
{ "type": "Feature", "properties": { "fid": 8, "id": 8, "cluster_id": "186", "column": null, "row": "D" }, "geometry": { "type": "Point", "coordinates": [ 120.97661136199136, 14.305714271935575 ] } },
{ "type": "Feature", "properties": { "fid": 9, "id": 9, "cluster_id": "186", "column": null, "row": "D" }, "geometry": { "type": "Point", "coordinates": [ 120.976615148186767, 14.305715488926955 ] } },
{ "type": "Feature", "properties": { "fid": 10, "id": 10, "cluster_id": "186", "column": null, "row": "D" }, "geometry": { "type": "Point", "coordinates": [ 120.976618258275849, 14.305715083263161 ] } },
{ "type": "Feature", "properties": { "fid": 11, "id": 11, "cluster_id": "186", "column": null, "row": "D" }, "geometry": { "type": "Point", "coordinates": [ 120.976621503586202, 14.305715894590749 ] } },
{ "type": "Feature", "properties": { "fid": 12, "id": 12, "cluster_id": "186", "column": null, "row": "D" }, "geometry": { "type": "Point", "coordinates": [ 120.97662474889654, 14.30571562414822 ] } },
{ "type": "Feature", "properties": { "fid": 13, "id": 13, "cluster_id": "186", "column": null, "row": "D" }, "geometry": { "type": "Point", "coordinates": [ 120.976627723764366, 14.305716029812015 ] } },
{ "type": "Feature", "properties": { "fid": 14, "id": 14, "cluster_id": "186", "column": null, "row": "D" }, "geometry": { "type": "Point", "coordinates": [ 120.976630428189665, 14.305716300254543 ] } },
{ "type": "Feature", "properties": { "fid": 15, "id": 15, "cluster_id": "186", "column": null, "row": "D" }, "geometry": { "type": "Point", "coordinates": [ 120.976634214385072, 14.305716570697072 ] } },
{ "type": "Feature", "properties": { "fid": 16, "id": 16, "cluster_id": "186", "column": null, "row": "D" }, "geometry": { "type": "Point", "coordinates": [ 120.976637459695411, 14.305717652467189 ] } },
{ "type": "Feature", "properties": { "fid": 17, "id": 17, "cluster_id": "186", "column": null, "row": "D" }, "geometry": { "type": "Point", "coordinates": [ 120.976640299341966, 14.30571711158213 ] } },
{ "type": "Feature", "properties": { "fid": 18, "id": 18, "cluster_id": "186", "column": null, "row": "D" }, "geometry": { "type": "Point", "coordinates": [ 120.976644491201171, 14.305717382024659 ] } },
{ "type": "Feature", "properties": { "fid": 19, "id": 19, "cluster_id": "186", "column": null, "row": "D" }, "geometry": { "type": "Point", "coordinates": [ 120.976648277396578, 14.305717922909718 ] } },
{ "type": "Feature", "properties": { "fid": 20, "id": 20, "cluster_id": "186", "column": null, "row": "D" }, "geometry": { "type": "Point", "coordinates": [ 120.976651928370728, 14.305717922909718 ] } },
{ "type": "Feature", "properties": { "fid": 21, "id": 21, "cluster_id": "186", "column": null, "row": "D" }, "geometry": { "type": "Point", "coordinates": [ 120.97665503845981, 14.305718193352247 ] } },
{ "type": "Feature", "properties": { "fid": 22, "id": 22, "cluster_id": "186", "column": null, "row": "D" }, "geometry": { "type": "Point", "coordinates": [ 120.976657607663839, 14.305718193352247 ] } },
{ "type": "Feature", "properties": { "fid": 23, "id": 23, "cluster_id": "186", "column": null, "row": "D" }, "geometry": { "type": "Point", "coordinates": [ 120.976660176867867, 14.30571886945857 ] } },
{ "type": "Feature", "properties": { "fid": 24, "id": 24, "cluster_id": "186", "column": null, "row": "D" }, "geometry": { "type": "Point", "coordinates": [ 120.976662746071881, 14.305719004679833 ] } },
{ "type": "Feature", "properties": { "fid": 25, "id": 25, "cluster_id": "186", "column": null, "row": "D" }, "geometry": { "type": "Point", "coordinates": [ 120.97666545049718, 14.305718734237304 ] } },
{ "type": "Feature", "properties": { "fid": 26, "id": 26, "cluster_id": "186", "column": null, "row": "D" }, "geometry": { "type": "Point", "coordinates": [ 120.97666747881614, 14.30571886945857 ] } },
{ "type": "Feature", "properties": { "fid": 27, "id": 27, "cluster_id": "186", "column": null, "row": "D" }, "geometry": { "type": "Point", "coordinates": [ 120.976669777577641, 14.30571886945857 ] } },
{ "type": "Feature", "properties": { "fid": 28, "id": 28, "cluster_id": "186", "column": null, "row": "D" }, "geometry": { "type": "Point", "coordinates": [ 120.976672076339142, 14.305719410343627 ] } },
{ "type": "Feature", "properties": { "fid": 29, "id": 29, "cluster_id": "186", "column": null, "row": "D" }, "geometry": { "type": "Point", "coordinates": [ 120.97667464554317, 14.305719545564893 ] } },
{ "type": "Feature", "properties": { "fid": 30, "id": 30, "cluster_id": "186", "column": null, "row": "D" }, "geometry": { "type": "Point", "coordinates": [ 120.976676403419603, 14.30572008644995 ] } },
{ "type": "Feature", "properties": { "fid": 31, "id": 31, "cluster_id": "186", "column": null, "row": "D" }, "geometry": { "type": "Point", "coordinates": [ 120.976678026074779, 14.305719951228685 ] } },
{ "type": "Feature", "properties": { "fid": 32, "id": 32, "cluster_id": "186", "column": null, "row": "D" }, "geometry": { "type": "Point", "coordinates": [ 120.976680595278808, 14.305720492113744 ] } },
{ "type": "Feature", "properties": { "fid": 33, "id": 33, "cluster_id": "186", "column": null, "row": "D" }, "geometry": { "type": "Point", "coordinates": [ 120.976682488376511, 14.305720897777537 ] } },
{ "type": "Feature", "properties": { "fid": 34, "id": 34, "cluster_id": "186", "column": null, "row": "D" }, "geometry": { "type": "Point", "coordinates": [ 120.976685598465593, 14.305716570697072 ] } },
{ "type": "Feature", "properties": { "fid": 35, "id": 35, "cluster_id": "186", "column": null, "row": "D" }, "geometry": { "type": "Point", "coordinates": [ 120.976686004129391, 14.305712514059135 ] } }
]
}
