{
    "type": "FeatureCollection",
    "name": "cltr-id-157-d-row",
    "crs": {
        "type": "name",
        "properties": { "name": "urn:ogc:def:crs:OGC:1.3:CRS84" }
    },
    "features": [
        {
            "type": "Feature",
            "properties": {
                "fid": 1,
                "id": 1,
                "cluster_id": "157",
                "column": null,
                "row": "D"
            },
            "geometry": {
                "type": "Point",
                "coordinates": [120.976405895416775, 14.305535296094391]
            }
        },
        {
            "type": "Feature",
            "properties": {
                "fid": 2,
                "id": 2,
                "cluster_id": "157",
                "column": null,
                "row": "D"
            },
            "geometry": {
                "type": "Point",
                "coordinates": [120.976407273332853, 14.305527240584997]
            }
        },
        {
            "type": "Feature",
            "properties": {
                "fid": 3,
                "id": 3,
                "cluster_id": "157",
                "column": null,
                "row": "D"
            },
            "geometry": {
                "type": "Point",
                "coordinates": [120.976411937048823, 14.305523000843213]
            }
        },
        {
            "type": "Feature",
            "properties": {
                "fid": 4,
                "id": 4,
                "cluster_id": "157",
                "column": null,
                "row": "D"
            },
            "geometry": {
                "type": "Point",
                "coordinates": [120.976419250603399, 14.305523530810936]
            }
        },
        {
            "type": "Feature",
            "properties": {
                "fid": 5,
                "id": 5,
                "cluster_id": "157",
                "column": null,
                "row": "D"
            },
            "geometry": {
                "type": "Point",
                "coordinates": [120.97642624617734, 14.30552363680448]
            }
        },
        {
            "type": "Feature",
            "properties": {
                "fid": 6,
                "id": 6,
                "cluster_id": "157",
                "column": null,
                "row": "D"
            },
            "geometry": {
                "type": "Point",
                "coordinates": [120.97643546761573, 14.305524272765748]
            }
        },
        {
            "type": "Feature",
            "properties": {
                "fid": 7,
                "id": 7,
                "cluster_id": "157",
                "column": null,
                "row": "D"
            },
            "geometry": {
                "type": "Point",
                "coordinates": [120.976444265079934, 14.305524908727016]
            }
        },
        {
            "type": "Feature",
            "properties": {
                "fid": 8,
                "id": 8,
                "cluster_id": "157",
                "column": null,
                "row": "D"
            },
            "geometry": {
                "type": "Point",
                "coordinates": [120.976454440460216, 14.305525756675372]
            }
        },
        {
            "type": "Feature",
            "properties": {
                "fid": 9,
                "id": 9,
                "cluster_id": "157",
                "column": null,
                "row": "D"
            },
            "geometry": {
                "type": "Point",
                "coordinates": [120.976461118053535, 14.305526710617274]
            }
        },
        {
            "type": "Feature",
            "properties": {
                "fid": 10,
                "id": 10,
                "cluster_id": "157",
                "column": null,
                "row": "D"
            },
            "geometry": {
                "type": "Point",
                "coordinates": [120.976469597537104, 14.305526604623729]
            }
        },
        {
            "type": "Feature",
            "properties": {
                "fid": 11,
                "id": 11,
                "cluster_id": "157",
                "column": null,
                "row": "D"
            },
            "geometry": {
                "type": "Point",
                "coordinates": [120.97647892496903, 14.305527346578542]
            }
        },
        {
            "type": "Feature",
            "properties": {
                "fid": 12,
                "id": 12,
                "cluster_id": "157",
                "column": null,
                "row": "D"
            },
            "geometry": {
                "type": "Point",
                "coordinates": [120.976489418329948, 14.305528194526898]
            }
        },
        {
            "type": "Feature",
            "properties": {
                "fid": 13,
                "id": 13,
                "cluster_id": "157",
                "column": null,
                "row": "D"
            },
            "geometry": {
                "type": "Point",
                "coordinates": [120.976499275729608, 14.305528406513988]
            }
        },
        {
            "type": "Feature",
            "properties": {
                "fid": 14,
                "id": 14,
                "cluster_id": "157",
                "column": null,
                "row": "D"
            },
            "geometry": {
                "type": "Point",
                "coordinates": [120.976508497167984, 14.305529148468802]
            }
        },
        {
            "type": "Feature",
            "properties": {
                "fid": 15,
                "id": 15,
                "cluster_id": "157",
                "column": null,
                "row": "D"
            },
            "geometry": {
                "type": "Point",
                "coordinates": [120.976517082645103, 14.305529042475257]
            }
        }
    ]
}
