{
"type": "FeatureCollection",
"name": "cltr-id-190-a-row",
"crs": { "type": "name", "properties": { "name": "urn:ogc:def:crs:OGC:1.3:CRS84" } },
"features": [
{ "type": "Feature", "properties": { "fid": 1, "id": 1, "cluster_id": "190", "column": null, "row": "A" }, "geometry": { "type": "Point", "coordinates": [ 120.976781335120833, 14.305463166047296 ] } },
{ "type": "Feature", "properties": { "fid": 2, "id": 2, "cluster_id": "190", "column": null, "row": "A" }, "geometry": { "type": "Point", "coordinates": [ 120.976790530166824, 14.305463706932354 ] } },
{ "type": "Feature", "properties": { "fid": 3, "id": 3, "cluster_id": "190", "column": null, "row": "A" }, "geometry": { "type": "Point", "coordinates": [ 120.976796479902461, 14.305464788702471 ] } },
{ "type": "Feature", "properties": { "fid": 4, "id": 4, "cluster_id": "190", "column": null, "row": "A" }, "geometry": { "type": "Point", "coordinates": [ 120.976807838488682, 14.305466411357644 ] } },
{ "type": "Feature", "properties": { "fid": 5, "id": 5, "cluster_id": "190", "column": null, "row": "A" }, "geometry": { "type": "Point", "coordinates": [ 120.976818656189849, 14.305467493127763 ] } },
{ "type": "Feature", "properties": { "fid": 6, "id": 6, "cluster_id": "190", "column": null, "row": "A" }, "geometry": { "type": "Point", "coordinates": [ 120.976826769465731, 14.305469115782936 ] } },
{ "type": "Feature", "properties": { "fid": 7, "id": 7, "cluster_id": "190", "column": null, "row": "A" }, "geometry": { "type": "Point", "coordinates": [ 120.976838128051952, 14.305470197553053 ] } },
{ "type": "Feature", "properties": { "fid": 8, "id": 8, "cluster_id": "190", "column": null, "row": "A" }, "geometry": { "type": "Point", "coordinates": [ 120.976850568408281, 14.30547127932317 ] } },
{ "type": "Feature", "properties": { "fid": 9, "id": 9, "cluster_id": "190", "column": null, "row": "A" }, "geometry": { "type": "Point", "coordinates": [ 120.976861386109434, 14.305472901978343 ] } },
{ "type": "Feature", "properties": { "fid": 10, "id": 10, "cluster_id": "190", "column": null, "row": "A" }, "geometry": { "type": "Point", "coordinates": [ 120.976873285580737, 14.305473442863402 ] } },
{ "type": "Feature", "properties": { "fid": 11, "id": 11, "cluster_id": "190", "column": null, "row": "A" }, "geometry": { "type": "Point", "coordinates": [ 120.976882480626713, 14.305475606403634 ] } },
{ "type": "Feature", "properties": { "fid": 12, "id": 12, "cluster_id": "190", "column": null, "row": "A" }, "geometry": { "type": "Point", "coordinates": [ 120.976894380098003, 14.305476688173751 ] } },
{ "type": "Feature", "properties": { "fid": 13, "id": 13, "cluster_id": "190", "column": null, "row": "A" }, "geometry": { "type": "Point", "coordinates": [ 120.976905738684223, 14.305478851713984 ] } },
{ "type": "Feature", "properties": { "fid": 14, "id": 14, "cluster_id": "190", "column": null, "row": "A" }, "geometry": { "type": "Point", "coordinates": [ 120.976918179040567, 14.305478310828926 ] } },
{ "type": "Feature", "properties": { "fid": 15, "id": 15, "cluster_id": "190", "column": null, "row": "A" }, "geometry": { "type": "Point", "coordinates": [ 120.976928996741719, 14.305478310828926 ] } },
{ "type": "Feature", "properties": { "fid": 16, "id": 16, "cluster_id": "190", "column": null, "row": "A" }, "geometry": { "type": "Point", "coordinates": [ 120.976939814442886, 14.305478851713985 ] } },
{ "type": "Feature", "properties": { "fid": 17, "id": 17, "cluster_id": "190", "column": null, "row": "A" }, "geometry": { "type": "Point", "coordinates": [ 120.976950091259013, 14.30548047436916 ] } },
{ "type": "Feature", "properties": { "fid": 18, "id": 18, "cluster_id": "190", "column": null, "row": "A" }, "geometry": { "type": "Point", "coordinates": [ 120.976958745419921, 14.305481556139275 ] } },
{ "type": "Feature", "properties": { "fid": 19, "id": 19, "cluster_id": "190", "column": null, "row": "A" }, "geometry": { "type": "Point", "coordinates": [ 120.976970104006142, 14.305483719679509 ] } },
{ "type": "Feature", "properties": { "fid": 20, "id": 20, "cluster_id": "190", "column": null, "row": "A" }, "geometry": { "type": "Point", "coordinates": [ 120.976979299052132, 14.305484260564567 ] } },
{ "type": "Feature", "properties": { "fid": 21, "id": 21, "cluster_id": "190", "column": null, "row": "A" }, "geometry": { "type": "Point", "coordinates": [ 120.976988494098123, 14.305485883219742 ] } },
{ "type": "Feature", "properties": { "fid": 22, "id": 22, "cluster_id": "190", "column": null, "row": "A" }, "geometry": { "type": "Point", "coordinates": [ 120.976996607374005, 14.305486964989857 ] } },
{ "type": "Feature", "properties": { "fid": 23, "id": 23, "cluster_id": "190", "column": null, "row": "A" }, "geometry": { "type": "Point", "coordinates": [ 120.97700634330505, 14.305488046759974 ] } },
{ "type": "Feature", "properties": { "fid": 24, "id": 24, "cluster_id": "190", "column": null, "row": "A" }, "geometry": { "type": "Point", "coordinates": [ 120.977017161006216, 14.305489128530091 ] } },
{ "type": "Feature", "properties": { "fid": 25, "id": 25, "cluster_id": "190", "column": null, "row": "A" }, "geometry": { "type": "Point", "coordinates": [ 120.977026356052207, 14.305489128530089 ] } },
{ "type": "Feature", "properties": { "fid": 26, "id": 26, "cluster_id": "190", "column": null, "row": "A" }, "geometry": { "type": "Point", "coordinates": [ 120.977036091983251, 14.305489669415149 ] } },
{ "type": "Feature", "properties": { "fid": 27, "id": 27, "cluster_id": "190", "column": null, "row": "A" }, "geometry": { "type": "Point", "coordinates": [ 120.977043123488997, 14.305490210300206 ] } },
{ "type": "Feature", "properties": { "fid": 28, "id": 28, "cluster_id": "190", "column": null, "row": "A" }, "geometry": { "type": "Point", "coordinates": [ 120.977050695879825, 14.305492914725498 ] } },
{ "type": "Feature", "properties": { "fid": 29, "id": 29, "cluster_id": "190", "column": null, "row": "A" }, "geometry": { "type": "Point", "coordinates": [ 120.977058268270639, 14.305492914725498 ] } },
{ "type": "Feature", "properties": { "fid": 30, "id": 30, "cluster_id": "190", "column": null, "row": "A" }, "geometry": { "type": "Point", "coordinates": [ 120.977067463316629, 14.30549237384044 ] } },
{ "type": "Feature", "properties": { "fid": 31, "id": 31, "cluster_id": "190", "column": null, "row": "A" }, "geometry": { "type": "Point", "coordinates": [ 120.977076117477566, 14.305494537380673 ] } },
{ "type": "Feature", "properties": { "fid": 32, "id": 32, "cluster_id": "190", "column": null, "row": "A" }, "geometry": { "type": "Point", "coordinates": [ 120.977082067213189, 14.305494537380673 ] } },
{ "type": "Feature", "properties": { "fid": 33, "id": 33, "cluster_id": "190", "column": null, "row": "A" }, "geometry": { "type": "Point", "coordinates": [ 120.977090180489071, 14.30549507826573 ] } },
{ "type": "Feature", "properties": { "fid": 34, "id": 34, "cluster_id": "190", "column": null, "row": "A" }, "geometry": { "type": "Point", "coordinates": [ 120.977095589339669, 14.30549507826573 ] } },
{ "type": "Feature", "properties": { "fid": 35, "id": 35, "cluster_id": "190", "column": null, "row": "A" }, "geometry": { "type": "Point", "coordinates": [ 120.977102620845415, 14.305481015254218 ] } },
{ "type": "Feature", "properties": { "fid": 36, "id": 36, "cluster_id": "190", "column": null, "row": "A" }, "geometry": { "type": "Point", "coordinates": [ 120.977103161730469, 14.305471820208227 ] } }
]
}
