{
"type": "FeatureCollection",
"name": "cltr-id-195-c-row",
"crs": { "type": "name", "properties": { "name": "urn:ogc:def:crs:OGC:1.3:CRS84" } },
"features": [
{ "type": "Feature", "properties": { "fid": 1, "id": 1, "cluster_id": "195", "column": null, "row": "C" }, "geometry": { "type": "Point", "coordinates": [ 120.976735495111996, 14.305691149099326 ] } },
{ "type": "Feature", "properties": { "fid": 2, "id": 2, "cluster_id": "195", "column": null, "row": "C" }, "geometry": { "type": "Point", "coordinates": [ 120.976735765554523, 14.305697098834967 ] } },
{ "type": "Feature", "properties": { "fid": 3, "id": 3, "cluster_id": "195", "column": null, "row": "C" }, "geometry": { "type": "Point", "coordinates": [ 120.976743878830391, 14.305697639720025 ] } },
{ "type": "Feature", "properties": { "fid": 4, "id": 4, "cluster_id": "195", "column": null, "row": "C" }, "geometry": { "type": "Point", "coordinates": [ 120.976750369451096, 14.305698991932671 ] } },
{ "type": "Feature", "properties": { "fid": 5, "id": 5, "cluster_id": "195", "column": null, "row": "C" }, "geometry": { "type": "Point", "coordinates": [ 120.976759294054546, 14.305700614587845 ] } },
{ "type": "Feature", "properties": { "fid": 6, "id": 6, "cluster_id": "195", "column": null, "row": "C" }, "geometry": { "type": "Point", "coordinates": [ 120.976768489100536, 14.305701425915434 ] } },
{ "type": "Feature", "properties": { "fid": 7, "id": 7, "cluster_id": "195", "column": null, "row": "C" }, "geometry": { "type": "Point", "coordinates": [ 120.976776602376418, 14.305700885030374 ] } },
{ "type": "Feature", "properties": { "fid": 8, "id": 8, "cluster_id": "195", "column": null, "row": "C" }, "geometry": { "type": "Point", "coordinates": [ 120.976781740784475, 14.305702507685549 ] } },
{ "type": "Feature", "properties": { "fid": 9, "id": 9, "cluster_id": "195", "column": null, "row": "C" }, "geometry": { "type": "Point", "coordinates": [ 120.976789583617816, 14.305703048570608 ] } },
{ "type": "Feature", "properties": { "fid": 10, "id": 10, "cluster_id": "195", "column": null, "row": "C" }, "geometry": { "type": "Point", "coordinates": [ 120.976794722025872, 14.305704671225781 ] } },
{ "type": "Feature", "properties": { "fid": 11, "id": 11, "cluster_id": "195", "column": null, "row": "C" }, "geometry": { "type": "Point", "coordinates": [ 120.976801753531618, 14.305706023438427 ] } },
{ "type": "Feature", "properties": { "fid": 12, "id": 12, "cluster_id": "195", "column": null, "row": "C" }, "geometry": { "type": "Point", "coordinates": [ 120.976811219020135, 14.305706023438427 ] } },
{ "type": "Feature", "properties": { "fid": 13, "id": 13, "cluster_id": "195", "column": null, "row": "C" }, "geometry": { "type": "Point", "coordinates": [ 120.976818791410949, 14.305707646093602 ] } },
{ "type": "Feature", "properties": { "fid": 14, "id": 14, "cluster_id": "195", "column": null, "row": "C" }, "geometry": { "type": "Point", "coordinates": [ 120.976825552474182, 14.305707375651073 ] } },
{ "type": "Feature", "properties": { "fid": 15, "id": 15, "cluster_id": "195", "column": null, "row": "C" }, "geometry": { "type": "Point", "coordinates": [ 120.976833395307523, 14.305707646093602 ] } },
{ "type": "Feature", "properties": { "fid": 16, "id": 16, "cluster_id": "195", "column": null, "row": "C" }, "geometry": { "type": "Point", "coordinates": [ 120.976841779025932, 14.305709809633836 ] } },
{ "type": "Feature", "properties": { "fid": 17, "id": 17, "cluster_id": "195", "column": null, "row": "C" }, "geometry": { "type": "Point", "coordinates": [ 120.976847999204097, 14.305710080076365 ] } },
{ "type": "Feature", "properties": { "fid": 18, "id": 18, "cluster_id": "195", "column": null, "row": "C" }, "geometry": { "type": "Point", "coordinates": [ 120.97686043956044, 14.305712784501655 ] } },
{ "type": "Feature", "properties": { "fid": 19, "id": 19, "cluster_id": "195", "column": null, "row": "C" }, "geometry": { "type": "Point", "coordinates": [ 120.976872068589188, 14.305713325386714 ] } },
{ "type": "Feature", "properties": { "fid": 20, "id": 20, "cluster_id": "195", "column": null, "row": "C" }, "geometry": { "type": "Point", "coordinates": [ 120.976885590715639, 14.305715488926946 ] } },
{ "type": "Feature", "properties": { "fid": 21, "id": 21, "cluster_id": "195", "column": null, "row": "C" }, "geometry": { "type": "Point", "coordinates": [ 120.976896408416806, 14.305716300254534 ] } },
{ "type": "Feature", "properties": { "fid": 22, "id": 22, "cluster_id": "195", "column": null, "row": "C" }, "geometry": { "type": "Point", "coordinates": [ 120.976908848773149, 14.305716570697063 ] } },
{ "type": "Feature", "properties": { "fid": 23, "id": 23, "cluster_id": "195", "column": null, "row": "C" }, "geometry": { "type": "Point", "coordinates": [ 120.976919125589248, 14.305717922909709 ] } },
{ "type": "Feature", "properties": { "fid": 24, "id": 24, "cluster_id": "195", "column": null, "row": "C" }, "geometry": { "type": "Point", "coordinates": [ 120.976924263997304, 14.305718463794767 ] } },
{ "type": "Feature", "properties": { "fid": 25, "id": 25, "cluster_id": "195", "column": null, "row": "C" }, "geometry": { "type": "Point", "coordinates": [ 120.976932918158241, 14.305720086449941 ] } },
{ "type": "Feature", "properties": { "fid": 26, "id": 26, "cluster_id": "195", "column": null, "row": "C" }, "geometry": { "type": "Point", "coordinates": [ 120.976942654089285, 14.305721709105116 ] } },
{ "type": "Feature", "properties": { "fid": 27, "id": 27, "cluster_id": "195", "column": null, "row": "C" }, "geometry": { "type": "Point", "coordinates": [ 120.976955094445628, 14.305723061317762 ] } },
{ "type": "Feature", "properties": { "fid": 28, "id": 28, "cluster_id": "195", "column": null, "row": "C" }, "geometry": { "type": "Point", "coordinates": [ 120.976969968784729, 14.305723061317762 ] } },
{ "type": "Feature", "properties": { "fid": 29, "id": 29, "cluster_id": "195", "column": null, "row": "C" }, "geometry": { "type": "Point", "coordinates": [ 120.976985113566357, 14.305724683972937 ] } },
{ "type": "Feature", "properties": { "fid": 30, "id": 30, "cluster_id": "195", "column": null, "row": "C" }, "geometry": { "type": "Point", "coordinates": [ 120.976999717462931, 14.305727117955698 ] } },
{ "type": "Feature", "properties": { "fid": 31, "id": 31, "cluster_id": "195", "column": null, "row": "C" }, "geometry": { "type": "Point", "coordinates": [ 120.977011616934206, 14.305724683972937 ] } },
{ "type": "Feature", "properties": { "fid": 32, "id": 32, "cluster_id": "195", "column": null, "row": "C" }, "geometry": { "type": "Point", "coordinates": [ 120.9770227050779, 14.305725765743052 ] } },
{ "type": "Feature", "properties": { "fid": 33, "id": 33, "cluster_id": "195", "column": null, "row": "C" }, "geometry": { "type": "Point", "coordinates": [ 120.97703190012389, 14.305724683972937 ] } }
]
}
