{
"type": "FeatureCollection",
"name": "cltr-id-188-c-row",
"crs": { "type": "name", "properties": { "name": "urn:ogc:def:crs:OGC:1.3:CRS84" } },
"features": [
{ "type": "Feature", "properties": { "fid": 1, "id": 1, "cluster_id": "188", "column": null, "row": "C" }, "geometry": { "type": "Point", "coordinates": [ 120.976577421453896, 14.305844625234595 ] } },
{ "type": "Feature", "properties": { "fid": 2, "id": 2, "cluster_id": "188", "column": null, "row": "C" }, "geometry": { "type": "Point", "coordinates": [ 120.976584452959642, 14.305846518332299 ] } },
{ "type": "Feature", "properties": { "fid": 3, "id": 3, "cluster_id": "188", "column": null, "row": "C" }, "geometry": { "type": "Point", "coordinates": [ 120.97659202535047, 14.305846788774829 ] } },
{ "type": "Feature", "properties": { "fid": 4, "id": 4, "cluster_id": "188", "column": null, "row": "C" }, "geometry": { "type": "Point", "coordinates": [ 120.976599327298743, 14.305847870544945 ] } },
{ "type": "Feature", "properties": { "fid": 5, "id": 5, "cluster_id": "188", "column": null, "row": "C" }, "geometry": { "type": "Point", "coordinates": [ 120.976607711017152, 14.305848140987473 ] } },
{ "type": "Feature", "properties": { "fid": 6, "id": 6, "cluster_id": "188", "column": null, "row": "C" }, "geometry": { "type": "Point", "coordinates": [ 120.976615553850493, 14.305850034085177 ] } },
{ "type": "Feature", "properties": { "fid": 7, "id": 7, "cluster_id": "188", "column": null, "row": "C" }, "geometry": { "type": "Point", "coordinates": [ 120.976623126241307, 14.305850034085177 ] } },
{ "type": "Feature", "properties": { "fid": 8, "id": 8, "cluster_id": "188", "column": null, "row": "C" }, "geometry": { "type": "Point", "coordinates": [ 120.976631509959716, 14.305850304527707 ] } },
{ "type": "Feature", "properties": { "fid": 9, "id": 9, "cluster_id": "188", "column": null, "row": "C" }, "geometry": { "type": "Point", "coordinates": [ 120.976638811908003, 14.305851927182882 ] } },
{ "type": "Feature", "properties": { "fid": 10, "id": 10, "cluster_id": "188", "column": null, "row": "C" }, "geometry": { "type": "Point", "coordinates": [ 120.976648547839048, 14.305851656740352 ] } },
{ "type": "Feature", "properties": { "fid": 11, "id": 11, "cluster_id": "188", "column": null, "row": "C" }, "geometry": { "type": "Point", "coordinates": [ 120.976659365540215, 14.305852738510469 ] } },
{ "type": "Feature", "properties": { "fid": 12, "id": 12, "cluster_id": "188", "column": null, "row": "C" }, "geometry": { "type": "Point", "coordinates": [ 120.976669371913786, 14.305853820280586 ] } },
{ "type": "Feature", "properties": { "fid": 13, "id": 13, "cluster_id": "188", "column": null, "row": "C" }, "geometry": { "type": "Point", "coordinates": [ 120.976681000942534, 14.305848411430004 ] } },
{ "type": "Feature", "properties": { "fid": 14, "id": 14, "cluster_id": "188", "column": null, "row": "C" }, "geometry": { "type": "Point", "coordinates": [ 120.976681271385075, 14.305841650366775 ] } }
]
}
