{
    "type": "FeatureCollection",
    "name": "cltr-id-160-b-row",
    "crs": {
        "type": "name",
        "properties": { "name": "urn:ogc:def:crs:OGC:1.3:CRS84" }
    },
    "features": [
        {
            "type": "Feature",
            "properties": {
                "fid": 1,
                "id": 1,
                "cluster_id": "160",
                "column": null,
                "row": "B"
            },
            "geometry": {
                "type": "Point",
                "coordinates": [120.976382152862769, 14.305836847728891]
            }
        },
        {
            "type": "Feature",
            "properties": {
                "fid": 2,
                "id": 2,
                "cluster_id": "160",
                "column": null,
                "row": "B"
            },
            "geometry": {
                "type": "Point",
                "coordinates": [120.976393494172044, 14.305837589683703]
            }
        },
        {
            "type": "Feature",
            "properties": {
                "fid": 3,
                "id": 3,
                "cluster_id": "160",
                "column": null,
                "row": "B"
            },
            "geometry": {
                "type": "Point",
                "coordinates": [120.976404411507147, 14.305838225644971]
            }
        },
        {
            "type": "Feature",
            "properties": {
                "fid": 4,
                "id": 4,
                "cluster_id": "160",
                "column": null,
                "row": "B"
            },
            "geometry": {
                "type": "Point",
                "coordinates": [120.976416706758314, 14.305839391573961]
            }
        },
        {
            "type": "Feature",
            "properties": {
                "fid": 5,
                "id": 5,
                "cluster_id": "160",
                "column": null,
                "row": "B"
            },
            "geometry": {
                "type": "Point",
                "coordinates": [120.976425610216069, 14.305840133528775]
            }
        },
        {
            "type": "Feature",
            "properties": {
                "fid": 6,
                "id": 6,
                "cluster_id": "160",
                "column": null,
                "row": "B"
            },
            "geometry": {
                "type": "Point",
                "coordinates": [120.976433877712552, 14.305840451509409]
            }
        },
        {
            "type": "Feature",
            "properties": {
                "fid": 7,
                "id": 7,
                "cluster_id": "160",
                "column": null,
                "row": "B"
            },
            "geometry": {
                "type": "Point",
                "coordinates": [120.976442145209035, 14.305841087470677]
            }
        },
        {
            "type": "Feature",
            "properties": {
                "fid": 8,
                "id": 8,
                "cluster_id": "160",
                "column": null,
                "row": "B"
            },
            "geometry": {
                "type": "Point",
                "coordinates": [120.97644892879589, 14.305841935419034]
            }
        },
        {
            "type": "Feature",
            "properties": {
                "fid": 9,
                "id": 9,
                "cluster_id": "160",
                "column": null,
                "row": "B"
            },
            "geometry": {
                "type": "Point",
                "coordinates": [120.976458468214915, 14.305842253399668]
            }
        },
        {
            "type": "Feature",
            "properties": {
                "fid": 10,
                "id": 10,
                "cluster_id": "160",
                "column": null,
                "row": "B"
            },
            "geometry": {
                "type": "Point",
                "coordinates": [120.976465887763027, 14.30584299535448]
            }
        },
        {
            "type": "Feature",
            "properties": {
                "fid": 11,
                "id": 11,
                "cluster_id": "160",
                "column": null,
                "row": "B"
            },
            "geometry": {
                "type": "Point",
                "coordinates": [120.976475109201417, 14.305843419328658]
            }
        },
        {
            "type": "Feature",
            "properties": {
                "fid": 12,
                "id": 12,
                "cluster_id": "160",
                "column": null,
                "row": "B"
            },
            "geometry": {
                "type": "Point",
                "coordinates": [120.976483482691449, 14.305844691251194]
            }
        },
        {
            "type": "Feature",
            "properties": {
                "fid": 13,
                "id": 13,
                "cluster_id": "160",
                "column": null,
                "row": "B"
            },
            "geometry": {
                "type": "Point",
                "coordinates": [120.976491114226661, 14.305844903238283]
            }
        },
        {
            "type": "Feature",
            "properties": {
                "fid": 14,
                "id": 14,
                "cluster_id": "160",
                "column": null,
                "row": "B"
            },
            "geometry": {
                "type": "Point",
                "coordinates": [120.976495671949081, 14.305839179586872]
            }
        },
        {
            "type": "Feature",
            "properties": {
                "fid": 15,
                "id": 15,
                "cluster_id": "160",
                "column": null,
                "row": "B"
            },
            "geometry": {
                "type": "Point",
                "coordinates": [120.976496201916802, 14.305831866032293]
            }
        }
    ]
}
