{
"type": "FeatureCollection",
"name": "cltr-id-168-a-row",
"crs": { "type": "name", "properties": { "name": "urn:ogc:def:crs:OGC:1.3:CRS84" } },
"features": [
{ "type": "Feature", "properties": { "fid": 1, "id": 1, "cluster_id": "168", "column": null, "row": "A" }, "geometry": { "type": "Point", "coordinates": [ 120.976027835908781, 14.305740874632635 ] } },
{ "type": "Feature", "properties": { "fid": 2, "id": 2, "cluster_id": "168", "column": null, "row": "A" }, "geometry": { "type": "Point", "coordinates": [ 120.976034940868061, 14.305741622523087 ] } },
{ "type": "Feature", "properties": { "fid": 3, "id": 3, "cluster_id": "168", "column": null, "row": "A" }, "geometry": { "type": "Point", "coordinates": [ 120.976045411334383, 14.305741248577862 ] } },
{ "type": "Feature", "properties": { "fid": 4, "id": 4, "cluster_id": "168", "column": null, "row": "A" }, "geometry": { "type": "Point", "coordinates": [ 120.976053638129343, 14.305742744358763 ] } },
{ "type": "Feature", "properties": { "fid": 5, "id": 5, "cluster_id": "168", "column": null, "row": "A" }, "geometry": { "type": "Point", "coordinates": [ 120.976062238869531, 14.305744240139665 ] } },
{ "type": "Feature", "properties": { "fid": 6, "id": 6, "cluster_id": "168", "column": null, "row": "A" }, "geometry": { "type": "Point", "coordinates": [ 120.976071213554931, 14.305745361975342 ] } },
{ "type": "Feature", "properties": { "fid": 7, "id": 7, "cluster_id": "168", "column": null, "row": "A" }, "geometry": { "type": "Point", "coordinates": [ 120.976080188240346, 14.305744988030115 ] } },
{ "type": "Feature", "properties": { "fid": 8, "id": 8, "cluster_id": "168", "column": null, "row": "A" }, "geometry": { "type": "Point", "coordinates": [ 120.97608916292576, 14.305746109865792 ] } },
{ "type": "Feature", "properties": { "fid": 9, "id": 9, "cluster_id": "168", "column": null, "row": "A" }, "geometry": { "type": "Point", "coordinates": [ 120.976098137611174, 14.305747231701469 ] } },
{ "type": "Feature", "properties": { "fid": 10, "id": 10, "cluster_id": "168", "column": null, "row": "A" }, "geometry": { "type": "Point", "coordinates": [ 120.976107486241801, 14.305747605646694 ] } },
{ "type": "Feature", "properties": { "fid": 11, "id": 11, "cluster_id": "168", "column": null, "row": "A" }, "geometry": { "type": "Point", "coordinates": [ 120.976117208817669, 14.305748353537146 ] } },
{ "type": "Feature", "properties": { "fid": 12, "id": 12, "cluster_id": "168", "column": null, "row": "A" }, "geometry": { "type": "Point", "coordinates": [ 120.976126931393537, 14.305749101427596 ] } },
{ "type": "Feature", "properties": { "fid": 13, "id": 13, "cluster_id": "168", "column": null, "row": "A" }, "geometry": { "type": "Point", "coordinates": [ 120.976136653969391, 14.305750597208498 ] } },
{ "type": "Feature", "properties": { "fid": 14, "id": 14, "cluster_id": "168", "column": null, "row": "A" }, "geometry": { "type": "Point", "coordinates": [ 120.976146376545259, 14.305751345098949 ] } },
{ "type": "Feature", "properties": { "fid": 15, "id": 15, "cluster_id": "168", "column": null, "row": "A" }, "geometry": { "type": "Point", "coordinates": [ 120.976156099121113, 14.305752092989399 ] } },
{ "type": "Feature", "properties": { "fid": 16, "id": 16, "cluster_id": "168", "column": null, "row": "A" }, "geometry": { "type": "Point", "coordinates": [ 120.976166569587434, 14.305752466934626 ] } },
{ "type": "Feature", "properties": { "fid": 17, "id": 17, "cluster_id": "168", "column": null, "row": "A" }, "geometry": { "type": "Point", "coordinates": [ 120.976175918218075, 14.305753588770301 ] } },
{ "type": "Feature", "properties": { "fid": 18, "id": 18, "cluster_id": "168", "column": null, "row": "A" }, "geometry": { "type": "Point", "coordinates": [ 120.976185640793929, 14.305754336660753 ] } },
{ "type": "Feature", "properties": { "fid": 19, "id": 19, "cluster_id": "168", "column": null, "row": "A" }, "geometry": { "type": "Point", "coordinates": [ 120.97619498942457, 14.305755084551203 ] } },
{ "type": "Feature", "properties": { "fid": 20, "id": 20, "cluster_id": "168", "column": null, "row": "A" }, "geometry": { "type": "Point", "coordinates": [ 120.976205085945651, 14.30575620638688 ] } },
{ "type": "Feature", "properties": { "fid": 21, "id": 21, "cluster_id": "168", "column": null, "row": "A" }, "geometry": { "type": "Point", "coordinates": [ 120.976213312740612, 14.305757328222557 ] } },
{ "type": "Feature", "properties": { "fid": 22, "id": 22, "cluster_id": "168", "column": null, "row": "A" }, "geometry": { "type": "Point", "coordinates": [ 120.976221539535572, 14.305757328222557 ] } },
{ "type": "Feature", "properties": { "fid": 23, "id": 23, "cluster_id": "168", "column": null, "row": "A" }, "geometry": { "type": "Point", "coordinates": [ 120.97622901844008, 14.305758824003458 ] } },
{ "type": "Feature", "properties": { "fid": 24, "id": 24, "cluster_id": "168", "column": null, "row": "A" }, "geometry": { "type": "Point", "coordinates": [ 120.976238367070721, 14.305759945839135 ] } },
{ "type": "Feature", "properties": { "fid": 25, "id": 25, "cluster_id": "168", "column": null, "row": "A" }, "geometry": { "type": "Point", "coordinates": [ 120.976245845975228, 14.30575957189391 ] } },
{ "type": "Feature", "properties": { "fid": 26, "id": 26, "cluster_id": "168", "column": null, "row": "A" }, "geometry": { "type": "Point", "coordinates": [ 120.976254072770189, 14.305760693729585 ] } },
{ "type": "Feature", "properties": { "fid": 27, "id": 27, "cluster_id": "168", "column": null, "row": "A" }, "geometry": { "type": "Point", "coordinates": [ 120.976262673510377, 14.305761067674812 ] } },
{ "type": "Feature", "properties": { "fid": 28, "id": 28, "cluster_id": "168", "column": null, "row": "A" }, "geometry": { "type": "Point", "coordinates": [ 120.976269778469657, 14.305761815565262 ] } },
{ "type": "Feature", "properties": { "fid": 29, "id": 29, "cluster_id": "168", "column": null, "row": "A" }, "geometry": { "type": "Point", "coordinates": [ 120.976276509483725, 14.305762937400939 ] } },
{ "type": "Feature", "properties": { "fid": 30, "id": 30, "cluster_id": "168", "column": null, "row": "A" }, "geometry": { "type": "Point", "coordinates": [ 120.976284362333459, 14.305762937400939 ] } },
{ "type": "Feature", "properties": { "fid": 31, "id": 31, "cluster_id": "168", "column": null, "row": "A" }, "geometry": { "type": "Point", "coordinates": [ 120.976290719402286, 14.305763311346164 ] } },
{ "type": "Feature", "properties": { "fid": 32, "id": 32, "cluster_id": "168", "column": null, "row": "A" }, "geometry": { "type": "Point", "coordinates": [ 120.976298198306793, 14.305764059236616 ] } },
{ "type": "Feature", "properties": { "fid": 33, "id": 33, "cluster_id": "168", "column": null, "row": "A" }, "geometry": { "type": "Point", "coordinates": [ 120.976305303266088, 14.305764433181841 ] } },
{ "type": "Feature", "properties": { "fid": 34, "id": 34, "cluster_id": "168", "column": null, "row": "A" }, "geometry": { "type": "Point", "coordinates": [ 120.976313530061049, 14.305765181072291 ] } }
]
}
