{
"type": "FeatureCollection",
"name": "cltr-id-162-b-row",
"crs": { "type": "name", "properties": { "name": "urn:ogc:def:crs:OGC:1.3:CRS84" } },
"features": [
{ "type": "Feature", "properties": { "fid": 1, "id": 1, "cluster_id": "162", "column": null, "row": "B" }, "geometry": { "type": "Point", "coordinates": [ 120.976061194751665, 14.305318865806832 ] } },
{ "type": "Feature", "properties": { "fid": 2, "id": 2, "cluster_id": "162", "column": null, "row": "B" }, "geometry": { "type": "Point", "coordinates": [ 120.976071665217972, 14.305319613697284 ] } },
{ "type": "Feature", "properties": { "fid": 3, "id": 3, "cluster_id": "162", "column": null, "row": "B" }, "geometry": { "type": "Point", "coordinates": [ 120.976082883574733, 14.305321483423411 ] } },
{ "type": "Feature", "properties": { "fid": 4, "id": 4, "cluster_id": "162", "column": null, "row": "B" }, "geometry": { "type": "Point", "coordinates": [ 120.976094101931508, 14.305322605259088 ] } },
{ "type": "Feature", "properties": { "fid": 5, "id": 5, "cluster_id": "162", "column": null, "row": "B" }, "geometry": { "type": "Point", "coordinates": [ 120.976104198452589, 14.305323353149538 ] } },
{ "type": "Feature", "properties": { "fid": 6, "id": 6, "cluster_id": "162", "column": null, "row": "B" }, "geometry": { "type": "Point", "coordinates": [ 120.976113173138003, 14.305324474985214 ] } },
{ "type": "Feature", "properties": { "fid": 7, "id": 7, "cluster_id": "162", "column": null, "row": "B" }, "geometry": { "type": "Point", "coordinates": [ 120.976123643604311, 14.305325970766116 ] } },
{ "type": "Feature", "properties": { "fid": 8, "id": 8, "cluster_id": "162", "column": null, "row": "B" }, "geometry": { "type": "Point", "coordinates": [ 120.976131122508832, 14.305326718656568 ] } },
{ "type": "Feature", "properties": { "fid": 9, "id": 9, "cluster_id": "162", "column": null, "row": "B" }, "geometry": { "type": "Point", "coordinates": [ 120.976140845084686, 14.305327092601793 ] } },
{ "type": "Feature", "properties": { "fid": 10, "id": 10, "cluster_id": "162", "column": null, "row": "B" }, "geometry": { "type": "Point", "coordinates": [ 120.976149445824873, 14.305327840492245 ] } },
{ "type": "Feature", "properties": { "fid": 11, "id": 11, "cluster_id": "162", "column": null, "row": "B" }, "geometry": { "type": "Point", "coordinates": [ 120.976157298674607, 14.305328588382695 ] } },
{ "type": "Feature", "properties": { "fid": 12, "id": 12, "cluster_id": "162", "column": null, "row": "B" }, "geometry": { "type": "Point", "coordinates": [ 120.976164403633888, 14.305328588382695 ] } },
{ "type": "Feature", "properties": { "fid": 13, "id": 13, "cluster_id": "162", "column": null, "row": "B" }, "geometry": { "type": "Point", "coordinates": [ 120.976172256483622, 14.305329710218372 ] } },
{ "type": "Feature", "properties": { "fid": 14, "id": 14, "cluster_id": "162", "column": null, "row": "B" }, "geometry": { "type": "Point", "coordinates": [ 120.976178613552463, 14.305330084163597 ] } },
{ "type": "Feature", "properties": { "fid": 15, "id": 15, "cluster_id": "162", "column": null, "row": "B" }, "geometry": { "type": "Point", "coordinates": [ 120.97618609245697, 14.305330832054048 ] } },
{ "type": "Feature", "properties": { "fid": 16, "id": 16, "cluster_id": "162", "column": null, "row": "B" }, "geometry": { "type": "Point", "coordinates": [ 120.976194319251931, 14.305331205999273 ] } },
{ "type": "Feature", "properties": { "fid": 17, "id": 17, "cluster_id": "162", "column": null, "row": "B" }, "geometry": { "type": "Point", "coordinates": [ 120.976202172101665, 14.305331205999273 ] } },
{ "type": "Feature", "properties": { "fid": 18, "id": 18, "cluster_id": "162", "column": null, "row": "B" }, "geometry": { "type": "Point", "coordinates": [ 120.976209651006172, 14.305333823615852 ] } },
{ "type": "Feature", "properties": { "fid": 19, "id": 19, "cluster_id": "162", "column": null, "row": "B" }, "geometry": { "type": "Point", "coordinates": [ 120.97621825174636, 14.305334197561077 ] } },
{ "type": "Feature", "properties": { "fid": 20, "id": 20, "cluster_id": "162", "column": null, "row": "B" }, "geometry": { "type": "Point", "coordinates": [ 120.976226852486548, 14.305335319396754 ] } },
{ "type": "Feature", "properties": { "fid": 21, "id": 21, "cluster_id": "162", "column": null, "row": "B" }, "geometry": { "type": "Point", "coordinates": [ 120.976236201117189, 14.305336441232431 ] } },
{ "type": "Feature", "properties": { "fid": 22, "id": 22, "cluster_id": "162", "column": null, "row": "B" }, "geometry": { "type": "Point", "coordinates": [ 120.976245175802589, 14.305336067287204 ] } },
{ "type": "Feature", "properties": { "fid": 23, "id": 23, "cluster_id": "162", "column": null, "row": "B" }, "geometry": { "type": "Point", "coordinates": [ 120.976252280761884, 14.305337563068106 ] } },
{ "type": "Feature", "properties": { "fid": 24, "id": 24, "cluster_id": "162", "column": null, "row": "B" }, "geometry": { "type": "Point", "coordinates": [ 120.976259759666391, 14.305337937013332 ] } },
{ "type": "Feature", "properties": { "fid": 25, "id": 25, "cluster_id": "162", "column": null, "row": "B" }, "geometry": { "type": "Point", "coordinates": [ 120.976268734351805, 14.305337563068106 ] } },
{ "type": "Feature", "properties": { "fid": 26, "id": 26, "cluster_id": "162", "column": null, "row": "B" }, "geometry": { "type": "Point", "coordinates": [ 120.976276587201539, 14.305339058849007 ] } },
{ "type": "Feature", "properties": { "fid": 27, "id": 27, "cluster_id": "162", "column": null, "row": "B" }, "geometry": { "type": "Point", "coordinates": [ 120.97628668372262, 14.305339432794234 ] } },
{ "type": "Feature", "properties": { "fid": 28, "id": 28, "cluster_id": "162", "column": null, "row": "B" }, "geometry": { "type": "Point", "coordinates": [ 120.976295284462807, 14.305340554629911 ] } },
{ "type": "Feature", "properties": { "fid": 29, "id": 29, "cluster_id": "162", "column": null, "row": "B" }, "geometry": { "type": "Point", "coordinates": [ 120.976304259148222, 14.305340554629911 ] } },
{ "type": "Feature", "properties": { "fid": 30, "id": 30, "cluster_id": "162", "column": null, "row": "B" }, "geometry": { "type": "Point", "coordinates": [ 120.976312485943183, 14.305342424356038 ] } },
{ "type": "Feature", "properties": { "fid": 31, "id": 31, "cluster_id": "162", "column": null, "row": "B" }, "geometry": { "type": "Point", "coordinates": [ 120.976320338792917, 14.305342798301263 ] } },
{ "type": "Feature", "properties": { "fid": 32, "id": 32, "cluster_id": "162", "column": null, "row": "B" }, "geometry": { "type": "Point", "coordinates": [ 120.97632706980697, 14.305343172246488 ] } },
{ "type": "Feature", "properties": { "fid": 33, "id": 33, "cluster_id": "162", "column": null, "row": "B" }, "geometry": { "type": "Point", "coordinates": [ 120.976335670547158, 14.30534392013694 ] } },
{ "type": "Feature", "properties": { "fid": 34, "id": 34, "cluster_id": "162", "column": null, "row": "B" }, "geometry": { "type": "Point", "coordinates": [ 120.976345767068253, 14.305344668027391 ] } }
]
}
