{
"type": "FeatureCollection",
"name": "cltr-id-197-e-row",
"crs": { "type": "name", "properties": { "name": "urn:ogc:def:crs:OGC:1.3:CRS84" } },
"features": [
{ "type": "Feature", "properties": { "fid": 1, "id": 1, "cluster_id": "197", "column": null, "row": "E" }, "geometry": { "type": "Point", "coordinates": [ 120.976711696169474, 14.305830562223086 ] } },
{ "type": "Feature", "properties": { "fid": 2, "id": 2, "cluster_id": "197", "column": null, "row": "E" }, "geometry": { "type": "Point", "coordinates": [ 120.976713994930975, 14.305824477266182 ] } },
{ "type": "Feature", "properties": { "fid": 3, "id": 3, "cluster_id": "197", "column": null, "row": "E" }, "geometry": { "type": "Point", "coordinates": [ 120.976717375462584, 14.305820420628244 ] } },
{ "type": "Feature", "properties": { "fid": 4, "id": 4, "cluster_id": "197", "column": null, "row": "E" }, "geometry": { "type": "Point", "coordinates": [ 120.976724406968344, 14.305819609300658 ] } },
{ "type": "Feature", "properties": { "fid": 5, "id": 5, "cluster_id": "197", "column": null, "row": "E" }, "geometry": { "type": "Point", "coordinates": [ 120.976737929094796, 14.305819338858129 ] } },
{ "type": "Feature", "properties": { "fid": 6, "id": 6, "cluster_id": "197", "column": null, "row": "E" }, "geometry": { "type": "Point", "coordinates": [ 120.976750910336193, 14.305820420628244 ] } },
{ "type": "Feature", "properties": { "fid": 7, "id": 7, "cluster_id": "197", "column": null, "row": "E" }, "geometry": { "type": "Point", "coordinates": [ 120.976761998479887, 14.305820826292038 ] } },
{ "type": "Feature", "properties": { "fid": 8, "id": 8, "cluster_id": "197", "column": null, "row": "E" }, "geometry": { "type": "Point", "coordinates": [ 120.97677078786208, 14.305821096734567 ] } },
{ "type": "Feature", "properties": { "fid": 9, "id": 9, "cluster_id": "197", "column": null, "row": "E" }, "geometry": { "type": "Point", "coordinates": [ 120.976778495474164, 14.305821231955832 ] } },
{ "type": "Feature", "properties": { "fid": 10, "id": 10, "cluster_id": "197", "column": null, "row": "E" }, "geometry": { "type": "Point", "coordinates": [ 120.976786743971303, 14.305822448947213 ] } },
{ "type": "Feature", "properties": { "fid": 11, "id": 11, "cluster_id": "197", "column": null, "row": "E" }, "geometry": { "type": "Point", "coordinates": [ 120.976798373000051, 14.305823665938593 ] } },
{ "type": "Feature", "properties": { "fid": 12, "id": 12, "cluster_id": "197", "column": null, "row": "E" }, "geometry": { "type": "Point", "coordinates": [ 120.976808108931095, 14.305824882929976 ] } },
{ "type": "Feature", "properties": { "fid": 13, "id": 13, "cluster_id": "197", "column": null, "row": "E" }, "geometry": { "type": "Point", "coordinates": [ 120.976817709640883, 14.305825829478827 ] } },
{ "type": "Feature", "properties": { "fid": 14, "id": 14, "cluster_id": "197", "column": null, "row": "E" }, "geometry": { "type": "Point", "coordinates": [ 120.97682636380182, 14.305825829478827 ] } },
{ "type": "Feature", "properties": { "fid": 15, "id": 15, "cluster_id": "197", "column": null, "row": "E" }, "geometry": { "type": "Point", "coordinates": [ 120.97683555884781, 14.305827452134002 ] } },
{ "type": "Feature", "properties": { "fid": 16, "id": 16, "cluster_id": "197", "column": null, "row": "E" }, "geometry": { "type": "Point", "coordinates": [ 120.976845700442652, 14.305827857797794 ] } },
{ "type": "Feature", "properties": { "fid": 17, "id": 17, "cluster_id": "197", "column": null, "row": "E" }, "geometry": { "type": "Point", "coordinates": [ 120.976855436373697, 14.305829345231706 ] } },
{ "type": "Feature", "properties": { "fid": 18, "id": 18, "cluster_id": "197", "column": null, "row": "E" }, "geometry": { "type": "Point", "coordinates": [ 120.976866118853593, 14.305830021338029 ] } },
{ "type": "Feature", "properties": { "fid": 19, "id": 19, "cluster_id": "197", "column": null, "row": "E" }, "geometry": { "type": "Point", "coordinates": [ 120.976875043457056, 14.305830156559292 ] } },
{ "type": "Feature", "properties": { "fid": 20, "id": 20, "cluster_id": "197", "column": null, "row": "E" }, "geometry": { "type": "Point", "coordinates": [ 120.976883156732924, 14.305831508771938 ] } },
{ "type": "Feature", "properties": { "fid": 21, "id": 21, "cluster_id": "197", "column": null, "row": "E" }, "geometry": { "type": "Point", "coordinates": [ 120.97689099956628, 14.305830697444351 ] } },
{ "type": "Feature", "properties": { "fid": 22, "id": 22, "cluster_id": "197", "column": null, "row": "E" }, "geometry": { "type": "Point", "coordinates": [ 120.976900735497324, 14.305833942754701 ] } },
{ "type": "Feature", "properties": { "fid": 23, "id": 23, "cluster_id": null, "column": null, "row": null }, "geometry": { "type": "Point", "coordinates": [ 120.97691020098587, 14.305835430188617 ] } },
{ "type": "Feature", "properties": { "fid": 24, "id": 24, "cluster_id": null, "column": null, "row": null }, "geometry": { "type": "Point", "coordinates": [ 120.976920883465766, 14.305836241516204 ] } },
{ "type": "Feature", "properties": { "fid": 25, "id": 25, "cluster_id": null, "column": null, "row": null }, "geometry": { "type": "Point", "coordinates": [ 120.976930889839338, 14.305835971073675 ] } },
{ "type": "Feature", "properties": { "fid": 26, "id": 26, "cluster_id": null, "column": null, "row": null }, "geometry": { "type": "Point", "coordinates": [ 120.976940355327855, 14.305837728950115 ] } },
{ "type": "Feature", "properties": { "fid": 27, "id": 27, "cluster_id": null, "column": null, "row": null }, "geometry": { "type": "Point", "coordinates": [ 120.976951173029022, 14.305839081162761 ] } },
{ "type": "Feature", "properties": { "fid": 28, "id": 28, "cluster_id": null, "column": null, "row": null }, "geometry": { "type": "Point", "coordinates": [ 120.976960097632485, 14.305838945941495 ] } },
{ "type": "Feature", "properties": { "fid": 29, "id": 29, "cluster_id": null, "column": null, "row": null }, "geometry": { "type": "Point", "coordinates": [ 120.97696780524457, 14.305839486826553 ] } },
{ "type": "Feature", "properties": { "fid": 30, "id": 30, "cluster_id": null, "column": null, "row": null }, "geometry": { "type": "Point", "coordinates": [ 120.976975918520438, 14.305841244702993 ] } },
{ "type": "Feature", "properties": { "fid": 31, "id": 31, "cluster_id": null, "column": null, "row": null }, "geometry": { "type": "Point", "coordinates": [ 120.976983490911252, 14.305842461694374 ] } },
{ "type": "Feature", "properties": { "fid": 32, "id": 32, "cluster_id": null, "column": null, "row": null }, "geometry": { "type": "Point", "coordinates": [ 120.976992145072188, 14.305841785588051 ] } },
{ "type": "Feature", "properties": { "fid": 33, "id": 33, "cluster_id": null, "column": null, "row": null }, "geometry": { "type": "Point", "coordinates": [ 120.976997553922772, 14.305843002579433 ] } },
{ "type": "Feature", "properties": { "fid": 34, "id": 34, "cluster_id": null, "column": null, "row": null }, "geometry": { "type": "Point", "coordinates": [ 120.97700228666703, 14.305844354792077 ] } },
{ "type": "Feature", "properties": { "fid": 35, "id": 35, "cluster_id": null, "column": null, "row": null }, "geometry": { "type": "Point", "coordinates": [ 120.977007425075072, 14.305844354792077 ] } }
]
}
