{
"type": "FeatureCollection",
"name": "cltr-id-150-e-row",
"crs": { "type": "name", "properties": { "name": "urn:ogc:def:crs:OGC:1.3:CRS84" } },
"features": [
{ "type": "Feature", "properties": { "fid": 1, "id": 1, "cluster_id": "150", "column": null, "row": "E" }, "geometry": { "type": "Point", "coordinates": [ 120.976036851142553, 14.305665239329976 ] } },
{ "type": "Feature", "properties": { "fid": 2, "id": 2, "cluster_id": "150", "column": null, "row": "E" }, "geometry": { "type": "Point", "coordinates": [ 120.976046386745807, 14.305666922083489 ] } },
{ "type": "Feature", "properties": { "fid": 3, "id": 3, "cluster_id": "150", "column": null, "row": "E" }, "geometry": { "type": "Point", "coordinates": [ 120.976057605102568, 14.305668043919166 ] } },
{ "type": "Feature", "properties": { "fid": 4, "id": 4, "cluster_id": "150", "column": null, "row": "E" }, "geometry": { "type": "Point", "coordinates": [ 120.976068262541489, 14.305669726672681 ] } },
{ "type": "Feature", "properties": { "fid": 5, "id": 5, "cluster_id": "150", "column": null, "row": "E" }, "geometry": { "type": "Point", "coordinates": [ 120.976079480898264, 14.305668604837004 ] } },
{ "type": "Feature", "properties": { "fid": 6, "id": 6, "cluster_id": "150", "column": null, "row": "E" }, "geometry": { "type": "Point", "coordinates": [ 120.976091821090705, 14.305669726672681 ] } },
{ "type": "Feature", "properties": { "fid": 7, "id": 7, "cluster_id": "150", "column": null, "row": "E" }, "geometry": { "type": "Point", "coordinates": [ 120.976100234858279, 14.305672531261871 ] } },
{ "type": "Feature", "properties": { "fid": 8, "id": 8, "cluster_id": "150", "column": null, "row": "E" }, "geometry": { "type": "Point", "coordinates": [ 120.976113135968546, 14.305671970344033 ] } },
{ "type": "Feature", "properties": { "fid": 9, "id": 9, "cluster_id": "150", "column": null, "row": "E" }, "geometry": { "type": "Point", "coordinates": [ 120.976120427900455, 14.305673653097548 ] } },
{ "type": "Feature", "properties": { "fid": 10, "id": 10, "cluster_id": "150", "column": null, "row": "E" }, "geometry": { "type": "Point", "coordinates": [ 120.976130524421535, 14.305674214015387 ] } },
{ "type": "Feature", "properties": { "fid": 11, "id": 11, "cluster_id": "150", "column": null, "row": "E" }, "geometry": { "type": "Point", "coordinates": [ 120.976139499106949, 14.305674214015387 ] } },
{ "type": "Feature", "properties": { "fid": 12, "id": 12, "cluster_id": "150", "column": null, "row": "E" }, "geometry": { "type": "Point", "coordinates": [ 120.97615127838155, 14.305675896768902 ] } },
{ "type": "Feature", "properties": { "fid": 13, "id": 13, "cluster_id": "150", "column": null, "row": "E" }, "geometry": { "type": "Point", "coordinates": [ 120.976159131231285, 14.30567926227593 ] } },
{ "type": "Feature", "properties": { "fid": 14, "id": 14, "cluster_id": "150", "column": null, "row": "E" }, "geometry": { "type": "Point", "coordinates": [ 120.976169227752379, 14.305676457686738 ] } },
{ "type": "Feature", "properties": { "fid": 15, "id": 15, "cluster_id": "150", "column": null, "row": "E" }, "geometry": { "type": "Point", "coordinates": [ 120.976178202437779, 14.305677579522415 ] } },
{ "type": "Feature", "properties": { "fid": 16, "id": 16, "cluster_id": "150", "column": null, "row": "E" }, "geometry": { "type": "Point", "coordinates": [ 120.976188298958874, 14.305679823193769 ] } },
{ "type": "Feature", "properties": { "fid": 17, "id": 17, "cluster_id": "150", "column": null, "row": "E" }, "geometry": { "type": "Point", "coordinates": [ 120.976197273644289, 14.305678701358092 ] } },
{ "type": "Feature", "properties": { "fid": 18, "id": 18, "cluster_id": "150", "column": null, "row": "E" }, "geometry": { "type": "Point", "coordinates": [ 120.976208492001049, 14.305678701358092 ] } },
{ "type": "Feature", "properties": { "fid": 19, "id": 19, "cluster_id": "150", "column": null, "row": "E" }, "geometry": { "type": "Point", "coordinates": [ 120.976217466686464, 14.305684310536474 ] } },
{ "type": "Feature", "properties": { "fid": 20, "id": 20, "cluster_id": "150", "column": null, "row": "E" }, "geometry": { "type": "Point", "coordinates": [ 120.976228124125385, 14.305681505947282 ] } },
{ "type": "Feature", "properties": { "fid": 21, "id": 21, "cluster_id": "150", "column": null, "row": "E" }, "geometry": { "type": "Point", "coordinates": [ 120.976237098810799, 14.305682627782959 ] } },
{ "type": "Feature", "properties": { "fid": 22, "id": 22, "cluster_id": "150", "column": null, "row": "E" }, "geometry": { "type": "Point", "coordinates": [ 120.976246073496213, 14.305683749618636 ] } },
{ "type": "Feature", "properties": { "fid": 23, "id": 23, "cluster_id": "150", "column": null, "row": "E" }, "geometry": { "type": "Point", "coordinates": [ 120.976255048181613, 14.305682066865121 ] } },
{ "type": "Feature", "properties": { "fid": 24, "id": 24, "cluster_id": "150", "column": null, "row": "E" }, "geometry": { "type": "Point", "coordinates": [ 120.976263461949188, 14.305683749618636 ] } },
{ "type": "Feature", "properties": { "fid": 25, "id": 25, "cluster_id": "150", "column": null, "row": "E" }, "geometry": { "type": "Point", "coordinates": [ 120.976272436634602, 14.305683188700797 ] } },
{ "type": "Feature", "properties": { "fid": 26, "id": 26, "cluster_id": "150", "column": null, "row": "E" }, "geometry": { "type": "Point", "coordinates": [ 120.976280289484336, 14.305684310536474 ] } },
{ "type": "Feature", "properties": { "fid": 27, "id": 27, "cluster_id": "150", "column": null, "row": "E" }, "geometry": { "type": "Point", "coordinates": [ 120.976290386005431, 14.305682627782959 ] } },
{ "type": "Feature", "properties": { "fid": 28, "id": 28, "cluster_id": "150", "column": null, "row": "E" }, "geometry": { "type": "Point", "coordinates": [ 120.976301043444352, 14.305685432372151 ] } },
{ "type": "Feature", "properties": { "fid": 29, "id": 29, "cluster_id": "150", "column": null, "row": "E" }, "geometry": { "type": "Point", "coordinates": [ 120.976309457211926, 14.305688236961341 ] } },
{ "type": "Feature", "properties": { "fid": 30, "id": 30, "cluster_id": "150", "column": null, "row": "E" }, "geometry": { "type": "Point", "coordinates": [ 120.976315627308153, 14.305690480632695 ] } },
{ "type": "Feature", "properties": { "fid": 31, "id": 31, "cluster_id": "150", "column": null, "row": "E" }, "geometry": { "type": "Point", "coordinates": [ 120.976323480157888, 14.305687115125664 ] } },
{ "type": "Feature", "properties": { "fid": 32, "id": 32, "cluster_id": "150", "column": null, "row": "E" }, "geometry": { "type": "Point", "coordinates": [ 120.976332454843288, 14.305689358797018 ] } },
{ "type": "Feature", "properties": { "fid": 33, "id": 33, "cluster_id": "150", "column": null, "row": "E" }, "geometry": { "type": "Point", "coordinates": [ 120.976339185857356, 14.305692724304047 ] } },
{ "type": "Feature", "properties": { "fid": 34, "id": 34, "cluster_id": "150", "column": null, "row": "E" }, "geometry": { "type": "Point", "coordinates": [ 120.976346477789249, 14.305693846139723 ] } },
{ "type": "Feature", "properties": { "fid": 35, "id": 35, "cluster_id": "150", "column": null, "row": "E" }, "geometry": { "type": "Point", "coordinates": [ 120.976346477789249, 14.305689358797018 ] } },
{ "type": "Feature", "properties": { "fid": 36, "id": 36, "cluster_id": "150", "column": null, "row": "E" }, "geometry": { "type": "Point", "coordinates": [ 120.97634759962493, 14.305682627782959 ] } }
]
}
