{
"type": "FeatureCollection",
"name": "cltr-id-149-a-row",
"crs": { "type": "name", "properties": { "name": "urn:ogc:def:crs:OGC:1.3:CRS84" } },
"features": [
{ "type": "Feature", "properties": { "fid": 1, "id": 1, "cluster_id": "149", "column": null, "row": "A" }, "geometry": { "type": "Point", "coordinates": [ 120.976040814736848, 14.305508829981374 ] } },
{ "type": "Feature", "properties": { "fid": 2, "id": 2, "cluster_id": "149", "column": null, "row": "A" }, "geometry": { "type": "Point", "coordinates": [ 120.976041375654688, 14.305500977131638 ] } },
{ "type": "Feature", "properties": { "fid": 3, "id": 3, "cluster_id": "149", "column": null, "row": "A" }, "geometry": { "type": "Point", "coordinates": [ 120.976055959518504, 14.305494246117577 ] } },
{ "type": "Feature", "properties": { "fid": 4, "id": 4, "cluster_id": "149", "column": null, "row": "A" }, "geometry": { "type": "Point", "coordinates": [ 120.976068673656172, 14.305495367953254 ] } },
{ "type": "Feature", "properties": { "fid": 5, "id": 5, "cluster_id": "149", "column": null, "row": "A" }, "geometry": { "type": "Point", "coordinates": [ 120.97608138779384, 14.305496115843704 ] } },
{ "type": "Feature", "properties": { "fid": 6, "id": 6, "cluster_id": "149", "column": null, "row": "A" }, "geometry": { "type": "Point", "coordinates": [ 120.976094475876735, 14.305496863734156 ] } },
{ "type": "Feature", "properties": { "fid": 7, "id": 7, "cluster_id": "149", "column": null, "row": "A" }, "geometry": { "type": "Point", "coordinates": [ 120.976104946343042, 14.305497237679381 ] } },
{ "type": "Feature", "properties": { "fid": 8, "id": 8, "cluster_id": "149", "column": null, "row": "A" }, "geometry": { "type": "Point", "coordinates": [ 120.976115416809364, 14.305497985569833 ] } },
{ "type": "Feature", "properties": { "fid": 9, "id": 9, "cluster_id": "149", "column": null, "row": "A" }, "geometry": { "type": "Point", "coordinates": [ 120.976123643604325, 14.305499107405508 ] } },
{ "type": "Feature", "properties": { "fid": 10, "id": 10, "cluster_id": "149", "column": null, "row": "A" }, "geometry": { "type": "Point", "coordinates": [ 120.976134114070632, 14.305499107405508 ] } },
{ "type": "Feature", "properties": { "fid": 11, "id": 11, "cluster_id": "149", "column": null, "row": "A" }, "geometry": { "type": "Point", "coordinates": [ 120.976144210591727, 14.305499481350735 ] } },
{ "type": "Feature", "properties": { "fid": 12, "id": 12, "cluster_id": "149", "column": null, "row": "A" }, "geometry": { "type": "Point", "coordinates": [ 120.976154307112807, 14.305500977131636 ] } },
{ "type": "Feature", "properties": { "fid": 13, "id": 13, "cluster_id": "149", "column": null, "row": "A" }, "geometry": { "type": "Point", "coordinates": [ 120.976163655743449, 14.305501351076861 ] } },
{ "type": "Feature", "properties": { "fid": 14, "id": 14, "cluster_id": "149", "column": null, "row": "A" }, "geometry": { "type": "Point", "coordinates": [ 120.976174126209756, 14.305502098967311 ] } },
{ "type": "Feature", "properties": { "fid": 15, "id": 15, "cluster_id": "149", "column": null, "row": "A" }, "geometry": { "type": "Point", "coordinates": [ 120.97618310089517, 14.305502846857763 ] } },
{ "type": "Feature", "properties": { "fid": 16, "id": 16, "cluster_id": "149", "column": null, "row": "A" }, "geometry": { "type": "Point", "coordinates": [ 120.976192449525811, 14.305503220802988 ] } },
{ "type": "Feature", "properties": { "fid": 17, "id": 17, "cluster_id": "149", "column": null, "row": "A" }, "geometry": { "type": "Point", "coordinates": [ 120.976202172101665, 14.305503594748213 ] } },
{ "type": "Feature", "properties": { "fid": 18, "id": 18, "cluster_id": "149", "column": null, "row": "A" }, "geometry": { "type": "Point", "coordinates": [ 120.97621114678708, 14.30550471658389 ] } },
{ "type": "Feature", "properties": { "fid": 19, "id": 19, "cluster_id": "149", "column": null, "row": "A" }, "geometry": { "type": "Point", "coordinates": [ 120.976221617253401, 14.305505464474342 ] } },
{ "type": "Feature", "properties": { "fid": 20, "id": 20, "cluster_id": "149", "column": null, "row": "A" }, "geometry": { "type": "Point", "coordinates": [ 120.976229844048348, 14.305506586310019 ] } },
{ "type": "Feature", "properties": { "fid": 21, "id": 21, "cluster_id": "149", "column": null, "row": "A" }, "geometry": { "type": "Point", "coordinates": [ 120.976238818733762, 14.305507708145694 ] } },
{ "type": "Feature", "properties": { "fid": 22, "id": 22, "cluster_id": "149", "column": null, "row": "A" }, "geometry": { "type": "Point", "coordinates": [ 120.97624854130963, 14.30550808209092 ] } },
{ "type": "Feature", "properties": { "fid": 23, "id": 23, "cluster_id": "149", "column": null, "row": "A" }, "geometry": { "type": "Point", "coordinates": [ 120.976257142049818, 14.30550882998137 ] } },
{ "type": "Feature", "properties": { "fid": 24, "id": 24, "cluster_id": "149", "column": null, "row": "A" }, "geometry": { "type": "Point", "coordinates": [ 120.976265368844778, 14.305509577871822 ] } },
{ "type": "Feature", "properties": { "fid": 25, "id": 25, "cluster_id": "149", "column": null, "row": "A" }, "geometry": { "type": "Point", "coordinates": [ 120.976273221694512, 14.305509203926595 ] } },
{ "type": "Feature", "properties": { "fid": 26, "id": 26, "cluster_id": "149", "column": null, "row": "A" }, "geometry": { "type": "Point", "coordinates": [ 120.97628070059902, 14.305510325762272 ] } },
{ "type": "Feature", "properties": { "fid": 27, "id": 27, "cluster_id": "149", "column": null, "row": "A" }, "geometry": { "type": "Point", "coordinates": [ 120.976288179503527, 14.305510699707497 ] } },
{ "type": "Feature", "properties": { "fid": 28, "id": 28, "cluster_id": "149", "column": null, "row": "A" }, "geometry": { "type": "Point", "coordinates": [ 120.976296406298488, 14.305511073652724 ] } },
{ "type": "Feature", "properties": { "fid": 29, "id": 29, "cluster_id": "149", "column": null, "row": "A" }, "geometry": { "type": "Point", "coordinates": [ 120.976304259148222, 14.305512195488401 ] } },
{ "type": "Feature", "properties": { "fid": 30, "id": 30, "cluster_id": "149", "column": null, "row": "A" }, "geometry": { "type": "Point", "coordinates": [ 120.976311364107502, 14.305512569433626 ] } },
{ "type": "Feature", "properties": { "fid": 31, "id": 31, "cluster_id": "149", "column": null, "row": "A" }, "geometry": { "type": "Point", "coordinates": [ 120.976318469066797, 14.305513317324076 ] } },
{ "type": "Feature", "properties": { "fid": 32, "id": 32, "cluster_id": "149", "column": null, "row": "A" }, "geometry": { "type": "Point", "coordinates": [ 120.976325574026077, 14.305513691269303 ] } },
{ "type": "Feature", "properties": { "fid": 33, "id": 33, "cluster_id": "149", "column": null, "row": "A" }, "geometry": { "type": "Point", "coordinates": [ 120.976333052930585, 14.305514439159753 ] } },
{ "type": "Feature", "properties": { "fid": 34, "id": 34, "cluster_id": "149", "column": null, "row": "A" }, "geometry": { "type": "Point", "coordinates": [ 120.976339409999426, 14.305514813104978 ] } },
{ "type": "Feature", "properties": { "fid": 35, "id": 35, "cluster_id": "149", "column": null, "row": "A" }, "geometry": { "type": "Point", "coordinates": [ 120.976346514958706, 14.305515934940654 ] } },
{ "type": "Feature", "properties": { "fid": 36, "id": 36, "cluster_id": "149", "column": null, "row": "A" }, "geometry": { "type": "Point", "coordinates": [ 120.97635436780844, 14.305516308885879 ] } }
]
}
