{
"type": "FeatureCollection",
"name": "cltr-id-193-d-row",
"crs": { "type": "name", "properties": { "name": "urn:ogc:def:crs:OGC:1.3:CRS84" } },
"features": [
{ "type": "Feature", "properties": { "fid": 1, "id": 1, "cluster_id": "193", "column": null, "row": "D" }, "geometry": { "type": "Point", "coordinates": [ 120.976740227856382, 14.305568097748589 ] } },
{ "type": "Feature", "properties": { "fid": 2, "id": 2, "cluster_id": "193", "column": null, "row": "D" }, "geometry": { "type": "Point", "coordinates": [ 120.976739686971328, 14.305561336685361 ] } },
{ "type": "Feature", "properties": { "fid": 3, "id": 3, "cluster_id": "193", "column": null, "row": "D" }, "geometry": { "type": "Point", "coordinates": [ 120.976743743609262, 14.305556198277309 ] } },
{ "type": "Feature", "properties": { "fid": 4, "id": 4, "cluster_id": "193", "column": null, "row": "D" }, "geometry": { "type": "Point", "coordinates": [ 120.976751045557549, 14.305555657392249 ] } },
{ "type": "Feature", "properties": { "fid": 5, "id": 5, "cluster_id": "193", "column": null, "row": "D" }, "geometry": { "type": "Point", "coordinates": [ 120.976759970161012, 14.305555927834778 ] } },
{ "type": "Feature", "properties": { "fid": 6, "id": 6, "cluster_id": "193", "column": null, "row": "D" }, "geometry": { "type": "Point", "coordinates": [ 120.976767001666758, 14.305556198277309 ] } },
{ "type": "Feature", "properties": { "fid": 7, "id": 7, "cluster_id": "193", "column": null, "row": "D" }, "geometry": { "type": "Point", "coordinates": [ 120.976774574057586, 14.305555927834778 ] } },
{ "type": "Feature", "properties": { "fid": 8, "id": 8, "cluster_id": "193", "column": null, "row": "D" }, "geometry": { "type": "Point", "coordinates": [ 120.976779982908155, 14.305557820932483 ] } },
{ "type": "Feature", "properties": { "fid": 9, "id": 9, "cluster_id": "193", "column": null, "row": "D" }, "geometry": { "type": "Point", "coordinates": [ 120.976788907511619, 14.305558091375012 ] } },
{ "type": "Feature", "properties": { "fid": 10, "id": 10, "cluster_id": "193", "column": null, "row": "D" }, "geometry": { "type": "Point", "coordinates": [ 120.976794586804729, 14.305558091375012 ] } },
{ "type": "Feature", "properties": { "fid": 11, "id": 11, "cluster_id": "193", "column": null, "row": "D" }, "geometry": { "type": "Point", "coordinates": [ 120.976800806982908, 14.305557820932483 ] } },
{ "type": "Feature", "properties": { "fid": 12, "id": 12, "cluster_id": "193", "column": null, "row": "D" }, "geometry": { "type": "Point", "coordinates": [ 120.976807568046127, 14.305558361817541 ] } },
{ "type": "Feature", "properties": { "fid": 13, "id": 13, "cluster_id": "193", "column": null, "row": "D" }, "geometry": { "type": "Point", "coordinates": [ 120.976815951764536, 14.305560795800302 ] } },
{ "type": "Feature", "properties": { "fid": 14, "id": 14, "cluster_id": "193", "column": null, "row": "D" }, "geometry": { "type": "Point", "coordinates": [ 120.97682352415535, 14.305560254915244 ] } },
{ "type": "Feature", "properties": { "fid": 15, "id": 15, "cluster_id": "193", "column": null, "row": "D" }, "geometry": { "type": "Point", "coordinates": [ 120.97683055566111, 14.305560254915244 ] } },
{ "type": "Feature", "properties": { "fid": 16, "id": 16, "cluster_id": "193", "column": null, "row": "D" }, "geometry": { "type": "Point", "coordinates": [ 120.9768397507071, 14.305561877570419 ] } },
{ "type": "Feature", "properties": { "fid": 17, "id": 17, "cluster_id": "193", "column": null, "row": "D" }, "geometry": { "type": "Point", "coordinates": [ 120.976850568408253, 14.305563229783065 ] } },
{ "type": "Feature", "properties": { "fid": 18, "id": 18, "cluster_id": "193", "column": null, "row": "D" }, "geometry": { "type": "Point", "coordinates": [ 120.976863008764596, 14.305561877570419 ] } },
{ "type": "Feature", "properties": { "fid": 19, "id": 19, "cluster_id": "193", "column": null, "row": "D" }, "geometry": { "type": "Point", "coordinates": [ 120.976868688057706, 14.305564311553182 ] } },
{ "type": "Feature", "properties": { "fid": 20, "id": 20, "cluster_id": "193", "column": null, "row": "D" }, "geometry": { "type": "Point", "coordinates": [ 120.976881669299104, 14.305565122880768 ] } },
{ "type": "Feature", "properties": { "fid": 21, "id": 21, "cluster_id": "193", "column": null, "row": "D" }, "geometry": { "type": "Point", "coordinates": [ 120.976888430362337, 14.305564581995711 ] } },
{ "type": "Feature", "properties": { "fid": 22, "id": 22, "cluster_id": "193", "column": null, "row": "D" }, "geometry": { "type": "Point", "coordinates": [ 120.976898707178435, 14.305566475093414 ] } },
{ "type": "Feature", "properties": { "fid": 23, "id": 23, "cluster_id": "193", "column": null, "row": "D" }, "geometry": { "type": "Point", "coordinates": [ 120.976909795322129, 14.305566745535943 ] } },
{ "type": "Feature", "properties": { "fid": 24, "id": 24, "cluster_id": "193", "column": null, "row": "D" }, "geometry": { "type": "Point", "coordinates": [ 120.976917097270416, 14.305568638633646 ] } },
{ "type": "Feature", "properties": { "fid": 25, "id": 25, "cluster_id": "193", "column": null, "row": "D" }, "geometry": { "type": "Point", "coordinates": [ 120.976924940103757, 14.305568368191118 ] } },
{ "type": "Feature", "properties": { "fid": 26, "id": 26, "cluster_id": "193", "column": null, "row": "D" }, "geometry": { "type": "Point", "coordinates": [ 120.976932782937112, 14.305568097748589 ] } },
{ "type": "Feature", "properties": { "fid": 27, "id": 27, "cluster_id": "193", "column": null, "row": "D" }, "geometry": { "type": "Point", "coordinates": [ 120.976945223293441, 14.305569449961235 ] } },
{ "type": "Feature", "properties": { "fid": 28, "id": 28, "cluster_id": "193", "column": null, "row": "D" }, "geometry": { "type": "Point", "coordinates": [ 120.976954147896905, 14.305569990846292 ] } },
{ "type": "Feature", "properties": { "fid": 29, "id": 29, "cluster_id": "193", "column": null, "row": "D" }, "geometry": { "type": "Point", "coordinates": [ 120.976962531615314, 14.305571343058938 ] } },
{ "type": "Feature", "properties": { "fid": 30, "id": 30, "cluster_id": "193", "column": null, "row": "D" }, "geometry": { "type": "Point", "coordinates": [ 120.976973078873939, 14.305573777041699 ] } },
{ "type": "Feature", "properties": { "fid": 31, "id": 31, "cluster_id": "193", "column": null, "row": "D" }, "geometry": { "type": "Point", "coordinates": [ 120.976983085247525, 14.305572424829053 ] } },
{ "type": "Feature", "properties": { "fid": 32, "id": 32, "cluster_id": "193", "column": null, "row": "D" }, "geometry": { "type": "Point", "coordinates": [ 120.976994173391219, 14.305574047484228 ] } },
{ "type": "Feature", "properties": { "fid": 33, "id": 33, "cluster_id": "193", "column": null, "row": "D" }, "geometry": { "type": "Point", "coordinates": [ 120.977006072862494, 14.305575670139403 ] } },
{ "type": "Feature", "properties": { "fid": 34, "id": 34, "cluster_id": "193", "column": null, "row": "D" }, "geometry": { "type": "Point", "coordinates": [ 120.977017972333769, 14.305575940581933 ] } },
{ "type": "Feature", "properties": { "fid": 35, "id": 35, "cluster_id": "193", "column": null, "row": "D" }, "geometry": { "type": "Point", "coordinates": [ 120.977029330920004, 14.305577563237108 ] } },
{ "type": "Feature", "properties": { "fid": 36, "id": 36, "cluster_id": "193", "column": null, "row": "D" }, "geometry": { "type": "Point", "coordinates": [ 120.977040959948752, 14.305577833679637 ] } },
{ "type": "Feature", "properties": { "fid": 37, "id": 37, "cluster_id": "193", "column": null, "row": "D" }, "geometry": { "type": "Point", "coordinates": [ 120.977051507207392, 14.305578645007223 ] } },
{ "type": "Feature", "properties": { "fid": 38, "id": 38, "cluster_id": "193", "column": null, "row": "D" }, "geometry": { "type": "Point", "coordinates": [ 120.977063947563721, 14.30557972677734 ] } },
{ "type": "Feature", "properties": { "fid": 39, "id": 39, "cluster_id": "193", "column": null, "row": "D" }, "geometry": { "type": "Point", "coordinates": [ 120.977070438184427, 14.305580267662398 ] } },
{ "type": "Feature", "properties": { "fid": 40, "id": 40, "cluster_id": "193", "column": null, "row": "D" }, "geometry": { "type": "Point", "coordinates": [ 120.977082878540756, 14.305581349432515 ] } }
]
}
