{
"type": "FeatureCollection",
"name": "cltr-id-148-a-row",
"crs": { "type": "name", "properties": { "name": "urn:ogc:def:crs:OGC:1.3:CRS84" } },
"features": [
{ "type": "Feature", "properties": { "fid": 1, "id": 1, "cluster_id": "148", "column": null, "row": "A" }, "geometry": { "type": "Point", "coordinates": [ 120.976049036308609, 14.305541048620036 ] } },
{ "type": "Feature", "properties": { "fid": 2, "id": 2, "cluster_id": "148", "column": null, "row": "A" }, "geometry": { "type": "Point", "coordinates": [ 120.976057450076183, 14.305542170455711 ] } },
{ "type": "Feature", "properties": { "fid": 3, "id": 3, "cluster_id": "148", "column": null, "row": "A" }, "geometry": { "type": "Point", "coordinates": [ 120.976065302925917, 14.305542170455711 ] } },
{ "type": "Feature", "properties": { "fid": 4, "id": 4, "cluster_id": "148", "column": null, "row": "A" }, "geometry": { "type": "Point", "coordinates": [ 120.976073716693492, 14.305542731373549 ] } },
{ "type": "Feature", "properties": { "fid": 5, "id": 5, "cluster_id": "148", "column": null, "row": "A" }, "geometry": { "type": "Point", "coordinates": [ 120.976081008625385, 14.305542731373549 ] } },
{ "type": "Feature", "properties": { "fid": 6, "id": 6, "cluster_id": "148", "column": null, "row": "A" }, "geometry": { "type": "Point", "coordinates": [ 120.976088300557294, 14.305542731373549 ] } },
{ "type": "Feature", "properties": { "fid": 7, "id": 7, "cluster_id": "148", "column": null, "row": "A" }, "geometry": { "type": "Point", "coordinates": [ 120.976095592489187, 14.305544975044903 ] } },
{ "type": "Feature", "properties": { "fid": 8, "id": 8, "cluster_id": "148", "column": null, "row": "A" }, "geometry": { "type": "Point", "coordinates": [ 120.976103445338921, 14.305545535962741 ] } },
{ "type": "Feature", "properties": { "fid": 9, "id": 9, "cluster_id": "148", "column": null, "row": "A" }, "geometry": { "type": "Point", "coordinates": [ 120.976112420024336, 14.30554609688058 ] } },
{ "type": "Feature", "properties": { "fid": 10, "id": 10, "cluster_id": "148", "column": null, "row": "A" }, "geometry": { "type": "Point", "coordinates": [ 120.97611971195623, 14.305546657798418 ] } },
{ "type": "Feature", "properties": { "fid": 11, "id": 11, "cluster_id": "148", "column": null, "row": "A" }, "geometry": { "type": "Point", "coordinates": [ 120.976128686641644, 14.305549462387608 ] } },
{ "type": "Feature", "properties": { "fid": 12, "id": 12, "cluster_id": "148", "column": null, "row": "A" }, "geometry": { "type": "Point", "coordinates": [ 120.976135978573538, 14.305548340551931 ] } },
{ "type": "Feature", "properties": { "fid": 13, "id": 13, "cluster_id": "148", "column": null, "row": "A" }, "geometry": { "type": "Point", "coordinates": [ 120.976143831423272, 14.30554890146977 ] } },
{ "type": "Feature", "properties": { "fid": 14, "id": 14, "cluster_id": "148", "column": null, "row": "A" }, "geometry": { "type": "Point", "coordinates": [ 120.976154488862193, 14.305549462387608 ] } },
{ "type": "Feature", "properties": { "fid": 15, "id": 15, "cluster_id": "148", "column": null, "row": "A" }, "geometry": { "type": "Point", "coordinates": [ 120.976162341711927, 14.305550584223285 ] } },
{ "type": "Feature", "properties": { "fid": 16, "id": 16, "cluster_id": "148", "column": null, "row": "A" }, "geometry": { "type": "Point", "coordinates": [ 120.976173560068702, 14.305550584223285 ] } },
{ "type": "Feature", "properties": { "fid": 17, "id": 17, "cluster_id": "148", "column": null, "row": "A" }, "geometry": { "type": "Point", "coordinates": [ 120.976179730164915, 14.305550584223285 ] } },
{ "type": "Feature", "properties": { "fid": 18, "id": 18, "cluster_id": "148", "column": null, "row": "A" }, "geometry": { "type": "Point", "coordinates": [ 120.97618814393249, 14.305552266976798 ] } },
{ "type": "Feature", "properties": { "fid": 19, "id": 19, "cluster_id": "148", "column": null, "row": "A" }, "geometry": { "type": "Point", "coordinates": [ 120.976196557700064, 14.305552827894637 ] } },
{ "type": "Feature", "properties": { "fid": 20, "id": 20, "cluster_id": "148", "column": null, "row": "A" }, "geometry": { "type": "Point", "coordinates": [ 120.976204410549798, 14.305552827894637 ] } },
{ "type": "Feature", "properties": { "fid": 21, "id": 21, "cluster_id": "148", "column": null, "row": "A" }, "geometry": { "type": "Point", "coordinates": [ 120.976212263399532, 14.305553949730314 ] } },
{ "type": "Feature", "properties": { "fid": 22, "id": 22, "cluster_id": "148", "column": null, "row": "A" }, "geometry": { "type": "Point", "coordinates": [ 120.976220677167106, 14.30555507156599 ] } },
{ "type": "Feature", "properties": { "fid": 23, "id": 23, "cluster_id": "148", "column": null, "row": "A" }, "geometry": { "type": "Point", "coordinates": [ 120.97622909093468, 14.30555507156599 ] } },
{ "type": "Feature", "properties": { "fid": 24, "id": 24, "cluster_id": "148", "column": null, "row": "A" }, "geometry": { "type": "Point", "coordinates": [ 120.976236943784414, 14.305556193401667 ] } },
{ "type": "Feature", "properties": { "fid": 25, "id": 25, "cluster_id": "148", "column": null, "row": "A" }, "geometry": { "type": "Point", "coordinates": [ 120.976244796634148, 14.305556193401667 ] } },
{ "type": "Feature", "properties": { "fid": 26, "id": 26, "cluster_id": "148", "column": null, "row": "A" }, "geometry": { "type": "Point", "coordinates": [ 120.976252088566042, 14.305556754319506 ] } },
{ "type": "Feature", "properties": { "fid": 27, "id": 27, "cluster_id": "148", "column": null, "row": "A" }, "geometry": { "type": "Point", "coordinates": [ 120.976261624169297, 14.305556193401667 ] } },
{ "type": "Feature", "properties": { "fid": 28, "id": 28, "cluster_id": "148", "column": null, "row": "A" }, "geometry": { "type": "Point", "coordinates": [ 120.976271720690377, 14.305558437073019 ] } },
{ "type": "Feature", "properties": { "fid": 29, "id": 29, "cluster_id": "148", "column": null, "row": "A" }, "geometry": { "type": "Point", "coordinates": [ 120.976279573540111, 14.305558437073019 ] } },
{ "type": "Feature", "properties": { "fid": 30, "id": 30, "cluster_id": "148", "column": null, "row": "A" }, "geometry": { "type": "Point", "coordinates": [ 120.976288548225526, 14.305558997990858 ] } },
{ "type": "Feature", "properties": { "fid": 31, "id": 31, "cluster_id": "148", "column": null, "row": "A" }, "geometry": { "type": "Point", "coordinates": [ 120.976298083828766, 14.305560119826534 ] } },
{ "type": "Feature", "properties": { "fid": 32, "id": 32, "cluster_id": "148", "column": null, "row": "A" }, "geometry": { "type": "Point", "coordinates": [ 120.976308180349861, 14.305561241662211 ] } },
{ "type": "Feature", "properties": { "fid": 33, "id": 33, "cluster_id": "148", "column": null, "row": "A" }, "geometry": { "type": "Point", "coordinates": [ 120.976318276870941, 14.305563485333565 ] } },
{ "type": "Feature", "properties": { "fid": 34, "id": 34, "cluster_id": "148", "column": null, "row": "A" }, "geometry": { "type": "Point", "coordinates": [ 120.976330617063383, 14.305562924415726 ] } },
{ "type": "Feature", "properties": { "fid": 35, "id": 35, "cluster_id": "148", "column": null, "row": "A" }, "geometry": { "type": "Point", "coordinates": [ 120.97635935470322, 14.305555137898542 ] } },
{ "type": "Feature", "properties": { "fid": 36, "id": 36, "cluster_id": "148", "column": null, "row": "A" }, "geometry": { "type": "Point", "coordinates": [ 120.97635991562106, 14.30554616321313 ] } }
]
}
