{
"type": "FeatureCollection",
"name": "cltr-id-154-a-row",
"crs": { "type": "name", "properties": { "name": "urn:ogc:def:crs:OGC:1.3:CRS84" } },
"features": [
{ "type": "Feature", "properties": { "fid": 1, "id": 1, "cluster_id": "154", "column": null, "row": "A" }, "geometry": { "type": "Point", "coordinates": [ 120.976012610996008, 14.305939653230348 ] } },
{ "type": "Feature", "properties": { "fid": 2, "id": 2, "cluster_id": "154", "column": null, "row": "A" }, "geometry": { "type": "Point", "coordinates": [ 120.976020944632438, 14.305940614803788 ] } },
{ "type": "Feature", "properties": { "fid": 3, "id": 3, "cluster_id": "154", "column": null, "row": "A" }, "geometry": { "type": "Point", "coordinates": [ 120.976029598793389, 14.305942217426182 ] } },
{ "type": "Feature", "properties": { "fid": 4, "id": 4, "cluster_id": "154", "column": null, "row": "A" }, "geometry": { "type": "Point", "coordinates": [ 120.976039214527745, 14.305943178999618 ] } },
{ "type": "Feature", "properties": { "fid": 5, "id": 5, "cluster_id": "154", "column": null, "row": "A" }, "geometry": { "type": "Point", "coordinates": [ 120.976048509737637, 14.305944140573056 ] } },
{ "type": "Feature", "properties": { "fid": 6, "id": 6, "cluster_id": "154", "column": null, "row": "A" }, "geometry": { "type": "Point", "coordinates": [ 120.976056522849618, 14.305945102146493 ] } },
{ "type": "Feature", "properties": { "fid": 7, "id": 7, "cluster_id": "154", "column": null, "row": "A" }, "geometry": { "type": "Point", "coordinates": [ 120.976076074842837, 14.305944461097535 ] } },
{ "type": "Feature", "properties": { "fid": 8, "id": 8, "cluster_id": "154", "column": null, "row": "A" }, "geometry": { "type": "Point", "coordinates": [ 120.976086011101671, 14.305945422670973 ] } },
{ "type": "Feature", "properties": { "fid": 9, "id": 9, "cluster_id": "154", "column": null, "row": "A" }, "geometry": { "type": "Point", "coordinates": [ 120.976094344738115, 14.305946063719929 ] } },
{ "type": "Feature", "properties": { "fid": 10, "id": 10, "cluster_id": "154", "column": null, "row": "A" }, "geometry": { "type": "Point", "coordinates": [ 120.976102678374573, 14.305946704768887 ] } },
{ "type": "Feature", "properties": { "fid": 11, "id": 11, "cluster_id": "154", "column": null, "row": "A" }, "geometry": { "type": "Point", "coordinates": [ 120.976111653059974, 14.305947666342325 ] } },
{ "type": "Feature", "properties": { "fid": 12, "id": 12, "cluster_id": "154", "column": null, "row": "A" }, "geometry": { "type": "Point", "coordinates": [ 120.976119986696418, 14.305949268964719 ] } },
{ "type": "Feature", "properties": { "fid": 13, "id": 13, "cluster_id": "154", "column": null, "row": "A" }, "geometry": { "type": "Point", "coordinates": [ 120.976131205053193, 14.305949910013677 ] } },
{ "type": "Feature", "properties": { "fid": 14, "id": 14, "cluster_id": "154", "column": null, "row": "A" }, "geometry": { "type": "Point", "coordinates": [ 120.976142743934432, 14.305951192111594 ] } },
{ "type": "Feature", "properties": { "fid": 15, "id": 15, "cluster_id": "154", "column": null, "row": "A" }, "geometry": { "type": "Point", "coordinates": [ 120.976151718619846, 14.305950871587115 ] } },
{ "type": "Feature", "properties": { "fid": 16, "id": 16, "cluster_id": "154", "column": null, "row": "A" }, "geometry": { "type": "Point", "coordinates": [ 120.976160372780782, 14.305951512636073 ] } },
{ "type": "Feature", "properties": { "fid": 17, "id": 17, "cluster_id": "154", "column": null, "row": "A" }, "geometry": { "type": "Point", "coordinates": [ 120.976168385892748, 14.305951512636073 ] } },
{ "type": "Feature", "properties": { "fid": 18, "id": 18, "cluster_id": "154", "column": null, "row": "A" }, "geometry": { "type": "Point", "coordinates": [ 120.976177360578163, 14.30595247420951 ] } },
{ "type": "Feature", "properties": { "fid": 19, "id": 19, "cluster_id": "154", "column": null, "row": "A" }, "geometry": { "type": "Point", "coordinates": [ 120.976185373690143, 14.305953435782946 ] } },
{ "type": "Feature", "properties": { "fid": 20, "id": 20, "cluster_id": "154", "column": null, "row": "A" }, "geometry": { "type": "Point", "coordinates": [ 120.976192104704197, 14.305954076831904 ] } },
{ "type": "Feature", "properties": { "fid": 21, "id": 21, "cluster_id": "154", "column": null, "row": "A" }, "geometry": { "type": "Point", "coordinates": [ 120.976199156242728, 14.305954076831904 ] } },
{ "type": "Feature", "properties": { "fid": 22, "id": 22, "cluster_id": "154", "column": null, "row": "A" }, "geometry": { "type": "Point", "coordinates": [ 120.97620684883023, 14.305954397356384 ] } },
{ "type": "Feature", "properties": { "fid": 23, "id": 23, "cluster_id": "154", "column": null, "row": "A" }, "geometry": { "type": "Point", "coordinates": [ 120.976213900368762, 14.305955038405342 ] } },
{ "type": "Feature", "properties": { "fid": 24, "id": 24, "cluster_id": "154", "column": null, "row": "A" }, "geometry": { "type": "Point", "coordinates": [ 120.976221592956264, 14.30595535892982 ] } },
{ "type": "Feature", "properties": { "fid": 25, "id": 25, "cluster_id": "154", "column": null, "row": "A" }, "geometry": { "type": "Point", "coordinates": [ 120.976229285543752, 14.305956320503258 ] } },
{ "type": "Feature", "properties": { "fid": 26, "id": 26, "cluster_id": "154", "column": null, "row": "A" }, "geometry": { "type": "Point", "coordinates": [ 120.976237939704689, 14.305956641027736 ] } },
{ "type": "Feature", "properties": { "fid": 27, "id": 27, "cluster_id": "154", "column": null, "row": "A" }, "geometry": { "type": "Point", "coordinates": [ 120.976246273341147, 14.305957282076694 ] } },
{ "type": "Feature", "properties": { "fid": 28, "id": 28, "cluster_id": "154", "column": null, "row": "A" }, "geometry": { "type": "Point", "coordinates": [ 120.976256209599995, 14.305957602601174 ] } },
{ "type": "Feature", "properties": { "fid": 29, "id": 29, "cluster_id": "154", "column": null, "row": "A" }, "geometry": { "type": "Point", "coordinates": [ 120.976268710054669, 14.30595856417461 ] } },
{ "type": "Feature", "properties": { "fid": 30, "id": 30, "cluster_id": "154", "column": null, "row": "A" }, "geometry": { "type": "Point", "coordinates": [ 120.976278325789039, 14.305959846272525 ] } },
{ "type": "Feature", "properties": { "fid": 31, "id": 31, "cluster_id": "154", "column": null, "row": "A" }, "geometry": { "type": "Point", "coordinates": [ 120.97628794152341, 14.305960807845963 ] } },
{ "type": "Feature", "properties": { "fid": 32, "id": 32, "cluster_id": "154", "column": null, "row": "A" }, "geometry": { "type": "Point", "coordinates": [ 120.976296595684346, 14.305961128370441 ] } },
{ "type": "Feature", "properties": { "fid": 33, "id": 33, "cluster_id": "154", "column": null, "row": "A" }, "geometry": { "type": "Point", "coordinates": [ 120.976307814041093, 14.305962089943879 ] } },
{ "type": "Feature", "properties": { "fid": 34, "id": 34, "cluster_id": "154", "column": null, "row": "A" }, "geometry": { "type": "Point", "coordinates": [ 120.976316788726521, 14.305962410468357 ] } },
{ "type": "Feature", "properties": { "fid": 35, "id": 35, "cluster_id": "154", "column": null, "row": "A" }, "geometry": { "type": "Point", "coordinates": [ 120.976330891803599, 14.305952794733988 ] } },
{ "type": "Feature", "properties": { "fid": 36, "id": 36, "cluster_id": "154", "column": null, "row": "A" }, "geometry": { "type": "Point", "coordinates": [ 120.976331212328077, 14.305944461097535 ] } }
]
}
