{
"type": "FeatureCollection",
"name": "cltr-id-174-a-row",
"crs": { "type": "name", "properties": { "name": "urn:ogc:def:crs:OGC:1.3:CRS84" } },
"features": [
{ "type": "Feature", "properties": { "fid": 1, "id": 1, "cluster_id": "174", "column": null, "row": "A" }, "geometry": { "type": "Point", "coordinates": [ 120.976390102378573, 14.305494276592617 ] } },
{ "type": "Feature", "properties": { "fid": 2, "id": 2, "cluster_id": "174", "column": null, "row": "A" }, "geometry": { "type": "Point", "coordinates": [ 120.976400277758856, 14.305495124540975 ] } },
{ "type": "Feature", "properties": { "fid": 3, "id": 3, "cluster_id": "174", "column": null, "row": "A" }, "geometry": { "type": "Point", "coordinates": [ 120.976410029164967, 14.305495972489332 ] } },
{ "type": "Feature", "properties": { "fid": 4, "id": 4, "cluster_id": "174", "column": null, "row": "A" }, "geometry": { "type": "Point", "coordinates": [ 120.976419780571064, 14.305497032424778 ] } },
{ "type": "Feature", "properties": { "fid": 5, "id": 5, "cluster_id": "174", "column": null, "row": "A" }, "geometry": { "type": "Point", "coordinates": [ 120.976428048067547, 14.305497456398957 ] } },
{ "type": "Feature", "properties": { "fid": 6, "id": 6, "cluster_id": "174", "column": null, "row": "A" }, "geometry": { "type": "Point", "coordinates": [ 120.976435891589858, 14.305497880373135 ] } },
{ "type": "Feature", "properties": { "fid": 7, "id": 7, "cluster_id": "174", "column": null, "row": "A" }, "geometry": { "type": "Point", "coordinates": [ 120.976444795047598, 14.305498728321492 ] } },
{ "type": "Feature", "properties": { "fid": 8, "id": 8, "cluster_id": "174", "column": null, "row": "A" }, "geometry": { "type": "Point", "coordinates": [ 120.976452638569896, 14.305499788256938 ] } },
{ "type": "Feature", "properties": { "fid": 9, "id": 9, "cluster_id": "174", "column": null, "row": "A" }, "geometry": { "type": "Point", "coordinates": [ 120.97646175401475, 14.305500000244027 ] } },
{ "type": "Feature", "properties": { "fid": 10, "id": 10, "cluster_id": "174", "column": null, "row": "A" }, "geometry": { "type": "Point", "coordinates": [ 120.976471081446675, 14.305501908127832 ] } },
{ "type": "Feature", "properties": { "fid": 11, "id": 11, "cluster_id": "174", "column": null, "row": "A" }, "geometry": { "type": "Point", "coordinates": [ 120.976480196891529, 14.305501696140743 ] } },
{ "type": "Feature", "properties": { "fid": 12, "id": 12, "cluster_id": "174", "column": null, "row": "A" }, "geometry": { "type": "Point", "coordinates": [ 120.976488464387984, 14.30550233210201 ] } },
{ "type": "Feature", "properties": { "fid": 13, "id": 13, "cluster_id": "174", "column": null, "row": "A" }, "geometry": { "type": "Point", "coordinates": [ 120.976498003807023, 14.305502968063278 ] } }
]
}
