{
"type": "FeatureCollection",
"name": "cltr-id-147-a-row",
"crs": { "type": "name", "properties": { "name": "urn:ogc:def:crs:OGC:1.3:CRS84" } },
"features": [
{ "type": "Feature", "properties": { "fid": 1, "id": 1, "cluster_id": "147", "column": null, "row": "A" }, "geometry": { "type": "Point", "coordinates": [ 120.976053180703133, 14.305373298990881 ] } },
{ "type": "Feature", "properties": { "fid": 2, "id": 2, "cluster_id": "147", "column": null, "row": "A" }, "geometry": { "type": "Point", "coordinates": [ 120.976053741620973, 14.305365446141145 ] } },
{ "type": "Feature", "properties": { "fid": 3, "id": 3, "cluster_id": "147", "column": null, "row": "A" }, "geometry": { "type": "Point", "coordinates": [ 120.976068325484789, 14.305358715127085 ] } },
{ "type": "Feature", "properties": { "fid": 4, "id": 4, "cluster_id": "147", "column": null, "row": "A" }, "geometry": { "type": "Point", "coordinates": [ 120.976081039622457, 14.305359836962761 ] } },
{ "type": "Feature", "properties": { "fid": 5, "id": 5, "cluster_id": "147", "column": null, "row": "A" }, "geometry": { "type": "Point", "coordinates": [ 120.976093753760125, 14.305360584853211 ] } },
{ "type": "Feature", "properties": { "fid": 6, "id": 6, "cluster_id": "147", "column": null, "row": "A" }, "geometry": { "type": "Point", "coordinates": [ 120.97610684184302, 14.305361332743663 ] } },
{ "type": "Feature", "properties": { "fid": 7, "id": 7, "cluster_id": "147", "column": null, "row": "A" }, "geometry": { "type": "Point", "coordinates": [ 120.976117312309327, 14.305361706688888 ] } },
{ "type": "Feature", "properties": { "fid": 8, "id": 8, "cluster_id": "147", "column": null, "row": "A" }, "geometry": { "type": "Point", "coordinates": [ 120.976127782775649, 14.30536245457934 ] } },
{ "type": "Feature", "properties": { "fid": 9, "id": 9, "cluster_id": "147", "column": null, "row": "A" }, "geometry": { "type": "Point", "coordinates": [ 120.97613600957061, 14.305363576415015 ] } },
{ "type": "Feature", "properties": { "fid": 10, "id": 10, "cluster_id": "147", "column": null, "row": "A" }, "geometry": { "type": "Point", "coordinates": [ 120.976146480036917, 14.305363576415015 ] } },
{ "type": "Feature", "properties": { "fid": 11, "id": 11, "cluster_id": "147", "column": null, "row": "A" }, "geometry": { "type": "Point", "coordinates": [ 120.976156576558012, 14.305363950360242 ] } },
{ "type": "Feature", "properties": { "fid": 12, "id": 12, "cluster_id": "147", "column": null, "row": "A" }, "geometry": { "type": "Point", "coordinates": [ 120.976166673079092, 14.305365446141144 ] } },
{ "type": "Feature", "properties": { "fid": 13, "id": 13, "cluster_id": "147", "column": null, "row": "A" }, "geometry": { "type": "Point", "coordinates": [ 120.976176021709733, 14.305365820086369 ] } },
{ "type": "Feature", "properties": { "fid": 14, "id": 14, "cluster_id": "147", "column": null, "row": "A" }, "geometry": { "type": "Point", "coordinates": [ 120.976186492176041, 14.305366567976819 ] } },
{ "type": "Feature", "properties": { "fid": 15, "id": 15, "cluster_id": "147", "column": null, "row": "A" }, "geometry": { "type": "Point", "coordinates": [ 120.976195466861455, 14.305367315867271 ] } },
{ "type": "Feature", "properties": { "fid": 16, "id": 16, "cluster_id": "147", "column": null, "row": "A" }, "geometry": { "type": "Point", "coordinates": [ 120.976204815492096, 14.305367689812496 ] } },
{ "type": "Feature", "properties": { "fid": 17, "id": 17, "cluster_id": "147", "column": null, "row": "A" }, "geometry": { "type": "Point", "coordinates": [ 120.97621453806795, 14.305368063757721 ] } },
{ "type": "Feature", "properties": { "fid": 18, "id": 18, "cluster_id": "147", "column": null, "row": "A" }, "geometry": { "type": "Point", "coordinates": [ 120.976223512753364, 14.305369185593397 ] } },
{ "type": "Feature", "properties": { "fid": 19, "id": 19, "cluster_id": "147", "column": null, "row": "A" }, "geometry": { "type": "Point", "coordinates": [ 120.976233983219686, 14.305369933483849 ] } },
{ "type": "Feature", "properties": { "fid": 20, "id": 20, "cluster_id": "147", "column": null, "row": "A" }, "geometry": { "type": "Point", "coordinates": [ 120.976242210014632, 14.305371055319526 ] } },
{ "type": "Feature", "properties": { "fid": 21, "id": 21, "cluster_id": "147", "column": null, "row": "A" }, "geometry": { "type": "Point", "coordinates": [ 120.976251184700047, 14.305372177155201 ] } },
{ "type": "Feature", "properties": { "fid": 22, "id": 22, "cluster_id": "147", "column": null, "row": "A" }, "geometry": { "type": "Point", "coordinates": [ 120.976260907275915, 14.305372551100428 ] } },
{ "type": "Feature", "properties": { "fid": 23, "id": 23, "cluster_id": "147", "column": null, "row": "A" }, "geometry": { "type": "Point", "coordinates": [ 120.976269508016102, 14.305373298990878 ] } },
{ "type": "Feature", "properties": { "fid": 24, "id": 24, "cluster_id": "147", "column": null, "row": "A" }, "geometry": { "type": "Point", "coordinates": [ 120.976277734811063, 14.30537404688133 ] } },
{ "type": "Feature", "properties": { "fid": 25, "id": 25, "cluster_id": "147", "column": null, "row": "A" }, "geometry": { "type": "Point", "coordinates": [ 120.976285587660797, 14.305373672936103 ] } },
{ "type": "Feature", "properties": { "fid": 26, "id": 26, "cluster_id": "147", "column": null, "row": "A" }, "geometry": { "type": "Point", "coordinates": [ 120.976293066565304, 14.30537479477178 ] } },
{ "type": "Feature", "properties": { "fid": 27, "id": 27, "cluster_id": "147", "column": null, "row": "A" }, "geometry": { "type": "Point", "coordinates": [ 120.976300545469812, 14.305375168717005 ] } },
{ "type": "Feature", "properties": { "fid": 28, "id": 28, "cluster_id": "147", "column": null, "row": "A" }, "geometry": { "type": "Point", "coordinates": [ 120.976308772264773, 14.305375542662231 ] } },
{ "type": "Feature", "properties": { "fid": 29, "id": 29, "cluster_id": "147", "column": null, "row": "A" }, "geometry": { "type": "Point", "coordinates": [ 120.976316625114507, 14.305376664497908 ] } },
{ "type": "Feature", "properties": { "fid": 30, "id": 30, "cluster_id": "147", "column": null, "row": "A" }, "geometry": { "type": "Point", "coordinates": [ 120.976323730073787, 14.305377038443133 ] } },
{ "type": "Feature", "properties": { "fid": 31, "id": 31, "cluster_id": "147", "column": null, "row": "A" }, "geometry": { "type": "Point", "coordinates": [ 120.976330835033082, 14.305377786333583 ] } },
{ "type": "Feature", "properties": { "fid": 32, "id": 32, "cluster_id": "147", "column": null, "row": "A" }, "geometry": { "type": "Point", "coordinates": [ 120.976337939992362, 14.30537816027881 ] } },
{ "type": "Feature", "properties": { "fid": 33, "id": 33, "cluster_id": "147", "column": null, "row": "A" }, "geometry": { "type": "Point", "coordinates": [ 120.976345418896869, 14.30537890816926 ] } },
{ "type": "Feature", "properties": { "fid": 34, "id": 34, "cluster_id": "147", "column": null, "row": "A" }, "geometry": { "type": "Point", "coordinates": [ 120.976351775965711, 14.305379282114485 ] } },
{ "type": "Feature", "properties": { "fid": 35, "id": 35, "cluster_id": "147", "column": null, "row": "A" }, "geometry": { "type": "Point", "coordinates": [ 120.976358880924991, 14.305380403950162 ] } },
{ "type": "Feature", "properties": { "fid": 36, "id": 36, "cluster_id": "147", "column": null, "row": "A" }, "geometry": { "type": "Point", "coordinates": [ 120.976366733774725, 14.305380777895387 ] } }
]
}
