{
"type": "FeatureCollection",
"name": "cltr-id-204-a-row",
"crs": { "type": "name", "properties": { "name": "urn:ogc:def:crs:OGC:1.3:CRS84" } },
"features": [
{ "type": "Feature", "properties": { "fid": 1, "id": 1, "cluster_id": "204", "column": null, "row": "A" }, "geometry": { "type": "Point", "coordinates": [ 120.976589997031553, 14.305780259912678 ] } },
{ "type": "Feature", "properties": { "fid": 2, "id": 2, "cluster_id": "204", "column": null, "row": "A" }, "geometry": { "type": "Point", "coordinates": [ 120.976597298979854, 14.305781341682794 ] } },
{ "type": "Feature", "properties": { "fid": 3, "id": 3, "cluster_id": "204", "column": null, "row": "A" }, "geometry": { "type": "Point", "coordinates": [ 120.976605412255722, 14.305782423452911 ] } },
{ "type": "Feature", "properties": { "fid": 4, "id": 4, "cluster_id": "204", "column": null, "row": "A" }, "geometry": { "type": "Point", "coordinates": [ 120.976613255089063, 14.305783775665555 ] } },
{ "type": "Feature", "properties": { "fid": 5, "id": 5, "cluster_id": "204", "column": null, "row": "A" }, "geometry": { "type": "Point", "coordinates": [ 120.976622991020122, 14.305784046108085 ] } },
{ "type": "Feature", "properties": { "fid": 6, "id": 6, "cluster_id": "204", "column": null, "row": "A" }, "geometry": { "type": "Point", "coordinates": [ 120.976635431376465, 14.305784857435674 ] } },
{ "type": "Feature", "properties": { "fid": 7, "id": 7, "cluster_id": "204", "column": null, "row": "A" }, "geometry": { "type": "Point", "coordinates": [ 120.97664516730751, 14.305786209648318 ] } },
{ "type": "Feature", "properties": { "fid": 8, "id": 8, "cluster_id": "204", "column": null, "row": "A" }, "geometry": { "type": "Point", "coordinates": [ 120.976655444123608, 14.305787020975906 ] } },
{ "type": "Feature", "properties": { "fid": 9, "id": 9, "cluster_id": "204", "column": null, "row": "A" }, "geometry": { "type": "Point", "coordinates": [ 120.976665450497194, 14.305788102746021 ] } },
{ "type": "Feature", "properties": { "fid": 10, "id": 10, "cluster_id": "204", "column": null, "row": "A" }, "geometry": { "type": "Point", "coordinates": [ 120.976677890853523, 14.305789184516138 ] } }
]
}
