{
    "type": "FeatureCollection",
    "name": "cltr-id-161-d-row",
    "crs": {
        "type": "name",
        "properties": { "name": "urn:ogc:def:crs:OGC:1.3:CRS84" }
    },
    "features": [
        {
            "type": "Feature",
            "properties": {
                "fid": 1,
                "id": 1,
                "cluster_id": "161",
                "column": null,
                "row": "D"
            },
            "geometry": {
                "type": "Point",
                "coordinates": [120.976380668953183, 14.305803247775241]
            }
        },
        {
            "type": "Feature",
            "properties": {
                "fid": 2,
                "id": 2,
                "cluster_id": "161",
                "column": null,
                "row": "D"
            },
            "geometry": {
                "type": "Point",
                "coordinates": [120.976381728888626, 14.305795086272303]
            }
        },
        {
            "type": "Feature",
            "properties": {
                "fid": 3,
                "id": 3,
                "cluster_id": "161",
                "column": null,
                "row": "D"
            },
            "geometry": {
                "type": "Point",
                "coordinates": [120.976386286611046, 14.305791164511152]
            }
        },
        {
            "type": "Feature",
            "properties": {
                "fid": 4,
                "id": 4,
                "cluster_id": "161",
                "column": null,
                "row": "D"
            },
            "geometry": {
                "type": "Point",
                "coordinates": [120.976396250004242, 14.305791482491786]
            }
        },
        {
            "type": "Feature",
            "properties": {
                "fid": 5,
                "id": 5,
                "cluster_id": "161",
                "column": null,
                "row": "D"
            },
            "geometry": {
                "type": "Point",
                "coordinates": [120.976405683429718, 14.305792224446598]
            }
        },
        {
            "type": "Feature",
            "properties": {
                "fid": 6,
                "id": 6,
                "cluster_id": "161",
                "column": null,
                "row": "D"
            },
            "geometry": {
                "type": "Point",
                "coordinates": [120.976415010861643, 14.305792966401411]
            }
        },
        {
            "type": "Feature",
            "properties": {
                "fid": 7,
                "id": 7,
                "cluster_id": "161",
                "column": null,
                "row": "D"
            },
            "geometry": {
                "type": "Point",
                "coordinates": [120.976424126306483, 14.305793496369134]
            }
        },
        {
            "type": "Feature",
            "properties": {
                "fid": 8,
                "id": 8,
                "cluster_id": "161",
                "column": null,
                "row": "D"
            },
            "geometry": {
                "type": "Point",
                "coordinates": [120.976432181815881, 14.305793602362678]
            }
        },
        {
            "type": "Feature",
            "properties": {
                "fid": 9,
                "id": 9,
                "cluster_id": "161",
                "column": null,
                "row": "D"
            },
            "geometry": {
                "type": "Point",
                "coordinates": [120.976440449312364, 14.305794450311035]
            }
        },
        {
            "type": "Feature",
            "properties": {
                "fid": 10,
                "id": 10,
                "cluster_id": "161",
                "column": null,
                "row": "D"
            },
            "geometry": {
                "type": "Point",
                "coordinates": [120.976448822802382, 14.305794768291669]
            }
        },
        {
            "type": "Feature",
            "properties": {
                "fid": 11,
                "id": 11,
                "cluster_id": "161",
                "column": null,
                "row": "D"
            },
            "geometry": {
                "type": "Point",
                "coordinates": [120.976457832253672, 14.305795404252938]
            }
        },
        {
            "type": "Feature",
            "properties": {
                "fid": 12,
                "id": 12,
                "cluster_id": "161",
                "column": null,
                "row": "D"
            },
            "geometry": {
                "type": "Point",
                "coordinates": [120.976466523724341, 14.305795404252938]
            }
        },
        {
            "type": "Feature",
            "properties": {
                "fid": 13,
                "id": 13,
                "cluster_id": "161",
                "column": null,
                "row": "D"
            },
            "geometry": {
                "type": "Point",
                "coordinates": [120.976475109201459, 14.305796888162563]
            }
        },
        {
            "type": "Feature",
            "properties": {
                "fid": 14,
                "id": 14,
                "cluster_id": "161",
                "column": null,
                "row": "D"
            },
            "geometry": {
                "type": "Point",
                "coordinates": [120.976484224646299, 14.305797312136741]
            }
        },
        {
            "type": "Feature",
            "properties": {
                "fid": 15,
                "id": 15,
                "cluster_id": "161",
                "column": null,
                "row": "D"
            },
            "geometry": {
                "type": "Point",
                "coordinates": [120.976491432207325, 14.305797418130286]
            }
        }
    ]
}
