{
"type": "FeatureCollection",
"name": "cltr-id-155-c-row",
"crs": { "type": "name", "properties": { "name": "urn:ogc:def:crs:OGC:1.3:CRS84" } },
"features": [
{ "type": "Feature", "properties": { "fid": 1, "id": 1, "cluster_id": "155", "column": null, "row": "C" }, "geometry": { "type": "Point", "coordinates": [ 120.976014854667326, 14.305907600782456 ] } },
{ "type": "Feature", "properties": { "fid": 2, "id": 2, "cluster_id": "155", "column": null, "row": "C" }, "geometry": { "type": "Point", "coordinates": [ 120.976013893093892, 14.305900869768397 ] } },
{ "type": "Feature", "properties": { "fid": 3, "id": 3, "cluster_id": "155", "column": null, "row": "C" }, "geometry": { "type": "Point", "coordinates": [ 120.976017739387629, 14.305894459278818 ] } },
{ "type": "Feature", "properties": { "fid": 4, "id": 4, "cluster_id": "155", "column": null, "row": "C" }, "geometry": { "type": "Point", "coordinates": [ 120.976025431975131, 14.305893177180902 ] } },
{ "type": "Feature", "properties": { "fid": 5, "id": 5, "cluster_id": "155", "column": null, "row": "C" }, "geometry": { "type": "Point", "coordinates": [ 120.976035688758458, 14.305894779803298 ] } },
{ "type": "Feature", "properties": { "fid": 6, "id": 6, "cluster_id": "155", "column": null, "row": "C" }, "geometry": { "type": "Point", "coordinates": [ 120.97604274029699, 14.305895741376734 ] } },
{ "type": "Feature", "properties": { "fid": 7, "id": 7, "cluster_id": "155", "column": null, "row": "C" }, "geometry": { "type": "Point", "coordinates": [ 120.976053638129287, 14.305896382425692 ] } },
{ "type": "Feature", "properties": { "fid": 8, "id": 8, "cluster_id": "155", "column": null, "row": "C" }, "geometry": { "type": "Point", "coordinates": [ 120.976061651241253, 14.305897664523608 ] } },
{ "type": "Feature", "properties": { "fid": 9, "id": 9, "cluster_id": "155", "column": null, "row": "C" }, "geometry": { "type": "Point", "coordinates": [ 120.976070305402189, 14.305898626097045 ] } },
{ "type": "Feature", "properties": { "fid": 10, "id": 10, "cluster_id": "155", "column": null, "row": "C" }, "geometry": { "type": "Point", "coordinates": [ 120.976077036416243, 14.305898305572565 ] } },
{ "type": "Feature", "properties": { "fid": 11, "id": 11, "cluster_id": "155", "column": null, "row": "C" }, "geometry": { "type": "Point", "coordinates": [ 120.976086011101657, 14.305899267146003 ] } },
{ "type": "Feature", "properties": { "fid": 12, "id": 12, "cluster_id": "155", "column": null, "row": "C" }, "geometry": { "type": "Point", "coordinates": [ 120.976094665262593, 14.305900869768397 ] } },
{ "type": "Feature", "properties": { "fid": 13, "id": 13, "cluster_id": "155", "column": null, "row": "C" }, "geometry": { "type": "Point", "coordinates": [ 120.976105242570398, 14.305901510817355 ] } },
{ "type": "Feature", "properties": { "fid": 14, "id": 14, "cluster_id": "155", "column": null, "row": "C" }, "geometry": { "type": "Point", "coordinates": [ 120.976111653059974, 14.305900549243919 ] } },
{ "type": "Feature", "properties": { "fid": 15, "id": 15, "cluster_id": "155", "column": null, "row": "C" }, "geometry": { "type": "Point", "coordinates": [ 120.976123191941213, 14.305902151866313 ] } },
{ "type": "Feature", "properties": { "fid": 16, "id": 16, "cluster_id": "155", "column": null, "row": "C" }, "geometry": { "type": "Point", "coordinates": [ 120.976131846102149, 14.305903113439751 ] } },
{ "type": "Feature", "properties": { "fid": 17, "id": 17, "cluster_id": "155", "column": null, "row": "C" }, "geometry": { "type": "Point", "coordinates": [ 120.976140500263085, 14.305903433964229 ] } },
{ "type": "Feature", "properties": { "fid": 18, "id": 18, "cluster_id": "155", "column": null, "row": "C" }, "geometry": { "type": "Point", "coordinates": [ 120.976148513375051, 14.305905998160062 ] } },
{ "type": "Feature", "properties": { "fid": 19, "id": 19, "cluster_id": "155", "column": null, "row": "C" }, "geometry": { "type": "Point", "coordinates": [ 120.976155885438075, 14.305904075013187 ] } },
{ "type": "Feature", "properties": { "fid": 20, "id": 20, "cluster_id": "155", "column": null, "row": "C" }, "geometry": { "type": "Point", "coordinates": [ 120.976163898550041, 14.305905036586624 ] } },
{ "type": "Feature", "properties": { "fid": 21, "id": 21, "cluster_id": "155", "column": null, "row": "C" }, "geometry": { "type": "Point", "coordinates": [ 120.976173514284412, 14.305905357111103 ] } },
{ "type": "Feature", "properties": { "fid": 22, "id": 22, "cluster_id": "155", "column": null, "row": "C" }, "geometry": { "type": "Point", "coordinates": [ 120.976182168445348, 14.305907921306936 ] } },
{ "type": "Feature", "properties": { "fid": 23, "id": 23, "cluster_id": "155", "column": null, "row": "C" }, "geometry": { "type": "Point", "coordinates": [ 120.976188578934924, 14.305905036586624 ] } },
{ "type": "Feature", "properties": { "fid": 24, "id": 24, "cluster_id": "155", "column": null, "row": "C" }, "geometry": { "type": "Point", "coordinates": [ 120.976198194669294, 14.305907280257978 ] } },
{ "type": "Feature", "properties": { "fid": 25, "id": 25, "cluster_id": "155", "column": null, "row": "C" }, "geometry": { "type": "Point", "coordinates": [ 120.97620684883023, 14.305909203404852 ] } },
{ "type": "Feature", "properties": { "fid": 26, "id": 26, "cluster_id": "155", "column": null, "row": "C" }, "geometry": { "type": "Point", "coordinates": [ 120.976214861942211, 14.305908562355894 ] } },
{ "type": "Feature", "properties": { "fid": 27, "id": 27, "cluster_id": "155", "column": null, "row": "C" }, "geometry": { "type": "Point", "coordinates": [ 120.976222554529699, 14.305910164978288 ] } },
{ "type": "Feature", "properties": { "fid": 28, "id": 28, "cluster_id": "155", "column": null, "row": "C" }, "geometry": { "type": "Point", "coordinates": [ 120.976233452361981, 14.30590984445381 ] } },
{ "type": "Feature", "properties": { "fid": 29, "id": 29, "cluster_id": "155", "column": null, "row": "C" }, "geometry": { "type": "Point", "coordinates": [ 120.97624178599844, 14.305910485502768 ] } },
{ "type": "Feature", "properties": { "fid": 30, "id": 30, "cluster_id": "155", "column": null, "row": "C" }, "geometry": { "type": "Point", "coordinates": [ 120.976253965928635, 14.305913049698599 ] } },
{ "type": "Feature", "properties": { "fid": 31, "id": 31, "cluster_id": "155", "column": null, "row": "C" }, "geometry": { "type": "Point", "coordinates": [ 120.976265825334366, 14.305912408649641 ] } },
{ "type": "Feature", "properties": { "fid": 32, "id": 32, "cluster_id": "155", "column": null, "row": "C" }, "geometry": { "type": "Point", "coordinates": [ 120.976275761593214, 14.305914331796515 ] } },
{ "type": "Feature", "properties": { "fid": 33, "id": 33, "cluster_id": "155", "column": null, "row": "C" }, "geometry": { "type": "Point", "coordinates": [ 120.976286338901019, 14.305912408649641 ] } },
{ "type": "Feature", "properties": { "fid": 34, "id": 34, "cluster_id": "155", "column": null, "row": "C" }, "geometry": { "type": "Point", "coordinates": [ 120.976298198306736, 14.305916895992347 ] } },
{ "type": "Feature", "properties": { "fid": 35, "id": 35, "cluster_id": "155", "column": null, "row": "C" }, "geometry": { "type": "Point", "coordinates": [ 120.976308134565585, 14.305915613894431 ] } },
{ "type": "Feature", "properties": { "fid": 36, "id": 36, "cluster_id": "155", "column": null, "row": "C" }, "geometry": { "type": "Point", "coordinates": [ 120.976317109250999, 14.305917857565783 ] } }
]
}
