{
"type": "FeatureCollection",
"name": "cltr-id-214-a-row",
"crs": { "type": "name", "properties": { "name": "urn:ogc:def:crs:OGC:1.3:CRS84" } },
"features": [
{ "type": "Feature", "properties": { "fid": 1, "id": 1, "cluster_id": "214", "column": null, "row": "A" }, "geometry": { "type": "Point", "coordinates": [ 120.976705205548768, 14.30579364681787 ] } },
{ "type": "Feature", "properties": { "fid": 2, "id": 2, "cluster_id": "214", "column": null, "row": "A" }, "geometry": { "type": "Point", "coordinates": [ 120.976714671037286, 14.305795539915573 ] } },
{ "type": "Feature", "properties": { "fid": 3, "id": 3, "cluster_id": "214", "column": null, "row": "A" }, "geometry": { "type": "Point", "coordinates": [ 120.976724677410857, 14.305796892128219 ] } },
{ "type": "Feature", "properties": { "fid": 4, "id": 4, "cluster_id": "214", "column": null, "row": "A" }, "geometry": { "type": "Point", "coordinates": [ 120.976734683784429, 14.305797973898335 ] } },
{ "type": "Feature", "properties": { "fid": 5, "id": 5, "cluster_id": "214", "column": null, "row": "A" }, "geometry": { "type": "Point", "coordinates": [ 120.976745231043068, 14.30579851478339 ] } },
{ "type": "Feature", "properties": { "fid": 6, "id": 6, "cluster_id": "214", "column": null, "row": "A" }, "geometry": { "type": "Point", "coordinates": [ 120.976757400956885, 14.30579905566845 ] } },
{ "type": "Feature", "properties": { "fid": 7, "id": 7, "cluster_id": "214", "column": null, "row": "A" }, "geometry": { "type": "Point", "coordinates": [ 120.976768489100579, 14.305800678323626 ] } },
{ "type": "Feature", "properties": { "fid": 8, "id": 8, "cluster_id": "214", "column": null, "row": "A" }, "geometry": { "type": "Point", "coordinates": [ 120.976779847686799, 14.305800948766157 ] } },
{ "type": "Feature", "properties": { "fid": 9, "id": 9, "cluster_id": "214", "column": null, "row": "A" }, "geometry": { "type": "Point", "coordinates": [ 120.976790394945411, 14.305802030536272 ] } },
{ "type": "Feature", "properties": { "fid": 10, "id": 10, "cluster_id": "214", "column": null, "row": "A" }, "geometry": { "type": "Point", "coordinates": [ 120.976802294416714, 14.305803382748916 ] } },
{ "type": "Feature", "properties": { "fid": 11, "id": 11, "cluster_id": "214", "column": null, "row": "A" }, "geometry": { "type": "Point", "coordinates": [ 120.976813923445448, 14.305804194076506 ] } },
{ "type": "Feature", "properties": { "fid": 12, "id": 12, "cluster_id": "214", "column": null, "row": "A" }, "geometry": { "type": "Point", "coordinates": [ 120.97682555247421, 14.30580473496156 ] } },
{ "type": "Feature", "properties": { "fid": 13, "id": 13, "cluster_id": "214", "column": null, "row": "A" }, "geometry": { "type": "Point", "coordinates": [ 120.976836640617904, 14.305805816731679 ] } },
{ "type": "Feature", "properties": { "fid": 14, "id": 14, "cluster_id": "214", "column": null, "row": "A" }, "geometry": { "type": "Point", "coordinates": [ 120.976847187876544, 14.305806898501796 ] } },
{ "type": "Feature", "properties": { "fid": 15, "id": 15, "cluster_id": "214", "column": null, "row": "A" }, "geometry": { "type": "Point", "coordinates": [ 120.976856923807574, 14.305807439386852 ] } },
{ "type": "Feature", "properties": { "fid": 16, "id": 16, "cluster_id": "214", "column": null, "row": "A" }, "geometry": { "type": "Point", "coordinates": [ 120.976865037083471, 14.30580825071444 ] } },
{ "type": "Feature", "properties": { "fid": 17, "id": 17, "cluster_id": "214", "column": null, "row": "A" }, "geometry": { "type": "Point", "coordinates": [ 120.976872609474285, 14.305809062042028 ] } },
{ "type": "Feature", "properties": { "fid": 18, "id": 18, "cluster_id": "214", "column": null, "row": "A" }, "geometry": { "type": "Point", "coordinates": [ 120.976882074962788, 14.305809873369615 ] } },
{ "type": "Feature", "properties": { "fid": 19, "id": 19, "cluster_id": "214", "column": null, "row": "A" }, "geometry": { "type": "Point", "coordinates": [ 120.976891810893861, 14.305810684697203 ] } },
{ "type": "Feature", "properties": { "fid": 20, "id": 20, "cluster_id": "214", "column": null, "row": "A" }, "geometry": { "type": "Point", "coordinates": [ 120.97690289903754, 14.305812036909847 ] } },
{ "type": "Feature", "properties": { "fid": 21, "id": 21, "cluster_id": "214", "column": null, "row": "A" }, "geometry": { "type": "Point", "coordinates": [ 120.976912364526058, 14.305812577794908 ] } },
{ "type": "Feature", "properties": { "fid": 22, "id": 22, "cluster_id": "214", "column": null, "row": "A" }, "geometry": { "type": "Point", "coordinates": [ 120.976922911784698, 14.305812848237435 ] } },
{ "type": "Feature", "properties": { "fid": 23, "id": 23, "cluster_id": "214", "column": null, "row": "A" }, "geometry": { "type": "Point", "coordinates": [ 120.976934540813431, 14.305813659565022 ] } },
{ "type": "Feature", "properties": { "fid": 24, "id": 24, "cluster_id": "214", "column": null, "row": "A" }, "geometry": { "type": "Point", "coordinates": [ 120.976942924531841, 14.305813930007551 ] } },
{ "type": "Feature", "properties": { "fid": 25, "id": 25, "cluster_id": "214", "column": null, "row": "A" }, "geometry": { "type": "Point", "coordinates": [ 120.97695130825025, 14.305815282220196 ] } },
{ "type": "Feature", "properties": { "fid": 26, "id": 26, "cluster_id": "214", "column": null, "row": "A" }, "geometry": { "type": "Point", "coordinates": [ 120.97696185550889, 14.305816363990314 ] } },
{ "type": "Feature", "properties": { "fid": 27, "id": 27, "cluster_id": "214", "column": null, "row": "A" }, "geometry": { "type": "Point", "coordinates": [ 120.976969157457162, 14.3058171753179 ] } },
{ "type": "Feature", "properties": { "fid": 28, "id": 28, "cluster_id": "214", "column": null, "row": "A" }, "geometry": { "type": "Point", "coordinates": [ 120.976977541175572, 14.305818257088019 ] } },
{ "type": "Feature", "properties": { "fid": 29, "id": 29, "cluster_id": "214", "column": null, "row": "A" }, "geometry": { "type": "Point", "coordinates": [ 120.976986195336494, 14.305818797973073 ] } },
{ "type": "Feature", "properties": { "fid": 30, "id": 30, "cluster_id": "214", "column": null, "row": "A" }, "geometry": { "type": "Point", "coordinates": [ 120.976994308612376, 14.305819609300663 ] } },
{ "type": "Feature", "properties": { "fid": 31, "id": 31, "cluster_id": "214", "column": null, "row": "A" }, "geometry": { "type": "Point", "coordinates": [ 120.977001610560663, 14.305819879743192 ] } },
{ "type": "Feature", "properties": { "fid": 32, "id": 32, "cluster_id": "214", "column": null, "row": "A" }, "geometry": { "type": "Point", "coordinates": [ 120.977007019411246, 14.305819879743192 ] } },
{ "type": "Feature", "properties": { "fid": 33, "id": 33, "cluster_id": "214", "column": null, "row": "A" }, "geometry": { "type": "Point", "coordinates": [ 120.977012969146884, 14.305820961513309 ] } },
{ "type": "Feature", "properties": { "fid": 34, "id": 34, "cluster_id": "214", "column": null, "row": "A" }, "geometry": { "type": "Point", "coordinates": [ 120.977019459767575, 14.305821231955838 ] } },
{ "type": "Feature", "properties": { "fid": 35, "id": 35, "cluster_id": "214", "column": null, "row": "A" }, "geometry": { "type": "Point", "coordinates": [ 120.977023786848036, 14.305821772840895 ] } }
]
}
