{
"type": "FeatureCollection",
"name": "cltr-id-147-c-row",
"crs": { "type": "name", "properties": { "name": "urn:ogc:def:crs:OGC:1.3:CRS84" } },
"features": [
{ "type": "Feature", "properties": { "fid": 1, "id": 1, "cluster_id": "147", "column": null, "row": "C" }, "geometry": { "type": "Point", "coordinates": [ 120.976059116366955, 14.305374288268185 ] } },
{ "type": "Feature", "properties": { "fid": 2, "id": 2, "cluster_id": "147", "column": null, "row": "C" }, "geometry": { "type": "Point", "coordinates": [ 120.976059677284795, 14.305366435418449 ] } },
{ "type": "Feature", "properties": { "fid": 3, "id": 3, "cluster_id": "147", "column": null, "row": "C" }, "geometry": { "type": "Point", "coordinates": [ 120.976067336207493, 14.305366629345508 ] } },
{ "type": "Feature", "properties": { "fid": 4, "id": 4, "cluster_id": "147", "column": null, "row": "C" }, "geometry": { "type": "Point", "coordinates": [ 120.976080050345161, 14.305367751181185 ] } },
{ "type": "Feature", "properties": { "fid": 5, "id": 5, "cluster_id": "147", "column": null, "row": "C" }, "geometry": { "type": "Point", "coordinates": [ 120.976092764482829, 14.305368499071635 ] } },
{ "type": "Feature", "properties": { "fid": 6, "id": 6, "cluster_id": "147", "column": null, "row": "C" }, "geometry": { "type": "Point", "coordinates": [ 120.976105852565723, 14.305369246962087 ] } },
{ "type": "Feature", "properties": { "fid": 7, "id": 7, "cluster_id": "147", "column": null, "row": "C" }, "geometry": { "type": "Point", "coordinates": [ 120.976116323032031, 14.305369620907312 ] } },
{ "type": "Feature", "properties": { "fid": 8, "id": 8, "cluster_id": "147", "column": null, "row": "C" }, "geometry": { "type": "Point", "coordinates": [ 120.976126793498352, 14.305370368797764 ] } },
{ "type": "Feature", "properties": { "fid": 9, "id": 9, "cluster_id": "147", "column": null, "row": "C" }, "geometry": { "type": "Point", "coordinates": [ 120.976135020293313, 14.305371490633439 ] } },
{ "type": "Feature", "properties": { "fid": 10, "id": 10, "cluster_id": "147", "column": null, "row": "C" }, "geometry": { "type": "Point", "coordinates": [ 120.97614549075962, 14.305371490633439 ] } },
{ "type": "Feature", "properties": { "fid": 11, "id": 11, "cluster_id": "147", "column": null, "row": "C" }, "geometry": { "type": "Point", "coordinates": [ 120.976155587280715, 14.305371864578666 ] } },
{ "type": "Feature", "properties": { "fid": 12, "id": 12, "cluster_id": "147", "column": null, "row": "C" }, "geometry": { "type": "Point", "coordinates": [ 120.976165683801796, 14.305373360359567 ] } },
{ "type": "Feature", "properties": { "fid": 13, "id": 13, "cluster_id": "147", "column": null, "row": "C" }, "geometry": { "type": "Point", "coordinates": [ 120.976175032432437, 14.305373734304792 ] } },
{ "type": "Feature", "properties": { "fid": 14, "id": 14, "cluster_id": "147", "column": null, "row": "C" }, "geometry": { "type": "Point", "coordinates": [ 120.976185502898744, 14.305374482195242 ] } },
{ "type": "Feature", "properties": { "fid": 15, "id": 15, "cluster_id": "147", "column": null, "row": "C" }, "geometry": { "type": "Point", "coordinates": [ 120.976194477584158, 14.305375230085694 ] } },
{ "type": "Feature", "properties": { "fid": 16, "id": 16, "cluster_id": "147", "column": null, "row": "C" }, "geometry": { "type": "Point", "coordinates": [ 120.9762038262148, 14.305375604030919 ] } },
{ "type": "Feature", "properties": { "fid": 17, "id": 17, "cluster_id": "147", "column": null, "row": "C" }, "geometry": { "type": "Point", "coordinates": [ 120.976213548790653, 14.305375977976144 ] } },
{ "type": "Feature", "properties": { "fid": 18, "id": 18, "cluster_id": "147", "column": null, "row": "C" }, "geometry": { "type": "Point", "coordinates": [ 120.976222523476068, 14.305377099811821 ] } },
{ "type": "Feature", "properties": { "fid": 19, "id": 19, "cluster_id": "147", "column": null, "row": "C" }, "geometry": { "type": "Point", "coordinates": [ 120.976232993942389, 14.305377847702273 ] } },
{ "type": "Feature", "properties": { "fid": 20, "id": 20, "cluster_id": "147", "column": null, "row": "C" }, "geometry": { "type": "Point", "coordinates": [ 120.976241220737336, 14.30537896953795 ] } },
{ "type": "Feature", "properties": { "fid": 21, "id": 21, "cluster_id": "147", "column": null, "row": "C" }, "geometry": { "type": "Point", "coordinates": [ 120.97625019542275, 14.305380091373625 ] } },
{ "type": "Feature", "properties": { "fid": 22, "id": 22, "cluster_id": "147", "column": null, "row": "C" }, "geometry": { "type": "Point", "coordinates": [ 120.976259917998618, 14.305380465318851 ] } },
{ "type": "Feature", "properties": { "fid": 23, "id": 23, "cluster_id": "147", "column": null, "row": "C" }, "geometry": { "type": "Point", "coordinates": [ 120.976268518738806, 14.305381213209301 ] } },
{ "type": "Feature", "properties": { "fid": 24, "id": 24, "cluster_id": "147", "column": null, "row": "C" }, "geometry": { "type": "Point", "coordinates": [ 120.976276745533767, 14.305381961099753 ] } },
{ "type": "Feature", "properties": { "fid": 25, "id": 25, "cluster_id": "147", "column": null, "row": "C" }, "geometry": { "type": "Point", "coordinates": [ 120.976284598383501, 14.305381587154526 ] } },
{ "type": "Feature", "properties": { "fid": 26, "id": 26, "cluster_id": "147", "column": null, "row": "C" }, "geometry": { "type": "Point", "coordinates": [ 120.976292077288008, 14.305382708990203 ] } },
{ "type": "Feature", "properties": { "fid": 27, "id": 27, "cluster_id": "147", "column": null, "row": "C" }, "geometry": { "type": "Point", "coordinates": [ 120.976299556192515, 14.305383082935428 ] } },
{ "type": "Feature", "properties": { "fid": 28, "id": 28, "cluster_id": "147", "column": null, "row": "C" }, "geometry": { "type": "Point", "coordinates": [ 120.976307782987476, 14.305383456880655 ] } },
{ "type": "Feature", "properties": { "fid": 29, "id": 29, "cluster_id": "147", "column": null, "row": "C" }, "geometry": { "type": "Point", "coordinates": [ 120.97631563583721, 14.305384578716332 ] } },
{ "type": "Feature", "properties": { "fid": 30, "id": 30, "cluster_id": "147", "column": null, "row": "C" }, "geometry": { "type": "Point", "coordinates": [ 120.976322740796491, 14.305384952661557 ] } },
{ "type": "Feature", "properties": { "fid": 31, "id": 31, "cluster_id": "147", "column": null, "row": "C" }, "geometry": { "type": "Point", "coordinates": [ 120.976329845755785, 14.305385700552007 ] } },
{ "type": "Feature", "properties": { "fid": 32, "id": 32, "cluster_id": "147", "column": null, "row": "C" }, "geometry": { "type": "Point", "coordinates": [ 120.976336950715066, 14.305386074497234 ] } },
{ "type": "Feature", "properties": { "fid": 33, "id": 33, "cluster_id": "147", "column": null, "row": "C" }, "geometry": { "type": "Point", "coordinates": [ 120.976344429619573, 14.305386822387684 ] } },
{ "type": "Feature", "properties": { "fid": 34, "id": 34, "cluster_id": "147", "column": null, "row": "C" }, "geometry": { "type": "Point", "coordinates": [ 120.976350786688414, 14.305387196332909 ] } },
{ "type": "Feature", "properties": { "fid": 35, "id": 35, "cluster_id": "147", "column": null, "row": "C" }, "geometry": { "type": "Point", "coordinates": [ 120.976357891647694, 14.305388318168585 ] } },
{ "type": "Feature", "properties": { "fid": 36, "id": 36, "cluster_id": "147", "column": null, "row": "C" }, "geometry": { "type": "Point", "coordinates": [ 120.976365744497429, 14.30538869211381 ] } }
]
}
