{
"type": "FeatureCollection",
"name": "cltr-id-154-d-row",
"crs": { "type": "name", "properties": { "name": "urn:ogc:def:crs:OGC:1.3:CRS84" } },
"features": [
{ "type": "Feature", "properties": { "fid": 1, "id": 1, "cluster_id": "154", "column": null, "row": "D" }, "geometry": { "type": "Point", "coordinates": [ 120.976013893093864, 14.305923947530882 ] } },
{ "type": "Feature", "properties": { "fid": 2, "id": 2, "cluster_id": "154", "column": null, "row": "D" }, "geometry": { "type": "Point", "coordinates": [ 120.976024790926147, 14.305923947530882 ] } },
{ "type": "Feature", "properties": { "fid": 3, "id": 3, "cluster_id": "154", "column": null, "row": "D" }, "geometry": { "type": "Point", "coordinates": [ 120.976031842464693, 14.305926511726714 ] } },
{ "type": "Feature", "properties": { "fid": 4, "id": 4, "cluster_id": "154", "column": null, "row": "D" }, "geometry": { "type": "Point", "coordinates": [ 120.976040817150107, 14.305926511726714 ] } },
{ "type": "Feature", "properties": { "fid": 5, "id": 5, "cluster_id": "154", "column": null, "row": "D" }, "geometry": { "type": "Point", "coordinates": [ 120.976049791835507, 14.305928434873588 ] } },
{ "type": "Feature", "properties": { "fid": 6, "id": 6, "cluster_id": "154", "column": null, "row": "D" }, "geometry": { "type": "Point", "coordinates": [ 120.976060048618834, 14.305928434873588 ] } },
{ "type": "Feature", "properties": { "fid": 7, "id": 7, "cluster_id": "154", "column": null, "row": "D" }, "geometry": { "type": "Point", "coordinates": [ 120.976074792744868, 14.305931640118377 ] } },
{ "type": "Feature", "properties": { "fid": 8, "id": 8, "cluster_id": "154", "column": null, "row": "D" }, "geometry": { "type": "Point", "coordinates": [ 120.976088254772989, 14.305932281167335 ] } },
{ "type": "Feature", "properties": { "fid": 9, "id": 9, "cluster_id": "154", "column": null, "row": "D" }, "geometry": { "type": "Point", "coordinates": [ 120.976095306311521, 14.305930358020461 ] } },
{ "type": "Feature", "properties": { "fid": 10, "id": 10, "cluster_id": "154", "column": null, "row": "D" }, "geometry": { "type": "Point", "coordinates": [ 120.976101075752155, 14.305931640118377 ] } },
{ "type": "Feature", "properties": { "fid": 11, "id": 11, "cluster_id": "154", "column": null, "row": "D" }, "geometry": { "type": "Point", "coordinates": [ 120.976108768339643, 14.305933563265251 ] } },
{ "type": "Feature", "properties": { "fid": 12, "id": 12, "cluster_id": "154", "column": null, "row": "D" }, "geometry": { "type": "Point", "coordinates": [ 120.976120307220882, 14.305932922216293 ] } },
{ "type": "Feature", "properties": { "fid": 13, "id": 13, "cluster_id": "154", "column": null, "row": "D" }, "geometry": { "type": "Point", "coordinates": [ 120.976129922955252, 14.305937409558998 ] } },
{ "type": "Feature", "properties": { "fid": 14, "id": 14, "cluster_id": "154", "column": null, "row": "D" }, "geometry": { "type": "Point", "coordinates": [ 120.976139538689623, 14.30593676851004 ] } },
{ "type": "Feature", "properties": { "fid": 15, "id": 15, "cluster_id": "154", "column": null, "row": "D" }, "geometry": { "type": "Point", "coordinates": [ 120.976148513375037, 14.30593676851004 ] } },
{ "type": "Feature", "properties": { "fid": 16, "id": 16, "cluster_id": "154", "column": null, "row": "D" }, "geometry": { "type": "Point", "coordinates": [ 120.976160052256276, 14.305935486412125 ] } },
{ "type": "Feature", "properties": { "fid": 17, "id": 17, "cluster_id": "154", "column": null, "row": "D" }, "geometry": { "type": "Point", "coordinates": [ 120.976167103794822, 14.305937409558998 ] } },
{ "type": "Feature", "properties": { "fid": 18, "id": 18, "cluster_id": "154", "column": null, "row": "D" }, "geometry": { "type": "Point", "coordinates": [ 120.976176078480236, 14.305937409558998 ] } },
{ "type": "Feature", "properties": { "fid": 19, "id": 19, "cluster_id": "154", "column": null, "row": "D" }, "geometry": { "type": "Point", "coordinates": [ 120.97618441211668, 14.305938050607958 ] } },
{ "type": "Feature", "properties": { "fid": 20, "id": 20, "cluster_id": "154", "column": null, "row": "D" }, "geometry": { "type": "Point", "coordinates": [ 120.9761901815573, 14.305938050607958 ] } },
{ "type": "Feature", "properties": { "fid": 21, "id": 21, "cluster_id": "154", "column": null, "row": "D" }, "geometry": { "type": "Point", "coordinates": [ 120.976197233095846, 14.305939332705874 ] } },
{ "type": "Feature", "properties": { "fid": 22, "id": 22, "cluster_id": "154", "column": null, "row": "D" }, "geometry": { "type": "Point", "coordinates": [ 120.976203643585421, 14.305937409558998 ] } },
{ "type": "Feature", "properties": { "fid": 23, "id": 23, "cluster_id": "154", "column": null, "row": "D" }, "geometry": { "type": "Point", "coordinates": [ 120.976209413026041, 14.305938050607958 ] } },
{ "type": "Feature", "properties": { "fid": 24, "id": 24, "cluster_id": "154", "column": null, "row": "D" }, "geometry": { "type": "Point", "coordinates": [ 120.976213259319792, 14.30594061480379 ] } },
{ "type": "Feature", "properties": { "fid": 25, "id": 25, "cluster_id": "154", "column": null, "row": "D" }, "geometry": { "type": "Point", "coordinates": [ 120.976224157152075, 14.305941896901706 ] } },
{ "type": "Feature", "properties": { "fid": 26, "id": 26, "cluster_id": "154", "column": null, "row": "D" }, "geometry": { "type": "Point", "coordinates": [ 120.976253004355186, 14.305947666342329 ] } },
{ "type": "Feature", "properties": { "fid": 27, "id": 27, "cluster_id": "154", "column": null, "row": "D" }, "geometry": { "type": "Point", "coordinates": [ 120.976242106522889, 14.305946384244411 ] } },
{ "type": "Feature", "properties": { "fid": 28, "id": 28, "cluster_id": "154", "column": null, "row": "D" }, "geometry": { "type": "Point", "coordinates": [ 120.976233772886445, 14.305946384244411 ] } },
{ "type": "Feature", "properties": { "fid": 29, "id": 29, "cluster_id": "154", "column": null, "row": "D" }, "geometry": { "type": "Point", "coordinates": [ 120.976265184285381, 14.305948307391285 ] } },
{ "type": "Feature", "properties": { "fid": 30, "id": 30, "cluster_id": "154", "column": null, "row": "D" }, "geometry": { "type": "Point", "coordinates": [ 120.976274800019766, 14.305950871587116 ] } },
{ "type": "Feature", "properties": { "fid": 31, "id": 31, "cluster_id": "154", "column": null, "row": "D" }, "geometry": { "type": "Point", "coordinates": [ 120.97628249260724, 14.305951512636074 ] } },
{ "type": "Feature", "properties": { "fid": 32, "id": 32, "cluster_id": "154", "column": null, "row": "D" }, "geometry": { "type": "Point", "coordinates": [ 120.976292749390581, 14.305954076831906 ] } },
{ "type": "Feature", "properties": { "fid": 33, "id": 33, "cluster_id": "154", "column": null, "row": "D" }, "geometry": { "type": "Point", "coordinates": [ 120.976303647222849, 14.305952153685032 ] } },
{ "type": "Feature", "properties": { "fid": 34, "id": 34, "cluster_id": "154", "column": null, "row": "D" }, "geometry": { "type": "Point", "coordinates": [ 120.976315827153073, 14.305951512636074 ] } },
{ "type": "Feature", "properties": { "fid": 35, "id": 35, "cluster_id": "154", "column": null, "row": "D" }, "geometry": { "type": "Point", "coordinates": [ 120.976324801838473, 14.305950230538159 ] } },
{ "type": "Feature", "properties": { "fid": 36, "id": 36, "cluster_id": "154", "column": null, "row": "D" }, "geometry": { "type": "Point", "coordinates": [ 120.976325442887429, 14.305943178999621 ] } }
]
}
