{
"type": "FeatureCollection",
"name": "cltr-id-207-b-row",
"crs": { "type": "name", "properties": { "name": "urn:ogc:def:crs:OGC:1.3:CRS84" } },
"features": [
{ "type": "Feature", "properties": { "fid": 1, "id": 1, "cluster_id": "207", "column": null, "row": "B" }, "geometry": { "type": "Point", "coordinates": [ 120.976582559861953, 14.305870722938655 ] } },
{ "type": "Feature", "properties": { "fid": 2, "id": 2, "cluster_id": "207", "column": null, "row": "B" }, "geometry": { "type": "Point", "coordinates": [ 120.976591754907943, 14.305870722938655 ] } },
{ "type": "Feature", "properties": { "fid": 3, "id": 3, "cluster_id": "207", "column": null, "row": "B" }, "geometry": { "type": "Point", "coordinates": [ 120.976600409068865, 14.305870993381184 ] } },
{ "type": "Feature", "properties": { "fid": 4, "id": 4, "cluster_id": "207", "column": null, "row": "B" }, "geometry": { "type": "Point", "coordinates": [ 120.976608792787275, 14.305870993381184 ] } },
{ "type": "Feature", "properties": { "fid": 5, "id": 5, "cluster_id": "207", "column": null, "row": "B" }, "geometry": { "type": "Point", "coordinates": [ 120.97661717650567, 14.305872075151301 ] } },
{ "type": "Feature", "properties": { "fid": 6, "id": 6, "cluster_id": "207", "column": null, "row": "B" }, "geometry": { "type": "Point", "coordinates": [ 120.976628805534418, 14.305873968249005 ] } },
{ "type": "Feature", "properties": { "fid": 7, "id": 7, "cluster_id": "207", "column": null, "row": "B" }, "geometry": { "type": "Point", "coordinates": [ 120.97663908235053, 14.305875590904179 ] } },
{ "type": "Feature", "properties": { "fid": 8, "id": 8, "cluster_id": "207", "column": null, "row": "B" }, "geometry": { "type": "Point", "coordinates": [ 120.976650170494224, 14.305875590904179 ] } },
{ "type": "Feature", "properties": { "fid": 9, "id": 9, "cluster_id": "207", "column": null, "row": "B" }, "geometry": { "type": "Point", "coordinates": [ 120.976661258637918, 14.305877213559354 ] } },
{ "type": "Feature", "properties": { "fid": 10, "id": 10, "cluster_id": "207", "column": null, "row": "B" }, "geometry": { "type": "Point", "coordinates": [ 120.976671805896558, 14.305876943116825 ] } }
]
}
