{
"type": "FeatureCollection",
"name": "cltr-id-178-a-row",
"crs": { "type": "name", "properties": { "name": "urn:ogc:def:crs:OGC:1.3:CRS84" } },
"features": [
{ "type": "Feature", "properties": { "fid": 1, "id": 1, "cluster_id": "178", "column": null, "row": "A" }, "geometry": { "type": "Point", "coordinates": [ 120.97637185823973, 14.305769541828045 ] } },
{ "type": "Feature", "properties": { "fid": 2, "id": 2, "cluster_id": "178", "column": null, "row": "A" }, "geometry": { "type": "Point", "coordinates": [ 120.97638266958127, 14.305769965802224 ] } },
{ "type": "Feature", "properties": { "fid": 3, "id": 3, "cluster_id": "178", "column": null, "row": "A" }, "geometry": { "type": "Point", "coordinates": [ 120.976393798903473, 14.305770601763491 ] } },
{ "type": "Feature", "properties": { "fid": 4, "id": 4, "cluster_id": "178", "column": null, "row": "A" }, "geometry": { "type": "Point", "coordinates": [ 120.976402278387042, 14.305771661698939 ] } },
{ "type": "Feature", "properties": { "fid": 5, "id": 5, "cluster_id": "178", "column": null, "row": "A" }, "geometry": { "type": "Point", "coordinates": [ 120.976412241780224, 14.305772191666662 ] } },
{ "type": "Feature", "properties": { "fid": 6, "id": 6, "cluster_id": "178", "column": null, "row": "A" }, "geometry": { "type": "Point", "coordinates": [ 120.976421357225064, 14.305772933621475 ] } },
{ "type": "Feature", "properties": { "fid": 7, "id": 7, "cluster_id": "178", "column": null, "row": "A" }, "geometry": { "type": "Point", "coordinates": [ 120.976431320618261, 14.305773675576287 ] } },
{ "type": "Feature", "properties": { "fid": 8, "id": 8, "cluster_id": "178", "column": null, "row": "A" }, "geometry": { "type": "Point", "coordinates": [ 120.976439270134108, 14.305774523524644 ] } },
{ "type": "Feature", "properties": { "fid": 9, "id": 9, "cluster_id": "178", "column": null, "row": "A" }, "geometry": { "type": "Point", "coordinates": [ 120.976447537630605, 14.305775053492367 ] } },
{ "type": "Feature", "properties": { "fid": 10, "id": 10, "cluster_id": "178", "column": null, "row": "A" }, "geometry": { "type": "Point", "coordinates": [ 120.976456017114174, 14.305775901440724 ] } },
{ "type": "Feature", "properties": { "fid": 11, "id": 11, "cluster_id": "178", "column": null, "row": "A" }, "geometry": { "type": "Point", "coordinates": [ 120.976463436662286, 14.305776431408447 ] } },
{ "type": "Feature", "properties": { "fid": 12, "id": 12, "cluster_id": "178", "column": null, "row": "A" }, "geometry": { "type": "Point", "coordinates": [ 120.976470538229776, 14.305777173363261 ] } },
{ "type": "Feature", "properties": { "fid": 13, "id": 13, "cluster_id": "178", "column": null, "row": "A" }, "geometry": { "type": "Point", "coordinates": [ 120.976477851784367, 14.305777703330982 ] } }
]
}
