{
"type": "FeatureCollection",
"name": "cltr-id-155-e-row",
"crs": { "type": "name", "properties": { "name": "urn:ogc:def:crs:OGC:1.3:CRS84" } },
"features": [
{ "type": "Feature", "properties": { "fid": 1, "id": 1, "cluster_id": "155", "column": null, "row": "E" }, "geometry": { "type": "Point", "coordinates": [ 120.976017098338673, 14.305907600782456 ] } },
{ "type": "Feature", "properties": { "fid": 2, "id": 2, "cluster_id": "155", "column": null, "row": "E" }, "geometry": { "type": "Point", "coordinates": [ 120.976015816240761, 14.305900549243919 ] } },
{ "type": "Feature", "properties": { "fid": 3, "id": 3, "cluster_id": "155", "column": null, "row": "E" }, "geometry": { "type": "Point", "coordinates": [ 120.976018380436599, 14.305895741376734 ] } },
{ "type": "Feature", "properties": { "fid": 4, "id": 4, "cluster_id": "155", "column": null, "row": "E" }, "geometry": { "type": "Point", "coordinates": [ 120.976025111450653, 14.305895420852256 ] } },
{ "type": "Feature", "properties": { "fid": 5, "id": 5, "cluster_id": "155", "column": null, "row": "E" }, "geometry": { "type": "Point", "coordinates": [ 120.976035688758458, 14.305896382425692 ] } },
{ "type": "Feature", "properties": { "fid": 6, "id": 6, "cluster_id": "155", "column": null, "row": "E" }, "geometry": { "type": "Point", "coordinates": [ 120.976042099248033, 14.305897343999129 ] } },
{ "type": "Feature", "properties": { "fid": 7, "id": 7, "cluster_id": "155", "column": null, "row": "E" }, "geometry": { "type": "Point", "coordinates": [ 120.976052997080316, 14.305897985048087 ] } },
{ "type": "Feature", "properties": { "fid": 8, "id": 8, "cluster_id": "155", "column": null, "row": "E" }, "geometry": { "type": "Point", "coordinates": [ 120.976061010192296, 14.305901190292877 ] } },
{ "type": "Feature", "properties": { "fid": 9, "id": 9, "cluster_id": "155", "column": null, "row": "E" }, "geometry": { "type": "Point", "coordinates": [ 120.976070305402189, 14.305900869768397 ] } },
{ "type": "Feature", "properties": { "fid": 10, "id": 10, "cluster_id": "155", "column": null, "row": "E" }, "geometry": { "type": "Point", "coordinates": [ 120.976077036416243, 14.305900549243919 ] } },
{ "type": "Feature", "properties": { "fid": 11, "id": 11, "cluster_id": "155", "column": null, "row": "E" }, "geometry": { "type": "Point", "coordinates": [ 120.976086652150613, 14.305901190292877 ] } },
{ "type": "Feature", "properties": { "fid": 12, "id": 12, "cluster_id": "155", "column": null, "row": "E" }, "geometry": { "type": "Point", "coordinates": [ 120.976094344738115, 14.305902792915271 ] } },
{ "type": "Feature", "properties": { "fid": 13, "id": 13, "cluster_id": "155", "column": null, "row": "E" }, "geometry": { "type": "Point", "coordinates": [ 120.976105883619354, 14.305903433964229 ] } },
{ "type": "Feature", "properties": { "fid": 14, "id": 14, "cluster_id": "155", "column": null, "row": "E" }, "geometry": { "type": "Point", "coordinates": [ 120.976112614633408, 14.305903113439751 ] } },
{ "type": "Feature", "properties": { "fid": 15, "id": 15, "cluster_id": "155", "column": null, "row": "E" }, "geometry": { "type": "Point", "coordinates": [ 120.976122550892256, 14.305905036586624 ] } },
{ "type": "Feature", "properties": { "fid": 16, "id": 16, "cluster_id": "155", "column": null, "row": "E" }, "geometry": { "type": "Point", "coordinates": [ 120.976131205053193, 14.305906959733498 ] } },
{ "type": "Feature", "properties": { "fid": 17, "id": 17, "cluster_id": "155", "column": null, "row": "E" }, "geometry": { "type": "Point", "coordinates": [ 120.976140500263085, 14.305904395537667 ] } },
{ "type": "Feature", "properties": { "fid": 18, "id": 18, "cluster_id": "155", "column": null, "row": "E" }, "geometry": { "type": "Point", "coordinates": [ 120.976147551801617, 14.305908241831414 ] } },
{ "type": "Feature", "properties": { "fid": 19, "id": 19, "cluster_id": "155", "column": null, "row": "E" }, "geometry": { "type": "Point", "coordinates": [ 120.976157167535987, 14.305905677635582 ] } },
{ "type": "Feature", "properties": { "fid": 20, "id": 20, "cluster_id": "155", "column": null, "row": "E" }, "geometry": { "type": "Point", "coordinates": [ 120.976164219074533, 14.30590663920902 ] } },
{ "type": "Feature", "properties": { "fid": 21, "id": 21, "cluster_id": "155", "column": null, "row": "E" }, "geometry": { "type": "Point", "coordinates": [ 120.976173514284412, 14.305907280257978 ] } },
{ "type": "Feature", "properties": { "fid": 22, "id": 22, "cluster_id": "155", "column": null, "row": "E" }, "geometry": { "type": "Point", "coordinates": [ 120.976182488969826, 14.305909203404852 ] } },
{ "type": "Feature", "properties": { "fid": 23, "id": 23, "cluster_id": "155", "column": null, "row": "E" }, "geometry": { "type": "Point", "coordinates": [ 120.976189219983894, 14.305907280257978 ] } },
{ "type": "Feature", "properties": { "fid": 24, "id": 24, "cluster_id": "155", "column": null, "row": "E" }, "geometry": { "type": "Point", "coordinates": [ 120.976198515193772, 14.305910164978288 ] } },
{ "type": "Feature", "properties": { "fid": 25, "id": 25, "cluster_id": "155", "column": null, "row": "E" }, "geometry": { "type": "Point", "coordinates": [ 120.976207489879187, 14.305910806027246 ] } },
{ "type": "Feature", "properties": { "fid": 26, "id": 26, "cluster_id": "155", "column": null, "row": "E" }, "geometry": { "type": "Point", "coordinates": [ 120.976215182466689, 14.30590952392933 ] } },
{ "type": "Feature", "properties": { "fid": 27, "id": 27, "cluster_id": "155", "column": null, "row": "E" }, "geometry": { "type": "Point", "coordinates": [ 120.976221272431786, 14.305913049698599 ] } },
{ "type": "Feature", "properties": { "fid": 28, "id": 28, "cluster_id": "155", "column": null, "row": "E" }, "geometry": { "type": "Point", "coordinates": [ 120.976233452361981, 14.305912408649641 ] } },
{ "type": "Feature", "properties": { "fid": 29, "id": 29, "cluster_id": "155", "column": null, "row": "E" }, "geometry": { "type": "Point", "coordinates": [ 120.976242427047396, 14.305913049698599 ] } },
{ "type": "Feature", "properties": { "fid": 30, "id": 30, "cluster_id": "155", "column": null, "row": "E" }, "geometry": { "type": "Point", "coordinates": [ 120.976254286453113, 14.305915293369951 ] } },
{ "type": "Feature", "properties": { "fid": 31, "id": 31, "cluster_id": "155", "column": null, "row": "E" }, "geometry": { "type": "Point", "coordinates": [ 120.976265825334366, 14.305914331796515 ] } },
{ "type": "Feature", "properties": { "fid": 32, "id": 32, "cluster_id": "155", "column": null, "row": "E" }, "geometry": { "type": "Point", "coordinates": [ 120.976276082117693, 14.305915613894431 ] } },
{ "type": "Feature", "properties": { "fid": 33, "id": 33, "cluster_id": "155", "column": null, "row": "E" }, "geometry": { "type": "Point", "coordinates": [ 120.976286659425497, 14.305913690747557 ] } },
{ "type": "Feature", "properties": { "fid": 34, "id": 34, "cluster_id": "155", "column": null, "row": "E" }, "geometry": { "type": "Point", "coordinates": [ 120.976298198306736, 14.305918178090263 ] } },
{ "type": "Feature", "properties": { "fid": 35, "id": 35, "cluster_id": "155", "column": null, "row": "E" }, "geometry": { "type": "Point", "coordinates": [ 120.976307493516629, 14.305916895992347 ] } },
{ "type": "Feature", "properties": { "fid": 36, "id": 36, "cluster_id": "155", "column": null, "row": "E" }, "geometry": { "type": "Point", "coordinates": [ 120.976316468202043, 14.305920101237136 ] } }
]
}
