{
"type": "FeatureCollection",
"name": "cltr-id-153-d-row",
"crs": { "type": "name", "properties": { "name": "urn:ogc:def:crs:OGC:1.3:CRS84" } },
"features": [
{ "type": "Feature", "properties": { "fid": 1, "id": 1, "cluster_id": "153", "column": null, "row": "D" }, "geometry": { "type": "Point", "coordinates": [ 120.976033445087197, 14.305772659976805 ] } },
{ "type": "Feature", "properties": { "fid": 2, "id": 2, "cluster_id": "153", "column": null, "row": "D" }, "geometry": { "type": "Point", "coordinates": [ 120.976034006005037, 14.305764807127071 ] } },
{ "type": "Feature", "properties": { "fid": 3, "id": 3, "cluster_id": "153", "column": null, "row": "D" }, "geometry": { "type": "Point", "coordinates": [ 120.976045224361798, 14.305764246209232 ] } },
{ "type": "Feature", "properties": { "fid": 4, "id": 4, "cluster_id": "153", "column": null, "row": "D" }, "geometry": { "type": "Point", "coordinates": [ 120.976055881800718, 14.305766489880584 ] } },
{ "type": "Feature", "properties": { "fid": 5, "id": 5, "cluster_id": "153", "column": null, "row": "D" }, "geometry": { "type": "Point", "coordinates": [ 120.976063734650452, 14.305767050798423 ] } },
{ "type": "Feature", "properties": { "fid": 6, "id": 6, "cluster_id": "153", "column": null, "row": "D" }, "geometry": { "type": "Point", "coordinates": [ 120.976072709335867, 14.305768733551938 ] } },
{ "type": "Feature", "properties": { "fid": 7, "id": 7, "cluster_id": "153", "column": null, "row": "D" }, "geometry": { "type": "Point", "coordinates": [ 120.976081684021281, 14.305768733551938 ] } },
{ "type": "Feature", "properties": { "fid": 8, "id": 8, "cluster_id": "153", "column": null, "row": "D" }, "geometry": { "type": "Point", "coordinates": [ 120.976089536871015, 14.305769855387615 ] } },
{ "type": "Feature", "properties": { "fid": 9, "id": 9, "cluster_id": "153", "column": null, "row": "D" }, "geometry": { "type": "Point", "coordinates": [ 120.97609963339211, 14.305772099058967 ] } },
{ "type": "Feature", "properties": { "fid": 10, "id": 10, "cluster_id": "153", "column": null, "row": "D" }, "geometry": { "type": "Point", "coordinates": [ 120.97610972991319, 14.305772099058967 ] } },
{ "type": "Feature", "properties": { "fid": 11, "id": 11, "cluster_id": "153", "column": null, "row": "D" }, "geometry": { "type": "Point", "coordinates": [ 120.976118704598605, 14.305772099058967 ] } },
{ "type": "Feature", "properties": { "fid": 12, "id": 12, "cluster_id": "153", "column": null, "row": "D" }, "geometry": { "type": "Point", "coordinates": [ 120.976127118366179, 14.305778269155187 ] } },
{ "type": "Feature", "properties": { "fid": 13, "id": 13, "cluster_id": "153", "column": null, "row": "D" }, "geometry": { "type": "Point", "coordinates": [ 120.976136653969419, 14.305775464565995 ] } },
{ "type": "Feature", "properties": { "fid": 14, "id": 14, "cluster_id": "153", "column": null, "row": "D" }, "geometry": { "type": "Point", "coordinates": [ 120.976145628654834, 14.305773781812482 ] } },
{ "type": "Feature", "properties": { "fid": 15, "id": 15, "cluster_id": "153", "column": null, "row": "D" }, "geometry": { "type": "Point", "coordinates": [ 120.976151237833221, 14.305778830073026 ] } },
{ "type": "Feature", "properties": { "fid": 16, "id": 16, "cluster_id": "153", "column": null, "row": "D" }, "geometry": { "type": "Point", "coordinates": [ 120.976160212518636, 14.305773781812482 ] } },
{ "type": "Feature", "properties": { "fid": 17, "id": 17, "cluster_id": "153", "column": null, "row": "D" }, "geometry": { "type": "Point", "coordinates": [ 120.976170869957556, 14.305778830073026 ] } },
{ "type": "Feature", "properties": { "fid": 18, "id": 18, "cluster_id": "153", "column": null, "row": "D" }, "geometry": { "type": "Point", "coordinates": [ 120.97617872280729, 14.305779951908702 ] } },
{ "type": "Feature", "properties": { "fid": 19, "id": 19, "cluster_id": "153", "column": null, "row": "D" }, "geometry": { "type": "Point", "coordinates": [ 120.976189941164051, 14.30577714731951 ] } },
{ "type": "Feature", "properties": { "fid": 20, "id": 20, "cluster_id": "153", "column": null, "row": "D" }, "geometry": { "type": "Point", "coordinates": [ 120.976194989424599, 14.305779390990864 ] } },
{ "type": "Feature", "properties": { "fid": 21, "id": 21, "cluster_id": "153", "column": null, "row": "D" }, "geometry": { "type": "Point", "coordinates": [ 120.976203403192173, 14.305782195580054 ] } },
{ "type": "Feature", "properties": { "fid": 22, "id": 22, "cluster_id": "153", "column": null, "row": "D" }, "geometry": { "type": "Point", "coordinates": [ 120.976209573288386, 14.305781073744377 ] } },
{ "type": "Feature", "properties": { "fid": 23, "id": 23, "cluster_id": "153", "column": null, "row": "D" }, "geometry": { "type": "Point", "coordinates": [ 120.976220230727321, 14.305781073744377 ] } },
{ "type": "Feature", "properties": { "fid": 24, "id": 24, "cluster_id": "153", "column": null, "row": "D" }, "geometry": { "type": "Point", "coordinates": [ 120.976226400823535, 14.305781073744377 ] } },
{ "type": "Feature", "properties": { "fid": 25, "id": 25, "cluster_id": "153", "column": null, "row": "D" }, "geometry": { "type": "Point", "coordinates": [ 120.976234814591109, 14.305783317415731 ] } },
{ "type": "Feature", "properties": { "fid": 26, "id": 26, "cluster_id": "153", "column": null, "row": "D" }, "geometry": { "type": "Point", "coordinates": [ 120.976244350194364, 14.305784439251408 ] } },
{ "type": "Feature", "properties": { "fid": 27, "id": 27, "cluster_id": "153", "column": null, "row": "D" }, "geometry": { "type": "Point", "coordinates": [ 120.976254446715444, 14.305787243840598 ] } },
{ "type": "Feature", "properties": { "fid": 28, "id": 28, "cluster_id": "153", "column": null, "row": "D" }, "geometry": { "type": "Point", "coordinates": [ 120.976261177729512, 14.305785561087083 ] } },
{ "type": "Feature", "properties": { "fid": 29, "id": 29, "cluster_id": "153", "column": null, "row": "D" }, "geometry": { "type": "Point", "coordinates": [ 120.976269591497086, 14.305785000169246 ] } },
{ "type": "Feature", "properties": { "fid": 30, "id": 30, "cluster_id": "153", "column": null, "row": "D" }, "geometry": { "type": "Point", "coordinates": [ 120.976282492607353, 14.305787243840598 ] } },
{ "type": "Feature", "properties": { "fid": 31, "id": 31, "cluster_id": "153", "column": null, "row": "D" }, "geometry": { "type": "Point", "coordinates": [ 120.976290345457087, 14.305788926594113 ] } },
{ "type": "Feature", "properties": { "fid": 32, "id": 32, "cluster_id": "153", "column": null, "row": "D" }, "geometry": { "type": "Point", "coordinates": [ 120.976298759224662, 14.30579004842979 ] } },
{ "type": "Feature", "properties": { "fid": 33, "id": 33, "cluster_id": "153", "column": null, "row": "D" }, "geometry": { "type": "Point", "coordinates": [ 120.976308294827916, 14.305788926594113 ] } },
{ "type": "Feature", "properties": { "fid": 34, "id": 34, "cluster_id": "153", "column": null, "row": "D" }, "geometry": { "type": "Point", "coordinates": [ 120.97631558675981, 14.305788365676275 ] } },
{ "type": "Feature", "properties": { "fid": 35, "id": 35, "cluster_id": "153", "column": null, "row": "D" }, "geometry": { "type": "Point", "coordinates": [ 120.976321756856038, 14.305792292101142 ] } },
{ "type": "Feature", "properties": { "fid": 36, "id": 36, "cluster_id": "153", "column": null, "row": "D" }, "geometry": { "type": "Point", "coordinates": [ 120.976331853377118, 14.305791170265465 ] } }
]
}
