{
"type": "FeatureCollection",
"name": "cltr-id-174-b-row",
"crs": { "type": "name", "properties": { "name": "urn:ogc:def:crs:OGC:1.3:CRS84" } },
"features": [
{ "type": "Feature", "properties": { "fid": 1, "id": 1, "cluster_id": "174", "column": null, "row": "B" }, "geometry": { "type": "Point", "coordinates": [ 120.976391162314016, 14.305484949160689 ] } },
{ "type": "Feature", "properties": { "fid": 2, "id": 2, "cluster_id": "174", "column": null, "row": "B" }, "geometry": { "type": "Point", "coordinates": [ 120.976401761668484, 14.305486221083225 ] } },
{ "type": "Feature", "properties": { "fid": 3, "id": 3, "cluster_id": "174", "column": null, "row": "B" }, "geometry": { "type": "Point", "coordinates": [ 120.976411513074595, 14.305486857044492 ] } },
{ "type": "Feature", "properties": { "fid": 4, "id": 4, "cluster_id": "174", "column": null, "row": "B" }, "geometry": { "type": "Point", "coordinates": [ 120.976420416532335, 14.305488128967028 ] } },
{ "type": "Feature", "properties": { "fid": 5, "id": 5, "cluster_id": "174", "column": null, "row": "B" }, "geometry": { "type": "Point", "coordinates": [ 120.976429531977175, 14.305488764928295 ] } },
{ "type": "Feature", "properties": { "fid": 6, "id": 6, "cluster_id": "174", "column": null, "row": "B" }, "geometry": { "type": "Point", "coordinates": [ 120.976437587486572, 14.305489612876654 ] } },
{ "type": "Feature", "properties": { "fid": 7, "id": 7, "cluster_id": "174", "column": null, "row": "B" }, "geometry": { "type": "Point", "coordinates": [ 120.976445854983055, 14.305490248837922 ] } },
{ "type": "Feature", "properties": { "fid": 8, "id": 8, "cluster_id": "174", "column": null, "row": "B" }, "geometry": { "type": "Point", "coordinates": [ 120.976453698505352, 14.305491944734635 ] } },
{ "type": "Feature", "properties": { "fid": 9, "id": 9, "cluster_id": "174", "column": null, "row": "B" }, "geometry": { "type": "Point", "coordinates": [ 120.976462601963107, 14.305491944734635 ] } },
{ "type": "Feature", "properties": { "fid": 10, "id": 10, "cluster_id": "174", "column": null, "row": "B" }, "geometry": { "type": "Point", "coordinates": [ 120.976471717407946, 14.305492368708814 ] } },
{ "type": "Feature", "properties": { "fid": 11, "id": 11, "cluster_id": "174", "column": null, "row": "B" }, "geometry": { "type": "Point", "coordinates": [ 120.976479984904429, 14.305493216657171 ] } },
{ "type": "Feature", "properties": { "fid": 12, "id": 12, "cluster_id": "174", "column": null, "row": "B" }, "geometry": { "type": "Point", "coordinates": [ 120.976488676375084, 14.305494064605528 ] } },
{ "type": "Feature", "properties": { "fid": 13, "id": 13, "cluster_id": "174", "column": null, "row": "B" }, "geometry": { "type": "Point", "coordinates": [ 120.976498215794109, 14.305494488579706 ] } }
]
}
