{
"type": "FeatureCollection",
"name": "cltr-id-150-c-row",
"crs": { "type": "name", "properties": { "name": "urn:ogc:def:crs:OGC:1.3:CRS84" } },
"features": [
{ "type": "Feature", "properties": { "fid": 1, "id": 1, "cluster_id": "150", "column": null, "row": "C" }, "geometry": { "type": "Point", "coordinates": [ 120.976036851142553, 14.305671409426195 ] } },
{ "type": "Feature", "properties": { "fid": 2, "id": 2, "cluster_id": "150", "column": null, "row": "C" }, "geometry": { "type": "Point", "coordinates": [ 120.976046386745807, 14.305671409426195 ] } },
{ "type": "Feature", "properties": { "fid": 3, "id": 3, "cluster_id": "150", "column": null, "row": "C" }, "geometry": { "type": "Point", "coordinates": [ 120.976058166020408, 14.30567309217971 ] } },
{ "type": "Feature", "properties": { "fid": 4, "id": 4, "cluster_id": "150", "column": null, "row": "C" }, "geometry": { "type": "Point", "coordinates": [ 120.976068823459329, 14.305674774933225 ] } },
{ "type": "Feature", "properties": { "fid": 5, "id": 5, "cluster_id": "150", "column": null, "row": "C" }, "geometry": { "type": "Point", "coordinates": [ 120.976080041816104, 14.305674774933225 ] } },
{ "type": "Feature", "properties": { "fid": 6, "id": 6, "cluster_id": "150", "column": null, "row": "C" }, "geometry": { "type": "Point", "coordinates": [ 120.976090699255025, 14.305675896768902 ] } },
{ "type": "Feature", "properties": { "fid": 7, "id": 7, "cluster_id": "150", "column": null, "row": "C" }, "geometry": { "type": "Point", "coordinates": [ 120.976100234858279, 14.305677579522415 ] } },
{ "type": "Feature", "properties": { "fid": 8, "id": 8, "cluster_id": "150", "column": null, "row": "C" }, "geometry": { "type": "Point", "coordinates": [ 120.97611145321504, 14.305678701358092 ] } },
{ "type": "Feature", "properties": { "fid": 9, "id": 9, "cluster_id": "150", "column": null, "row": "C" }, "geometry": { "type": "Point", "coordinates": [ 120.976120427900455, 14.30567926227593 ] } },
{ "type": "Feature", "properties": { "fid": 10, "id": 10, "cluster_id": "150", "column": null, "row": "C" }, "geometry": { "type": "Point", "coordinates": [ 120.976129963503695, 14.305680384111607 ] } },
{ "type": "Feature", "properties": { "fid": 11, "id": 11, "cluster_id": "150", "column": null, "row": "C" }, "geometry": { "type": "Point", "coordinates": [ 120.976139499106949, 14.305680384111607 ] } },
{ "type": "Feature", "properties": { "fid": 12, "id": 12, "cluster_id": "150", "column": null, "row": "C" }, "geometry": { "type": "Point", "coordinates": [ 120.97614959562803, 14.305681505947282 ] } },
{ "type": "Feature", "properties": { "fid": 13, "id": 13, "cluster_id": "150", "column": null, "row": "C" }, "geometry": { "type": "Point", "coordinates": [ 120.976158009395604, 14.305683749618636 ] } },
{ "type": "Feature", "properties": { "fid": 14, "id": 14, "cluster_id": "150", "column": null, "row": "C" }, "geometry": { "type": "Point", "coordinates": [ 120.976168105916699, 14.305681505947282 ] } },
{ "type": "Feature", "properties": { "fid": 15, "id": 15, "cluster_id": "150", "column": null, "row": "C" }, "geometry": { "type": "Point", "coordinates": [ 120.976175958766433, 14.305683749618636 ] } },
{ "type": "Feature", "properties": { "fid": 16, "id": 16, "cluster_id": "150", "column": null, "row": "C" }, "geometry": { "type": "Point", "coordinates": [ 120.976187738041034, 14.305684871454313 ] } },
{ "type": "Feature", "properties": { "fid": 17, "id": 17, "cluster_id": "150", "column": null, "row": "C" }, "geometry": { "type": "Point", "coordinates": [ 120.976197273644289, 14.305685432372151 ] } },
{ "type": "Feature", "properties": { "fid": 18, "id": 18, "cluster_id": "150", "column": null, "row": "C" }, "geometry": { "type": "Point", "coordinates": [ 120.976206809247529, 14.305685432372151 ] } },
{ "type": "Feature", "properties": { "fid": 19, "id": 19, "cluster_id": "150", "column": null, "row": "C" }, "geometry": { "type": "Point", "coordinates": [ 120.976216344850783, 14.30568879787918 ] } },
{ "type": "Feature", "properties": { "fid": 20, "id": 20, "cluster_id": "150", "column": null, "row": "C" }, "geometry": { "type": "Point", "coordinates": [ 120.976226441371878, 14.305687676043503 ] } },
{ "type": "Feature", "properties": { "fid": 21, "id": 21, "cluster_id": "150", "column": null, "row": "C" }, "geometry": { "type": "Point", "coordinates": [ 120.976236537892959, 14.305688236961341 ] } },
{ "type": "Feature", "properties": { "fid": 22, "id": 22, "cluster_id": "150", "column": null, "row": "C" }, "geometry": { "type": "Point", "coordinates": [ 120.976243268907012, 14.30568879787918 ] } },
{ "type": "Feature", "properties": { "fid": 23, "id": 23, "cluster_id": "150", "column": null, "row": "C" }, "geometry": { "type": "Point", "coordinates": [ 120.976253365428107, 14.305687676043503 ] } },
{ "type": "Feature", "properties": { "fid": 24, "id": 24, "cluster_id": "150", "column": null, "row": "C" }, "geometry": { "type": "Point", "coordinates": [ 120.976261779195681, 14.305689358797018 ] } },
{ "type": "Feature", "properties": { "fid": 25, "id": 25, "cluster_id": "150", "column": null, "row": "C" }, "geometry": { "type": "Point", "coordinates": [ 120.976270753881096, 14.305689358797018 ] } },
{ "type": "Feature", "properties": { "fid": 26, "id": 26, "cluster_id": "150", "column": null, "row": "C" }, "geometry": { "type": "Point", "coordinates": [ 120.976280289484336, 14.305691041550533 ] } },
{ "type": "Feature", "properties": { "fid": 27, "id": 27, "cluster_id": "150", "column": null, "row": "C" }, "geometry": { "type": "Point", "coordinates": [ 120.97628870325191, 14.305689358797018 ] } },
{ "type": "Feature", "properties": { "fid": 28, "id": 28, "cluster_id": "150", "column": null, "row": "C" }, "geometry": { "type": "Point", "coordinates": [ 120.976299921608671, 14.305691041550533 ] } },
{ "type": "Feature", "properties": { "fid": 29, "id": 29, "cluster_id": "150", "column": null, "row": "C" }, "geometry": { "type": "Point", "coordinates": [ 120.976307774458419, 14.305692163386208 ] } },
{ "type": "Feature", "properties": { "fid": 30, "id": 30, "cluster_id": "150", "column": null, "row": "C" }, "geometry": { "type": "Point", "coordinates": [ 120.976313383636793, 14.305694407057562 ] } },
{ "type": "Feature", "properties": { "fid": 31, "id": 31, "cluster_id": "150", "column": null, "row": "C" }, "geometry": { "type": "Point", "coordinates": [ 120.976321236486527, 14.305692724304047 ] } },
{ "type": "Feature", "properties": { "fid": 32, "id": 32, "cluster_id": "150", "column": null, "row": "C" }, "geometry": { "type": "Point", "coordinates": [ 120.976330211171941, 14.305694407057562 ] } },
{ "type": "Feature", "properties": { "fid": 33, "id": 33, "cluster_id": "150", "column": null, "row": "C" }, "geometry": { "type": "Point", "coordinates": [ 120.976337503103835, 14.305696089811077 ] } },
{ "type": "Feature", "properties": { "fid": 34, "id": 34, "cluster_id": "150", "column": null, "row": "C" }, "geometry": { "type": "Point", "coordinates": [ 120.976344795035729, 14.305696089811077 ] } },
{ "type": "Feature", "properties": { "fid": 35, "id": 35, "cluster_id": "150", "column": null, "row": "C" }, "geometry": { "type": "Point", "coordinates": [ 120.976349282378436, 14.305691602468372 ] } },
{ "type": "Feature", "properties": { "fid": 36, "id": 36, "cluster_id": "150", "column": null, "row": "C" }, "geometry": { "type": "Point", "coordinates": [ 120.976348721460596, 14.305684310536474 ] } }
]
}
