{
"type": "FeatureCollection",
"name": "cltr-id-206-a-row",
"crs": { "type": "name", "properties": { "name": "urn:ogc:def:crs:OGC:1.3:CRS84" } },
"features": [
{ "type": "Feature", "properties": { "fid": 1, "id": 1, "cluster_id": "206", "column": null, "row": "A" }, "geometry": { "type": "Point", "coordinates": [ 120.9765793145516, 14.305919943478953 ] } },
{ "type": "Feature", "properties": { "fid": 2, "id": 2, "cluster_id": "206", "column": null, "row": "A" }, "geometry": { "type": "Point", "coordinates": [ 120.9765868869424, 14.305920754806539 ] } },
{ "type": "Feature", "properties": { "fid": 3, "id": 3, "cluster_id": "206", "column": null, "row": "A" }, "geometry": { "type": "Point", "coordinates": [ 120.976595270660809, 14.305921566134128 ] } },
{ "type": "Feature", "properties": { "fid": 4, "id": 4, "cluster_id": "206", "column": null, "row": "A" }, "geometry": { "type": "Point", "coordinates": [ 120.976602843051637, 14.305922107019185 ] } },
{ "type": "Feature", "properties": { "fid": 5, "id": 5, "cluster_id": "206", "column": null, "row": "A" }, "geometry": { "type": "Point", "coordinates": [ 120.976614742522926, 14.305922918346772 ] } },
{ "type": "Feature", "properties": { "fid": 6, "id": 6, "cluster_id": "206", "column": null, "row": "A" }, "geometry": { "type": "Point", "coordinates": [ 120.976626101109133, 14.305924000116889 ] } },
{ "type": "Feature", "properties": { "fid": 7, "id": 7, "cluster_id": "206", "column": null, "row": "A" }, "geometry": { "type": "Point", "coordinates": [ 120.976636648367759, 14.305924541001948 ] } },
{ "type": "Feature", "properties": { "fid": 8, "id": 8, "cluster_id": "206", "column": null, "row": "A" }, "geometry": { "type": "Point", "coordinates": [ 120.976648818281589, 14.305925352329535 ] } },
{ "type": "Feature", "properties": { "fid": 9, "id": 9, "cluster_id": "206", "column": null, "row": "A" }, "geometry": { "type": "Point", "coordinates": [ 120.976659095097688, 14.305926704542179 ] } },
{ "type": "Feature", "properties": { "fid": 10, "id": 10, "cluster_id": "206", "column": null, "row": "A" }, "geometry": { "type": "Point", "coordinates": [ 120.976669371913786, 14.305927515869769 ] } }
]
}
