{
"type": "FeatureCollection",
"name": "cltr-id-187-e-row",
"crs": { "type": "name", "properties": { "name": "urn:ogc:def:crs:OGC:1.3:CRS84" } },
"features": [
{ "type": "Feature", "properties": { "fid": 1, "id": 1, "cluster_id": "187", "column": null, "row": "E" }, "geometry": { "type": "Point", "coordinates": [ 120.976585534729779, 14.30568384715105 ] } },
{ "type": "Feature", "properties": { "fid": 2, "id": 2, "cluster_id": "187", "column": null, "row": "E" }, "geometry": { "type": "Point", "coordinates": [ 120.976586346057374, 14.305680060955643 ] } },
{ "type": "Feature", "properties": { "fid": 3, "id": 3, "cluster_id": "187", "column": null, "row": "E" }, "geometry": { "type": "Point", "coordinates": [ 120.976590808359106, 14.305673705556208 ] } },
{ "type": "Feature", "properties": { "fid": 4, "id": 4, "cluster_id": "187", "column": null, "row": "E" }, "geometry": { "type": "Point", "coordinates": [ 120.976594053669444, 14.305674246441267 ] } },
{ "type": "Feature", "properties": { "fid": 5, "id": 5, "cluster_id": "187", "column": null, "row": "E" }, "geometry": { "type": "Point", "coordinates": [ 120.976597298979797, 14.30567465210506 ] } },
{ "type": "Feature", "properties": { "fid": 6, "id": 6, "cluster_id": "187", "column": null, "row": "E" }, "geometry": { "type": "Point", "coordinates": [ 120.976600679511407, 14.30567465210506 ] } },
{ "type": "Feature", "properties": { "fid": 7, "id": 7, "cluster_id": "187", "column": null, "row": "E" }, "geometry": { "type": "Point", "coordinates": [ 120.976604330485557, 14.305674787326325 ] } },
{ "type": "Feature", "properties": { "fid": 8, "id": 8, "cluster_id": "187", "column": null, "row": "E" }, "geometry": { "type": "Point", "coordinates": [ 120.976608657566018, 14.30567492254759 ] } },
{ "type": "Feature", "properties": { "fid": 9, "id": 9, "cluster_id": "187", "column": null, "row": "E" }, "geometry": { "type": "Point", "coordinates": [ 120.976612038097642, 14.305675192990119 ] } },
{ "type": "Feature", "properties": { "fid": 10, "id": 10, "cluster_id": "187", "column": null, "row": "E" }, "geometry": { "type": "Point", "coordinates": [ 120.976615959514305, 14.305675463432648 ] } },
{ "type": "Feature", "properties": { "fid": 11, "id": 11, "cluster_id": "187", "column": null, "row": "E" }, "geometry": { "type": "Point", "coordinates": [ 120.976619069603387, 14.305676139538971 ] } },
{ "type": "Feature", "properties": { "fid": 12, "id": 12, "cluster_id": "187", "column": null, "row": "E" }, "geometry": { "type": "Point", "coordinates": [ 120.976624478453971, 14.305675869096442 ] } },
{ "type": "Feature", "properties": { "fid": 13, "id": 13, "cluster_id": "187", "column": null, "row": "E" }, "geometry": { "type": "Point", "coordinates": [ 120.976627453321797, 14.305676545202765 ] } },
{ "type": "Feature", "properties": { "fid": 14, "id": 14, "cluster_id": "187", "column": null, "row": "E" }, "geometry": { "type": "Point", "coordinates": [ 120.97663137473846, 14.305676815645294 ] } },
{ "type": "Feature", "properties": { "fid": 15, "id": 15, "cluster_id": "187", "column": null, "row": "E" }, "geometry": { "type": "Point", "coordinates": [ 120.976635972261462, 14.305677356530351 ] } },
{ "type": "Feature", "properties": { "fid": 16, "id": 16, "cluster_id": "187", "column": null, "row": "E" }, "geometry": { "type": "Point", "coordinates": [ 120.976639082350545, 14.305677897415409 ] } },
{ "type": "Feature", "properties": { "fid": 17, "id": 17, "cluster_id": "187", "column": null, "row": "E" }, "geometry": { "type": "Point", "coordinates": [ 120.976643950316074, 14.305678167857939 ] } },
{ "type": "Feature", "properties": { "fid": 18, "id": 18, "cluster_id": "187", "column": null, "row": "E" }, "geometry": { "type": "Point", "coordinates": [ 120.976647330847683, 14.305678167857939 ] } },
{ "type": "Feature", "properties": { "fid": 19, "id": 19, "cluster_id": "187", "column": null, "row": "E" }, "geometry": { "type": "Point", "coordinates": [ 120.976649900051711, 14.305678303079203 ] } },
{ "type": "Feature", "properties": { "fid": 20, "id": 20, "cluster_id": "187", "column": null, "row": "E" }, "geometry": { "type": "Point", "coordinates": [ 120.976653145362064, 14.305678708742997 ] } },
{ "type": "Feature", "properties": { "fid": 21, "id": 21, "cluster_id": "187", "column": null, "row": "E" }, "geometry": { "type": "Point", "coordinates": [ 120.976655579344822, 14.305678438300468 ] } },
{ "type": "Feature", "properties": { "fid": 22, "id": 22, "cluster_id": "187", "column": null, "row": "E" }, "geometry": { "type": "Point", "coordinates": [ 120.97665814854885, 14.305678979185526 ] } },
{ "type": "Feature", "properties": { "fid": 23, "id": 23, "cluster_id": "187", "column": null, "row": "E" }, "geometry": { "type": "Point", "coordinates": [ 120.976661799522986, 14.305679655291849 ] } },
{ "type": "Feature", "properties": { "fid": 24, "id": 24, "cluster_id": "187", "column": null, "row": "E" }, "geometry": { "type": "Point", "coordinates": [ 120.976664639169542, 14.305679249628055 ] } },
{ "type": "Feature", "properties": { "fid": 25, "id": 25, "cluster_id": "187", "column": null, "row": "E" }, "geometry": { "type": "Point", "coordinates": [ 120.976667073152313, 14.305679114406791 ] } },
{ "type": "Feature", "properties": { "fid": 26, "id": 26, "cluster_id": "187", "column": null, "row": "E" }, "geometry": { "type": "Point", "coordinates": [ 120.976669777577598, 14.305679520070584 ] } },
{ "type": "Feature", "properties": { "fid": 27, "id": 27, "cluster_id": "187", "column": null, "row": "E" }, "geometry": { "type": "Point", "coordinates": [ 120.97667288766668, 14.305679114406791 ] } },
{ "type": "Feature", "properties": { "fid": 28, "id": 28, "cluster_id": "187", "column": null, "row": "E" }, "geometry": { "type": "Point", "coordinates": [ 120.976674780764384, 14.305680060955643 ] } },
{ "type": "Feature", "properties": { "fid": 29, "id": 29, "cluster_id": "187", "column": null, "row": "E" }, "geometry": { "type": "Point", "coordinates": [ 120.976677620410939, 14.305679925734378 ] } },
{ "type": "Feature", "properties": { "fid": 30, "id": 30, "cluster_id": "187", "column": null, "row": "E" }, "geometry": { "type": "Point", "coordinates": [ 120.97667991917244, 14.305679655291849 ] } },
{ "type": "Feature", "properties": { "fid": 31, "id": 31, "cluster_id": "187", "column": null, "row": "E" }, "geometry": { "type": "Point", "coordinates": [ 120.976682217933941, 14.305679790513114 ] } },
{ "type": "Feature", "properties": { "fid": 32, "id": 32, "cluster_id": "187", "column": null, "row": "E" }, "geometry": { "type": "Point", "coordinates": [ 120.976684381474172, 14.305680060955643 ] } },
{ "type": "Feature", "properties": { "fid": 33, "id": 33, "cluster_id": "187", "column": null, "row": "E" }, "geometry": { "type": "Point", "coordinates": [ 120.976686815456929, 14.305680331398172 ] } },
{ "type": "Feature", "properties": { "fid": 34, "id": 34, "cluster_id": "187", "column": null, "row": "E" }, "geometry": { "type": "Point", "coordinates": [ 120.976688708554633, 14.305680601840701 ] } },
{ "type": "Feature", "properties": { "fid": 35, "id": 35, "cluster_id": "187", "column": null, "row": "E" }, "geometry": { "type": "Point", "coordinates": [ 120.976691142537405, 14.305681142725758 ] } }
]
}
