{
"type": "FeatureCollection",
"name": "cltr-id-184-d-row",
"crs": { "type": "name", "properties": { "name": "urn:ogc:def:crs:OGC:1.3:CRS84" } },
"features": [
{ "type": "Feature", "properties": { "fid": 1, "id": 1, "cluster_id": "184", "column": null, "row": "D" }, "geometry": { "type": "Point", "coordinates": [ 120.976612928304206, 14.305576594151391 ] } },
{ "type": "Feature", "properties": { "fid": 2, "id": 2, "cluster_id": "184", "column": null, "row": "D" }, "geometry": { "type": "Point", "coordinates": [ 120.976621582465143, 14.305578487249095 ] } },
{ "type": "Feature", "properties": { "fid": 3, "id": 3, "cluster_id": "184", "column": null, "row": "D" }, "geometry": { "type": "Point", "coordinates": [ 120.976631318396187, 14.305579028134153 ] } },
{ "type": "Feature", "properties": { "fid": 4, "id": 4, "cluster_id": "184", "column": null, "row": "D" }, "geometry": { "type": "Point", "coordinates": [ 120.976639161229528, 14.305579569019212 ] } },
{ "type": "Feature", "properties": { "fid": 5, "id": 5, "cluster_id": "184", "column": null, "row": "D" }, "geometry": { "type": "Point", "coordinates": [ 120.976648897160572, 14.305581191674387 ] } },
{ "type": "Feature", "properties": { "fid": 6, "id": 6, "cluster_id": "184", "column": null, "row": "D" }, "geometry": { "type": "Point", "coordinates": [ 120.976658903534158, 14.30558308477209 ] } },
{ "type": "Feature", "properties": { "fid": 7, "id": 7, "cluster_id": "184", "column": null, "row": "D" }, "geometry": { "type": "Point", "coordinates": [ 120.976666205482445, 14.305583625657148 ] } },
{ "type": "Feature", "properties": { "fid": 8, "id": 8, "cluster_id": "184", "column": null, "row": "D" }, "geometry": { "type": "Point", "coordinates": [ 120.976672155218083, 14.305583896099677 ] } },
{ "type": "Feature", "properties": { "fid": 9, "id": 9, "cluster_id": "184", "column": null, "row": "D" }, "geometry": { "type": "Point", "coordinates": [ 120.976679998051424, 14.305584166542205 ] } },
{ "type": "Feature", "properties": { "fid": 10, "id": 10, "cluster_id": "184", "column": null, "row": "D" }, "geometry": { "type": "Point", "coordinates": [ 120.976686218229588, 14.305584977869794 ] } },
{ "type": "Feature", "properties": { "fid": 11, "id": 11, "cluster_id": "184", "column": null, "row": "D" }, "geometry": { "type": "Point", "coordinates": [ 120.976691356637645, 14.305585248312322 ] } },
{ "type": "Feature", "properties": { "fid": 12, "id": 12, "cluster_id": "184", "column": null, "row": "D" }, "geometry": { "type": "Point", "coordinates": [ 120.976697035930755, 14.305586059639911 ] } },
{ "type": "Feature", "properties": { "fid": 13, "id": 13, "cluster_id": "184", "column": null, "row": "D" }, "geometry": { "type": "Point", "coordinates": [ 120.976706230976745, 14.305584436984736 ] } },
{ "type": "Feature", "properties": { "fid": 14, "id": 14, "cluster_id": "184", "column": null, "row": "D" }, "geometry": { "type": "Point", "coordinates": [ 120.976708935402044, 14.30557686459392 ] } }
]
}
