{
"type": "FeatureCollection",
"name": "cltr-id-209-b-row",
"crs": { "type": "name", "properties": { "name": "urn:ogc:def:crs:OGC:1.3:CRS84" } },
"features": [
{ "type": "Feature", "properties": { "fid": 1, "id": 1, "cluster_id": "209", "column": null, "row": "B" }, "geometry": { "type": "Point", "coordinates": [ 120.976758077063337, 14.305350391512658 ] } },
{ "type": "Feature", "properties": { "fid": 2, "id": 2, "cluster_id": "209", "column": null, "row": "B" }, "geometry": { "type": "Point", "coordinates": [ 120.97676835387945, 14.305350391512658 ] } },
{ "type": "Feature", "properties": { "fid": 3, "id": 3, "cluster_id": "209", "column": null, "row": "B" }, "geometry": { "type": "Point", "coordinates": [ 120.976779712465671, 14.305350932397715 ] } },
{ "type": "Feature", "properties": { "fid": 4, "id": 4, "cluster_id": "209", "column": null, "row": "B" }, "geometry": { "type": "Point", "coordinates": [ 120.976789989281784, 14.305351473282773 ] } },
{ "type": "Feature", "properties": { "fid": 5, "id": 5, "cluster_id": "209", "column": null, "row": "B" }, "geometry": { "type": "Point", "coordinates": [ 120.976798643442706, 14.305351473282773 ] } },
{ "type": "Feature", "properties": { "fid": 6, "id": 6, "cluster_id": "209", "column": null, "row": "B" }, "geometry": { "type": "Point", "coordinates": [ 120.976806756718588, 14.305353095937949 ] } },
{ "type": "Feature", "properties": { "fid": 7, "id": 7, "cluster_id": "209", "column": null, "row": "B" }, "geometry": { "type": "Point", "coordinates": [ 120.976815951764578, 14.305354177708065 ] } },
{ "type": "Feature", "properties": { "fid": 8, "id": 8, "cluster_id": "209", "column": null, "row": "B" }, "geometry": { "type": "Point", "coordinates": [ 120.976825687695623, 14.305352014167832 ] } },
{ "type": "Feature", "properties": { "fid": 9, "id": 9, "cluster_id": "209", "column": null, "row": "B" }, "geometry": { "type": "Point", "coordinates": [ 120.976833800971491, 14.305354718593124 ] } },
{ "type": "Feature", "properties": { "fid": 10, "id": 10, "cluster_id": "209", "column": null, "row": "B" }, "geometry": { "type": "Point", "coordinates": [ 120.976842455132427, 14.305353095937948 ] } },
{ "type": "Feature", "properties": { "fid": 11, "id": 11, "cluster_id": "209", "column": null, "row": "B" }, "geometry": { "type": "Point", "coordinates": [ 120.976851109293349, 14.305356882133358 ] } },
{ "type": "Feature", "properties": { "fid": 12, "id": 12, "cluster_id": "209", "column": null, "row": "B" }, "geometry": { "type": "Point", "coordinates": [ 120.976863008764639, 14.305357963903473 ] } },
{ "type": "Feature", "properties": { "fid": 13, "id": 13, "cluster_id": "209", "column": null, "row": "B" }, "geometry": { "type": "Point", "coordinates": [ 120.97687436735086, 14.305356882133356 ] } },
{ "type": "Feature", "properties": { "fid": 14, "id": 14, "cluster_id": "209", "column": null, "row": "B" }, "geometry": { "type": "Point", "coordinates": [ 120.976882480626728, 14.305359045673589 ] } },
{ "type": "Feature", "properties": { "fid": 15, "id": 15, "cluster_id": "209", "column": null, "row": "B" }, "geometry": { "type": "Point", "coordinates": [ 120.976893298327909, 14.305359586558648 ] } },
{ "type": "Feature", "properties": { "fid": 16, "id": 16, "cluster_id": "209", "column": null, "row": "B" }, "geometry": { "type": "Point", "coordinates": [ 120.976901411603762, 14.305361209213823 ] } },
{ "type": "Feature", "properties": { "fid": 17, "id": 17, "cluster_id": "209", "column": null, "row": "B" }, "geometry": { "type": "Point", "coordinates": [ 120.976910065764699, 14.305360668328763 ] } },
{ "type": "Feature", "properties": { "fid": 18, "id": 18, "cluster_id": "209", "column": null, "row": "B" }, "geometry": { "type": "Point", "coordinates": [ 120.976918179040581, 14.305361209213823 ] } },
{ "type": "Feature", "properties": { "fid": 19, "id": 19, "cluster_id": "209", "column": null, "row": "B" }, "geometry": { "type": "Point", "coordinates": [ 120.976927374086571, 14.305362290983938 ] } },
{ "type": "Feature", "properties": { "fid": 20, "id": 20, "cluster_id": "209", "column": null, "row": "B" }, "geometry": { "type": "Point", "coordinates": [ 120.976938191787738, 14.305362290983938 ] } },
{ "type": "Feature", "properties": { "fid": 21, "id": 21, "cluster_id": "209", "column": null, "row": "B" }, "geometry": { "type": "Point", "coordinates": [ 120.976943600638307, 14.305362831868997 ] } },
{ "type": "Feature", "properties": { "fid": 22, "id": 22, "cluster_id": "209", "column": null, "row": "B" }, "geometry": { "type": "Point", "coordinates": [ 120.976953877454406, 14.305363372754053 ] } },
{ "type": "Feature", "properties": { "fid": 23, "id": 23, "cluster_id": "209", "column": null, "row": "B" }, "geometry": { "type": "Point", "coordinates": [ 120.976960908960166, 14.305364454524172 ] } },
{ "type": "Feature", "properties": { "fid": 24, "id": 24, "cluster_id": "209", "column": null, "row": "B" }, "geometry": { "type": "Point", "coordinates": [ 120.976972808431455, 14.305366077179345 ] } },
{ "type": "Feature", "properties": { "fid": 25, "id": 25, "cluster_id": "209", "column": null, "row": "B" }, "geometry": { "type": "Point", "coordinates": [ 120.9769825443625, 14.305366618064404 ] } },
{ "type": "Feature", "properties": { "fid": 26, "id": 26, "cluster_id": "209", "column": null, "row": "B" }, "geometry": { "type": "Point", "coordinates": [ 120.97699173940849, 14.305368240719579 ] } },
{ "type": "Feature", "properties": { "fid": 27, "id": 27, "cluster_id": "209", "column": null, "row": "B" }, "geometry": { "type": "Point", "coordinates": [ 120.977004179764819, 14.305368781604637 ] } },
{ "type": "Feature", "properties": { "fid": 28, "id": 28, "cluster_id": "209", "column": null, "row": "B" }, "geometry": { "type": "Point", "coordinates": [ 120.977014997466, 14.305370404259811 ] } },
{ "type": "Feature", "properties": { "fid": 29, "id": 29, "cluster_id": "209", "column": null, "row": "B" }, "geometry": { "type": "Point", "coordinates": [ 120.977025274282099, 14.305370945144871 ] } },
{ "type": "Feature", "properties": { "fid": 30, "id": 30, "cluster_id": "209", "column": null, "row": "B" }, "geometry": { "type": "Point", "coordinates": [ 120.977032305787858, 14.305370404259811 ] } },
{ "type": "Feature", "properties": { "fid": 31, "id": 31, "cluster_id": "209", "column": null, "row": "B" }, "geometry": { "type": "Point", "coordinates": [ 120.977040419063741, 14.305372026914986 ] } },
{ "type": "Feature", "properties": { "fid": 32, "id": 32, "cluster_id": "209", "column": null, "row": "B" }, "geometry": { "type": "Point", "coordinates": [ 120.97704799145454, 14.305372026914984 ] } },
{ "type": "Feature", "properties": { "fid": 33, "id": 33, "cluster_id": "209", "column": null, "row": "B" }, "geometry": { "type": "Point", "coordinates": [ 120.977056104730408, 14.305372026914988 ] } },
{ "type": "Feature", "properties": { "fid": 34, "id": 34, "cluster_id": "209", "column": null, "row": "B" }, "geometry": { "type": "Point", "coordinates": [ 120.977063677121237, 14.305372567800045 ] } },
{ "type": "Feature", "properties": { "fid": 35, "id": 35, "cluster_id": "209", "column": null, "row": "B" }, "geometry": { "type": "Point", "coordinates": [ 120.977071249512036, 14.305373649570161 ] } }
]
}
