{
"type": "FeatureCollection",
"name": "cltr-id-184-b-row",
"crs": { "type": "name", "properties": { "name": "urn:ogc:def:crs:OGC:1.3:CRS84" } },
"features": [
{ "type": "Feature", "properties": { "fid": 1, "id": 1, "cluster_id": "184", "column": null, "row": "B" }, "geometry": { "type": "Point", "coordinates": [ 120.976612387419152, 14.305581191674387 ] } },
{ "type": "Feature", "properties": { "fid": 2, "id": 2, "cluster_id": "184", "column": null, "row": "B" }, "geometry": { "type": "Point", "coordinates": [ 120.976621312022601, 14.305581732559444 ] } },
{ "type": "Feature", "properties": { "fid": 3, "id": 3, "cluster_id": "184", "column": null, "row": "B" }, "geometry": { "type": "Point", "coordinates": [ 120.976629966183538, 14.305582543887031 ] } },
{ "type": "Feature", "properties": { "fid": 4, "id": 4, "cluster_id": "184", "column": null, "row": "B" }, "geometry": { "type": "Point", "coordinates": [ 120.976638349901947, 14.305583355214619 ] } },
{ "type": "Feature", "properties": { "fid": 5, "id": 5, "cluster_id": "184", "column": null, "row": "B" }, "geometry": { "type": "Point", "coordinates": [ 120.976648085832991, 14.305584977869794 ] } },
{ "type": "Feature", "properties": { "fid": 6, "id": 6, "cluster_id": "184", "column": null, "row": "B" }, "geometry": { "type": "Point", "coordinates": [ 120.976657551321509, 14.30558633008244 ] } },
{ "type": "Feature", "properties": { "fid": 7, "id": 7, "cluster_id": "184", "column": null, "row": "B" }, "geometry": { "type": "Point", "coordinates": [ 120.97666539415485, 14.305587411852555 ] } },
{ "type": "Feature", "properties": { "fid": 8, "id": 8, "cluster_id": "184", "column": null, "row": "B" }, "geometry": { "type": "Point", "coordinates": [ 120.976671884775556, 14.305587682295085 ] } },
{ "type": "Feature", "properties": { "fid": 9, "id": 9, "cluster_id": "184", "column": null, "row": "B" }, "geometry": { "type": "Point", "coordinates": [ 120.976678916281301, 14.305587141410026 ] } },
{ "type": "Feature", "properties": { "fid": 10, "id": 10, "cluster_id": "184", "column": null, "row": "B" }, "geometry": { "type": "Point", "coordinates": [ 120.97668513645948, 14.305588493622672 ] } },
{ "type": "Feature", "properties": { "fid": 11, "id": 11, "cluster_id": "184", "column": null, "row": "B" }, "geometry": { "type": "Point", "coordinates": [ 120.976690274867536, 14.305588764065201 ] } },
{ "type": "Feature", "properties": { "fid": 12, "id": 12, "cluster_id": "184", "column": null, "row": "B" }, "geometry": { "type": "Point", "coordinates": [ 120.976696765488228, 14.305588764065201 ] } },
{ "type": "Feature", "properties": { "fid": 13, "id": 13, "cluster_id": "184", "column": null, "row": "B" }, "geometry": { "type": "Point", "coordinates": [ 120.976708935402044, 14.305585518754851 ] } },
{ "type": "Feature", "properties": { "fid": 14, "id": 14, "cluster_id": "184", "column": null, "row": "B" }, "geometry": { "type": "Point", "coordinates": [ 120.976711639827329, 14.305578216806566 ] } }
]
}
