{
"type": "FeatureCollection",
"name": "cltr-id-197-d-row",
"crs": { "type": "name", "properties": { "name": "urn:ogc:def:crs:OGC:1.3:CRS84" } },
"features": [
{ "type": "Feature", "properties": { "fid": 1, "id": 1, "cluster_id": "197", "column": null, "row": "D" }, "geometry": { "type": "Point", "coordinates": [ 120.976710208735554, 14.305830765054985 ] } },
{ "type": "Feature", "properties": { "fid": 2, "id": 2, "cluster_id": "197", "column": null, "row": "D" }, "geometry": { "type": "Point", "coordinates": [ 120.976712034222615, 14.305824274434285 ] } },
{ "type": "Feature", "properties": { "fid": 3, "id": 3, "cluster_id": "197", "column": null, "row": "D" }, "geometry": { "type": "Point", "coordinates": [ 120.976717307851942, 14.305818797973069 ] } },
{ "type": "Feature", "properties": { "fid": 4, "id": 4, "cluster_id": "197", "column": null, "row": "D" }, "geometry": { "type": "Point", "coordinates": [ 120.97672542112781, 14.305818797973069 ] } },
{ "type": "Feature", "properties": { "fid": 5, "id": 5, "cluster_id": "197", "column": null, "row": "D" }, "geometry": { "type": "Point", "coordinates": [ 120.976738402369207, 14.305818797973069 ] } },
{ "type": "Feature", "properties": { "fid": 6, "id": 6, "cluster_id": "197", "column": null, "row": "D" }, "geometry": { "type": "Point", "coordinates": [ 120.976750977946821, 14.305819609300658 ] } },
{ "type": "Feature", "properties": { "fid": 7, "id": 7, "cluster_id": "197", "column": null, "row": "D" }, "geometry": { "type": "Point", "coordinates": [ 120.976761728037346, 14.30582001496445 ] } },
{ "type": "Feature", "properties": { "fid": 8, "id": 8, "cluster_id": "197", "column": null, "row": "D" }, "geometry": { "type": "Point", "coordinates": [ 120.976770652640809, 14.305820623460141 ] } },
{ "type": "Feature", "properties": { "fid": 9, "id": 9, "cluster_id": "197", "column": null, "row": "D" }, "geometry": { "type": "Point", "coordinates": [ 120.976778360252894, 14.305820826292038 ] } },
{ "type": "Feature", "properties": { "fid": 10, "id": 10, "cluster_id": "197", "column": null, "row": "D" }, "geometry": { "type": "Point", "coordinates": [ 120.976787284856357, 14.305822043283419 ] } },
{ "type": "Feature", "properties": { "fid": 11, "id": 11, "cluster_id": "197", "column": null, "row": "D" }, "geometry": { "type": "Point", "coordinates": [ 120.976798440610679, 14.305823057442904 ] } },
{ "type": "Feature", "properties": { "fid": 12, "id": 12, "cluster_id": "197", "column": null, "row": "D" }, "geometry": { "type": "Point", "coordinates": [ 120.976808379373637, 14.305824477266182 ] } },
{ "type": "Feature", "properties": { "fid": 13, "id": 13, "cluster_id": "197", "column": null, "row": "D" }, "geometry": { "type": "Point", "coordinates": [ 120.976817709640883, 14.30582528859377 ] } },
{ "type": "Feature", "properties": { "fid": 14, "id": 14, "cluster_id": "197", "column": null, "row": "D" }, "geometry": { "type": "Point", "coordinates": [ 120.976826228580563, 14.305825491425667 ] } },
{ "type": "Feature", "properties": { "fid": 15, "id": 15, "cluster_id": "197", "column": null, "row": "D" }, "geometry": { "type": "Point", "coordinates": [ 120.976835964511608, 14.305826708417047 ] } },
{ "type": "Feature", "properties": { "fid": 16, "id": 16, "cluster_id": "197", "column": null, "row": "D" }, "geometry": { "type": "Point", "coordinates": [ 120.976845497610753, 14.305827519744636 ] } },
{ "type": "Feature", "properties": { "fid": 17, "id": 17, "cluster_id": "197", "column": null, "row": "D" }, "geometry": { "type": "Point", "coordinates": [ 120.976856044869393, 14.305828939567913 ] } },
{ "type": "Feature", "properties": { "fid": 18, "id": 18, "cluster_id": "197", "column": null, "row": "D" }, "geometry": { "type": "Point", "coordinates": [ 120.976865577968553, 14.30582914239981 ] } },
{ "type": "Feature", "properties": { "fid": 19, "id": 19, "cluster_id": "197", "column": null, "row": "D" }, "geometry": { "type": "Point", "coordinates": [ 120.976874502572016, 14.305829548063604 ] } },
{ "type": "Feature", "properties": { "fid": 20, "id": 20, "cluster_id": "197", "column": null, "row": "D" }, "geometry": { "type": "Point", "coordinates": [ 120.976882818679783, 14.305830562223088 ] } },
{ "type": "Feature", "properties": { "fid": 21, "id": 21, "cluster_id": "197", "column": null, "row": "D" }, "geometry": { "type": "Point", "coordinates": [ 120.97689113478755, 14.305830562223088 ] } },
{ "type": "Feature", "properties": { "fid": 22, "id": 22, "cluster_id": "197", "column": null, "row": "D" }, "geometry": { "type": "Point", "coordinates": [ 120.976900870718609, 14.305833199037748 ] } },
{ "type": "Feature", "properties": { "fid": 23, "id": 23, "cluster_id": "197", "column": null, "row": "D" }, "geometry": { "type": "Point", "coordinates": [ 120.976911012313451, 14.305834416029128 ] } },
{ "type": "Feature", "properties": { "fid": 24, "id": 24, "cluster_id": "197", "column": null, "row": "D" }, "geometry": { "type": "Point", "coordinates": [ 120.976921559572091, 14.30583502452482 ] } },
{ "type": "Feature", "properties": { "fid": 25, "id": 25, "cluster_id": "197", "column": null, "row": "D" }, "geometry": { "type": "Point", "coordinates": [ 120.976931295503135, 14.305834213197231 ] } },
{ "type": "Feature", "properties": { "fid": 26, "id": 26, "cluster_id": "197", "column": null, "row": "D" }, "geometry": { "type": "Point", "coordinates": [ 120.976940422938497, 14.305836647179994 ] } },
{ "type": "Feature", "properties": { "fid": 27, "id": 27, "cluster_id": "197", "column": null, "row": "D" }, "geometry": { "type": "Point", "coordinates": [ 120.976952390020415, 14.305838067003272 ] } },
{ "type": "Feature", "properties": { "fid": 28, "id": 28, "cluster_id": "197", "column": null, "row": "D" }, "geometry": { "type": "Point", "coordinates": [ 120.976960097632485, 14.305838067003272 ] } },
{ "type": "Feature", "properties": { "fid": 29, "id": 29, "cluster_id": "197", "column": null, "row": "D" }, "geometry": { "type": "Point", "coordinates": [ 120.976968616572165, 14.305838269835169 ] } },
{ "type": "Feature", "properties": { "fid": 30, "id": 30, "cluster_id": "197", "column": null, "row": "D" }, "geometry": { "type": "Point", "coordinates": [ 120.976976527016134, 14.305839689658447 ] } },
{ "type": "Feature", "properties": { "fid": 31, "id": 31, "cluster_id": "197", "column": null, "row": "D" }, "geometry": { "type": "Point", "coordinates": [ 120.976983828964421, 14.305841515145518 ] } },
{ "type": "Feature", "properties": { "fid": 32, "id": 32, "cluster_id": "197", "column": null, "row": "D" }, "geometry": { "type": "Point", "coordinates": [ 120.976992753567885, 14.305840298154138 ] } },
{ "type": "Feature", "properties": { "fid": 33, "id": 33, "cluster_id": "197", "column": null, "row": "D" }, "geometry": { "type": "Point", "coordinates": [ 120.976998635692894, 14.305841920809312 ] } },
{ "type": "Feature", "properties": { "fid": 34, "id": 34, "cluster_id": "197", "column": null, "row": "D" }, "geometry": { "type": "Point", "coordinates": [ 120.977003503658423, 14.30584334063259 ] } },
{ "type": "Feature", "properties": { "fid": 35, "id": 35, "cluster_id": "197", "column": null, "row": "D" }, "geometry": { "type": "Point", "coordinates": [ 120.977010399942912, 14.305841920809312 ] } }
]
}
