{
"type": "FeatureCollection",
"name": "cltr-id-185-e-row",
"crs": { "type": "name", "properties": { "name": "urn:ogc:def:crs:OGC:1.3:CRS84" } },
"features": [
{ "type": "Feature", "properties": { "fid": 1, "id": 1, "cluster_id": "185", "column": null, "row": "E" }, "geometry": { "type": "Point", "coordinates": [ 120.976614010074314, 14.305556581404238 ] } },
{ "type": "Feature", "properties": { "fid": 2, "id": 2, "cluster_id": "185", "column": null, "row": "E" }, "geometry": { "type": "Point", "coordinates": [ 120.976615903172032, 14.305550902111126 ] } },
{ "type": "Feature", "properties": { "fid": 3, "id": 3, "cluster_id": "185", "column": null, "row": "E" }, "geometry": { "type": "Point", "coordinates": [ 120.976619689367439, 14.305546034145602 ] } },
{ "type": "Feature", "properties": { "fid": 4, "id": 4, "cluster_id": "185", "column": null, "row": "E" }, "geometry": { "type": "Point", "coordinates": [ 120.976628343528361, 14.305546034145602 ] } },
{ "type": "Feature", "properties": { "fid": 5, "id": 5, "cluster_id": "185", "column": null, "row": "E" }, "geometry": { "type": "Point", "coordinates": [ 120.976636997689297, 14.305546575030661 ] } },
{ "type": "Feature", "properties": { "fid": 6, "id": 6, "cluster_id": "185", "column": null, "row": "E" }, "geometry": { "type": "Point", "coordinates": [ 120.976644840522638, 14.305547115915719 ] } },
{ "type": "Feature", "properties": { "fid": 7, "id": 7, "cluster_id": "185", "column": null, "row": "E" }, "geometry": { "type": "Point", "coordinates": [ 120.976653224241048, 14.305547927243307 ] } },
{ "type": "Feature", "properties": { "fid": 8, "id": 8, "cluster_id": "185", "column": null, "row": "E" }, "geometry": { "type": "Point", "coordinates": [ 120.976660255746793, 14.305548738570893 ] } },
{ "type": "Feature", "properties": { "fid": 9, "id": 9, "cluster_id": "185", "column": null, "row": "E" }, "geometry": { "type": "Point", "coordinates": [ 120.97666890990773, 14.30554982034101 ] } },
{ "type": "Feature", "properties": { "fid": 10, "id": 10, "cluster_id": "185", "column": null, "row": "E" }, "geometry": { "type": "Point", "coordinates": [ 120.97667810495372, 14.305551172553656 ] } },
{ "type": "Feature", "properties": { "fid": 11, "id": 11, "cluster_id": "185", "column": null, "row": "E" }, "geometry": { "type": "Point", "coordinates": [ 120.976684054689358, 14.305551442996185 ] } },
{ "type": "Feature", "properties": { "fid": 12, "id": 12, "cluster_id": "185", "column": null, "row": "E" }, "geometry": { "type": "Point", "coordinates": [ 120.976693520177875, 14.305552254323771 ] } },
{ "type": "Feature", "properties": { "fid": 13, "id": 13, "cluster_id": "185", "column": null, "row": "E" }, "geometry": { "type": "Point", "coordinates": [ 120.976702174338811, 14.3055525247663 ] } },
{ "type": "Feature", "properties": { "fid": 14, "id": 14, "cluster_id": "185", "column": null, "row": "E" }, "geometry": { "type": "Point", "coordinates": [ 120.976708935402044, 14.305553336093888 ] } }
]
}
