{
"type": "FeatureCollection",
"name": "cltr-id-151-e-row",
"crs": { "type": "name", "properties": { "name": "urn:ogc:def:crs:OGC:1.3:CRS84" } },
"features": [
{ "type": "Feature", "properties": { "fid": 1, "id": 1, "cluster_id": "151", "column": null, "row": "E" }, "geometry": { "type": "Point", "coordinates": [ 120.976046465538488, 14.305646789333544 ] } },
{ "type": "Feature", "properties": { "fid": 2, "id": 2, "cluster_id": "151", "column": null, "row": "E" }, "geometry": { "type": "Point", "coordinates": [ 120.976047026456328, 14.305638936483808 ] } },
{ "type": "Feature", "properties": { "fid": 3, "id": 3, "cluster_id": "151", "column": null, "row": "E" }, "geometry": { "type": "Point", "coordinates": [ 120.976048179990812, 14.305641362512469 ] } },
{ "type": "Feature", "properties": { "fid": 4, "id": 4, "cluster_id": "151", "column": null, "row": "E" }, "geometry": { "type": "Point", "coordinates": [ 120.97606089412848, 14.305642484348146 ] } },
{ "type": "Feature", "properties": { "fid": 5, "id": 5, "cluster_id": "151", "column": null, "row": "E" }, "geometry": { "type": "Point", "coordinates": [ 120.976073608266148, 14.305643232238596 ] } },
{ "type": "Feature", "properties": { "fid": 6, "id": 6, "cluster_id": "151", "column": null, "row": "E" }, "geometry": { "type": "Point", "coordinates": [ 120.976086696349043, 14.305643980129048 ] } },
{ "type": "Feature", "properties": { "fid": 7, "id": 7, "cluster_id": "151", "column": null, "row": "E" }, "geometry": { "type": "Point", "coordinates": [ 120.97609716681535, 14.305644354074273 ] } },
{ "type": "Feature", "properties": { "fid": 8, "id": 8, "cluster_id": "151", "column": null, "row": "E" }, "geometry": { "type": "Point", "coordinates": [ 120.976107637281672, 14.305645101964725 ] } },
{ "type": "Feature", "properties": { "fid": 9, "id": 9, "cluster_id": "151", "column": null, "row": "E" }, "geometry": { "type": "Point", "coordinates": [ 120.976115864076633, 14.3056462238004 ] } },
{ "type": "Feature", "properties": { "fid": 10, "id": 10, "cluster_id": "151", "column": null, "row": "E" }, "geometry": { "type": "Point", "coordinates": [ 120.97612633454294, 14.3056462238004 ] } },
{ "type": "Feature", "properties": { "fid": 11, "id": 11, "cluster_id": "151", "column": null, "row": "E" }, "geometry": { "type": "Point", "coordinates": [ 120.976136431064035, 14.305646597745627 ] } },
{ "type": "Feature", "properties": { "fid": 12, "id": 12, "cluster_id": "151", "column": null, "row": "E" }, "geometry": { "type": "Point", "coordinates": [ 120.976146527585115, 14.305648093526528 ] } },
{ "type": "Feature", "properties": { "fid": 13, "id": 13, "cluster_id": "151", "column": null, "row": "E" }, "geometry": { "type": "Point", "coordinates": [ 120.976155876215756, 14.305648467471753 ] } },
{ "type": "Feature", "properties": { "fid": 14, "id": 14, "cluster_id": "151", "column": null, "row": "E" }, "geometry": { "type": "Point", "coordinates": [ 120.976166346682064, 14.305649215362203 ] } },
{ "type": "Feature", "properties": { "fid": 15, "id": 15, "cluster_id": "151", "column": null, "row": "E" }, "geometry": { "type": "Point", "coordinates": [ 120.976175321367478, 14.305649963252655 ] } },
{ "type": "Feature", "properties": { "fid": 16, "id": 16, "cluster_id": "151", "column": null, "row": "E" }, "geometry": { "type": "Point", "coordinates": [ 120.976184669998119, 14.30565033719788 ] } },
{ "type": "Feature", "properties": { "fid": 17, "id": 17, "cluster_id": "151", "column": null, "row": "E" }, "geometry": { "type": "Point", "coordinates": [ 120.976194392573973, 14.305650711143105 ] } },
{ "type": "Feature", "properties": { "fid": 18, "id": 18, "cluster_id": "151", "column": null, "row": "E" }, "geometry": { "type": "Point", "coordinates": [ 120.976203367259387, 14.305651832978782 ] } },
{ "type": "Feature", "properties": { "fid": 19, "id": 19, "cluster_id": "151", "column": null, "row": "E" }, "geometry": { "type": "Point", "coordinates": [ 120.976213837725709, 14.305652580869234 ] } },
{ "type": "Feature", "properties": { "fid": 20, "id": 20, "cluster_id": "151", "column": null, "row": "E" }, "geometry": { "type": "Point", "coordinates": [ 120.976222064520655, 14.305653702704911 ] } },
{ "type": "Feature", "properties": { "fid": 21, "id": 21, "cluster_id": "151", "column": null, "row": "E" }, "geometry": { "type": "Point", "coordinates": [ 120.97623103920607, 14.305654824540586 ] } },
{ "type": "Feature", "properties": { "fid": 22, "id": 22, "cluster_id": "151", "column": null, "row": "E" }, "geometry": { "type": "Point", "coordinates": [ 120.976240761781938, 14.305655198485812 ] } },
{ "type": "Feature", "properties": { "fid": 23, "id": 23, "cluster_id": "151", "column": null, "row": "E" }, "geometry": { "type": "Point", "coordinates": [ 120.976249362522125, 14.305655946376262 ] } },
{ "type": "Feature", "properties": { "fid": 24, "id": 24, "cluster_id": "151", "column": null, "row": "E" }, "geometry": { "type": "Point", "coordinates": [ 120.976257589317086, 14.305656694266714 ] } },
{ "type": "Feature", "properties": { "fid": 25, "id": 25, "cluster_id": "151", "column": null, "row": "E" }, "geometry": { "type": "Point", "coordinates": [ 120.97626544216682, 14.305656320321487 ] } },
{ "type": "Feature", "properties": { "fid": 26, "id": 26, "cluster_id": "151", "column": null, "row": "E" }, "geometry": { "type": "Point", "coordinates": [ 120.976272921071327, 14.305657442157164 ] } },
{ "type": "Feature", "properties": { "fid": 27, "id": 27, "cluster_id": "151", "column": null, "row": "E" }, "geometry": { "type": "Point", "coordinates": [ 120.976280399975835, 14.305657816102389 ] } },
{ "type": "Feature", "properties": { "fid": 28, "id": 28, "cluster_id": "151", "column": null, "row": "E" }, "geometry": { "type": "Point", "coordinates": [ 120.976288626770796, 14.305658190047616 ] } },
{ "type": "Feature", "properties": { "fid": 29, "id": 29, "cluster_id": "151", "column": null, "row": "E" }, "geometry": { "type": "Point", "coordinates": [ 120.97629647962053, 14.305659311883293 ] } },
{ "type": "Feature", "properties": { "fid": 30, "id": 30, "cluster_id": "151", "column": null, "row": "E" }, "geometry": { "type": "Point", "coordinates": [ 120.97630358457981, 14.305659685828518 ] } },
{ "type": "Feature", "properties": { "fid": 31, "id": 31, "cluster_id": "151", "column": null, "row": "E" }, "geometry": { "type": "Point", "coordinates": [ 120.976310689539105, 14.305660433718968 ] } },
{ "type": "Feature", "properties": { "fid": 32, "id": 32, "cluster_id": "151", "column": null, "row": "E" }, "geometry": { "type": "Point", "coordinates": [ 120.976317794498385, 14.305660807664195 ] } },
{ "type": "Feature", "properties": { "fid": 33, "id": 33, "cluster_id": "151", "column": null, "row": "E" }, "geometry": { "type": "Point", "coordinates": [ 120.976325273402892, 14.305661555554645 ] } },
{ "type": "Feature", "properties": { "fid": 34, "id": 34, "cluster_id": "151", "column": null, "row": "E" }, "geometry": { "type": "Point", "coordinates": [ 120.976331630471734, 14.30566192949987 ] } },
{ "type": "Feature", "properties": { "fid": 35, "id": 35, "cluster_id": "151", "column": null, "row": "E" }, "geometry": { "type": "Point", "coordinates": [ 120.976338735431014, 14.305663051335546 ] } },
{ "type": "Feature", "properties": { "fid": 36, "id": 36, "cluster_id": "151", "column": null, "row": "E" }, "geometry": { "type": "Point", "coordinates": [ 120.976346588280748, 14.305663425280772 ] } }
]
}
