{
"type": "FeatureCollection",
"name": "cltr-id-173-b-row",
"crs": { "type": "name", "properties": { "name": "urn:ogc:def:crs:OGC:1.3:CRS84" } },
"features": [
{ "type": "Feature", "properties": { "fid": 1, "id": 1, "cluster_id": "173", "column": null, "rows": "B" }, "geometry": { "type": "Point", "coordinates": [ 120.97639879384927, 14.305400366312066 ] } },
{ "type": "Feature", "properties": { "fid": 2, "id": 2, "cluster_id": "173", "column": null, "rows": "B" }, "geometry": { "type": "Point", "coordinates": [ 120.976410877113352, 14.305401638234601 ] } },
{ "type": "Feature", "properties": { "fid": 3, "id": 3, "cluster_id": "173", "column": null, "rows": "B" }, "geometry": { "type": "Point", "coordinates": [ 120.976420628519463, 14.305402062208781 ] } },
{ "type": "Feature", "properties": { "fid": 4, "id": 4, "cluster_id": "173", "column": null, "rows": "B" }, "geometry": { "type": "Point", "coordinates": [ 120.97643059191266, 14.305403122144227 ] } },
{ "type": "Feature", "properties": { "fid": 5, "id": 5, "cluster_id": "173", "column": null, "rows": "B" }, "geometry": { "type": "Point", "coordinates": [ 120.976439919344585, 14.305403970092584 ] } },
{ "type": "Feature", "properties": { "fid": 6, "id": 6, "cluster_id": "173", "column": null, "rows": "B" }, "geometry": { "type": "Point", "coordinates": [ 120.976448398828154, 14.30540503002803 ] } },
{ "type": "Feature", "properties": { "fid": 7, "id": 7, "cluster_id": "173", "column": null, "rows": "B" }, "geometry": { "type": "Point", "coordinates": [ 120.976456242350451, 14.305405877976387 ] } },
{ "type": "Feature", "properties": { "fid": 8, "id": 8, "cluster_id": "173", "column": null, "rows": "B" }, "geometry": { "type": "Point", "coordinates": [ 120.97646493382112, 14.305406513937655 ] } },
{ "type": "Feature", "properties": { "fid": 9, "id": 9, "cluster_id": "173", "column": null, "rows": "B" }, "geometry": { "type": "Point", "coordinates": [ 120.976474473240131, 14.305407149898922 ] } },
{ "type": "Feature", "properties": { "fid": 10, "id": 10, "cluster_id": "173", "column": null, "rows": "B" }, "geometry": { "type": "Point", "coordinates": [ 120.976483376697885, 14.305407997847281 ] } },
{ "type": "Feature", "properties": { "fid": 11, "id": 11, "cluster_id": "173", "column": null, "rows": "B" }, "geometry": { "type": "Point", "coordinates": [ 120.976490584258926, 14.305408421821459 ] } },
{ "type": "Feature", "properties": { "fid": 12, "id": 12, "cluster_id": "173", "column": null, "rows": "B" }, "geometry": { "type": "Point", "coordinates": [ 120.976497579832866, 14.305409057782727 ] } },
{ "type": "Feature", "properties": { "fid": 13, "id": 13, "cluster_id": "173", "column": null, "rows": "B" }, "geometry": { "type": "Point", "coordinates": [ 120.976505635342264, 14.305409905731084 ] } }
]
}
