{
"type": "FeatureCollection",
"name": "cltr-id-157-b-row",
"crs": { "type": "name", "properties": { "name": "urn:ogc:def:crs:OGC:1.3:CRS84" } },
"features": [
{ "type": "Feature", "properties": { "fid": 1, "id": 1, "cluster_id": "157", "column": null, "rows": "B" }, "geometry": { "type": "Point", "coordinates": [ 120.976404941474868, 14.305535296094391 ] } },
{ "type": "Feature", "properties": { "fid": 2, "id": 2, "cluster_id": "157", "column": null, "rows": "B" }, "geometry": { "type": "Point", "coordinates": [ 120.976405895416775, 14.305527558565631 ] } },
{ "type": "Feature", "properties": { "fid": 3, "id": 3, "cluster_id": "157", "column": null, "rows": "B" }, "geometry": { "type": "Point", "coordinates": [ 120.976412149035909, 14.305521728920676 ] } },
{ "type": "Feature", "properties": { "fid": 4, "id": 4, "cluster_id": "157", "column": null, "rows": "B" }, "geometry": { "type": "Point", "coordinates": [ 120.976419356596949, 14.305522364881943 ] } },
{ "type": "Feature", "properties": { "fid": 5, "id": 5, "cluster_id": "157", "column": null, "rows": "B" }, "geometry": { "type": "Point", "coordinates": [ 120.976426564157975, 14.305522258888399 ] } },
{ "type": "Feature", "properties": { "fid": 6, "id": 6, "cluster_id": "157", "column": null, "rows": "B" }, "geometry": { "type": "Point", "coordinates": [ 120.976435679602815, 14.305523212830302 ] } },
{ "type": "Feature", "properties": { "fid": 7, "id": 7, "cluster_id": "157", "column": null, "rows": "B" }, "geometry": { "type": "Point", "coordinates": [ 120.976444265079934, 14.30552363680448 ] } },
{ "type": "Feature", "properties": { "fid": 8, "id": 8, "cluster_id": "157", "column": null, "rows": "B" }, "geometry": { "type": "Point", "coordinates": [ 120.976454334466681, 14.305524484752837 ] } },
{ "type": "Feature", "properties": { "fid": 9, "id": 9, "cluster_id": "157", "column": null, "rows": "B" }, "geometry": { "type": "Point", "coordinates": [ 120.976461648021257, 14.305525226707649 ] } },
{ "type": "Feature", "properties": { "fid": 10, "id": 10, "cluster_id": "157", "column": null, "rows": "B" }, "geometry": { "type": "Point", "coordinates": [ 120.976469597537104, 14.30552501472056 ] } },
{ "type": "Feature", "properties": { "fid": 11, "id": 11, "cluster_id": "157", "column": null, "rows": "B" }, "geometry": { "type": "Point", "coordinates": [ 120.976479136956115, 14.305526074656006 ] } },
{ "type": "Feature", "properties": { "fid": 12, "id": 12, "cluster_id": "157", "column": null, "rows": "B" }, "geometry": { "type": "Point", "coordinates": [ 120.976489418329948, 14.305526498630185 ] } },
{ "type": "Feature", "properties": { "fid": 13, "id": 13, "cluster_id": "157", "column": null, "rows": "B" }, "geometry": { "type": "Point", "coordinates": [ 120.976499487716694, 14.305527346578542 ] } },
{ "type": "Feature", "properties": { "fid": 14, "id": 14, "cluster_id": "157", "column": null, "rows": "B" }, "geometry": { "type": "Point", "coordinates": [ 120.97650870915507, 14.305527452572086 ] } },
{ "type": "Feature", "properties": { "fid": 15, "id": 15, "cluster_id": "157", "column": null, "rows": "B" }, "geometry": { "type": "Point", "coordinates": [ 120.976517294632188, 14.305527982539809 ] } }
]
}
