{
"type": "FeatureCollection",
"name": "cltr-id-212-a-row",
"crs": { "type": "name", "properties": { "name": "urn:ogc:def:crs:OGC:1.3:CRS84" } },
"features": [
{ "type": "Feature", "properties": { "fid": 1, "id": 1, "cluster_id": "212", "column": null, "row": "A" }, "geometry": { "type": "Point", "coordinates": [ 120.976728463606293, 14.305663563961366 ] } },
{ "type": "Feature", "properties": { "fid": 2, "id": 2, "cluster_id": "212", "column": null, "row": "A" }, "geometry": { "type": "Point", "coordinates": [ 120.976736035997121, 14.305664645731483 ] } },
{ "type": "Feature", "properties": { "fid": 3, "id": 3, "cluster_id": "212", "column": null, "row": "A" }, "geometry": { "type": "Point", "coordinates": [ 120.976745771928151, 14.305666268386656 ] } },
{ "type": "Feature", "properties": { "fid": 4, "id": 4, "cluster_id": "212", "column": null, "row": "A" }, "geometry": { "type": "Point", "coordinates": [ 120.976754966974156, 14.30566789104183 ] } },
{ "type": "Feature", "properties": { "fid": 5, "id": 5, "cluster_id": "212", "column": null, "row": "A" }, "geometry": { "type": "Point", "coordinates": [ 120.976762539364969, 14.305667350156771 ] } },
{ "type": "Feature", "properties": { "fid": 6, "id": 6, "cluster_id": "212", "column": null, "row": "A" }, "geometry": { "type": "Point", "coordinates": [ 120.976773357066136, 14.30566843192689 ] } },
{ "type": "Feature", "properties": { "fid": 7, "id": 7, "cluster_id": "212", "column": null, "row": "A" }, "geometry": { "type": "Point", "coordinates": [ 120.976785797422465, 14.305669513697005 ] } },
{ "type": "Feature", "properties": { "fid": 8, "id": 8, "cluster_id": "212", "column": null, "row": "A" }, "geometry": { "type": "Point", "coordinates": [ 120.976795533353524, 14.305670595467122 ] } },
{ "type": "Feature", "properties": { "fid": 9, "id": 9, "cluster_id": "212", "column": null, "row": "A" }, "geometry": { "type": "Point", "coordinates": [ 120.976806351054677, 14.305670054582064 ] } },
{ "type": "Feature", "properties": { "fid": 10, "id": 10, "cluster_id": "212", "column": null, "row": "A" }, "geometry": { "type": "Point", "coordinates": [ 120.97681933229606, 14.305672218122295 ] } },
{ "type": "Feature", "properties": { "fid": 11, "id": 11, "cluster_id": "212", "column": null, "row": "A" }, "geometry": { "type": "Point", "coordinates": [ 120.976830690882295, 14.305673299892414 ] } },
{ "type": "Feature", "properties": { "fid": 12, "id": 12, "cluster_id": "212", "column": null, "row": "A" }, "geometry": { "type": "Point", "coordinates": [ 120.976841508583462, 14.305674922547588 ] } },
{ "type": "Feature", "properties": { "fid": 13, "id": 13, "cluster_id": "212", "column": null, "row": "A" }, "geometry": { "type": "Point", "coordinates": [ 120.976855030709913, 14.305675463432644 ] } },
{ "type": "Feature", "properties": { "fid": 14, "id": 14, "cluster_id": "212", "column": null, "row": "A" }, "geometry": { "type": "Point", "coordinates": [ 120.976866930181203, 14.30567762697288 ] } },
{ "type": "Feature", "properties": { "fid": 15, "id": 15, "cluster_id": "212", "column": null, "row": "A" }, "geometry": { "type": "Point", "coordinates": [ 120.976878829652478, 14.305678708742995 ] } },
{ "type": "Feature", "properties": { "fid": 16, "id": 16, "cluster_id": "212", "column": null, "row": "A" }, "geometry": { "type": "Point", "coordinates": [ 120.976890188238698, 14.305678167857938 ] } },
{ "type": "Feature", "properties": { "fid": 17, "id": 17, "cluster_id": "212", "column": null, "row": "A" }, "geometry": { "type": "Point", "coordinates": [ 120.976901546824919, 14.305678708742995 ] } },
{ "type": "Feature", "properties": { "fid": 18, "id": 18, "cluster_id": "212", "column": null, "row": "A" }, "geometry": { "type": "Point", "coordinates": [ 120.976909660100787, 14.305679790513112 ] } },
{ "type": "Feature", "properties": { "fid": 19, "id": 19, "cluster_id": "212", "column": null, "row": "A" }, "geometry": { "type": "Point", "coordinates": [ 120.976919396031846, 14.305679790513112 ] } },
{ "type": "Feature", "properties": { "fid": 20, "id": 20, "cluster_id": "212", "column": null, "row": "A" }, "geometry": { "type": "Point", "coordinates": [ 120.976927509307714, 14.305680872283228 ] } },
{ "type": "Feature", "properties": { "fid": 21, "id": 21, "cluster_id": "212", "column": null, "row": "A" }, "geometry": { "type": "Point", "coordinates": [ 120.976936704353704, 14.305681954053345 ] } },
{ "type": "Feature", "properties": { "fid": 22, "id": 22, "cluster_id": "212", "column": null, "row": "A" }, "geometry": { "type": "Point", "coordinates": [ 120.976942113204288, 14.305681954053345 ] } },
{ "type": "Feature", "properties": { "fid": 23, "id": 23, "cluster_id": "212", "column": null, "row": "A" }, "geometry": { "type": "Point", "coordinates": [ 120.976951308250278, 14.305683035823462 ] } },
{ "type": "Feature", "properties": { "fid": 24, "id": 24, "cluster_id": "212", "column": null, "row": "A" }, "geometry": { "type": "Point", "coordinates": [ 120.976960503296269, 14.305683035823462 ] } },
{ "type": "Feature", "properties": { "fid": 25, "id": 25, "cluster_id": "212", "column": null, "row": "A" }, "geometry": { "type": "Point", "coordinates": [ 120.976968075687083, 14.305685740248752 ] } },
{ "type": "Feature", "properties": { "fid": 26, "id": 26, "cluster_id": "212", "column": null, "row": "A" }, "geometry": { "type": "Point", "coordinates": [ 120.976976188962951, 14.305684658478636 ] } },
{ "type": "Feature", "properties": { "fid": 27, "id": 27, "cluster_id": "212", "column": null, "row": "A" }, "geometry": { "type": "Point", "coordinates": [ 120.976984302238833, 14.305686281133811 ] } },
{ "type": "Feature", "properties": { "fid": 28, "id": 28, "cluster_id": "212", "column": null, "row": "A" }, "geometry": { "type": "Point", "coordinates": [ 120.976991874629647, 14.305687362903926 ] } },
{ "type": "Feature", "properties": { "fid": 29, "id": 29, "cluster_id": "212", "column": null, "row": "A" }, "geometry": { "type": "Point", "coordinates": [ 120.976999447020461, 14.305687903788986 ] } },
{ "type": "Feature", "properties": { "fid": 30, "id": 30, "cluster_id": "212", "column": null, "row": "A" }, "geometry": { "type": "Point", "coordinates": [ 120.977007560296329, 14.305687903788986 ] } },
{ "type": "Feature", "properties": { "fid": 31, "id": 31, "cluster_id": "212", "column": null, "row": "A" }, "geometry": { "type": "Point", "coordinates": [ 120.977012428261858, 14.305687903788986 ] } },
{ "type": "Feature", "properties": { "fid": 32, "id": 32, "cluster_id": "212", "column": null, "row": "A" }, "geometry": { "type": "Point", "coordinates": [ 120.977021623307849, 14.305688985559101 ] } },
{ "type": "Feature", "properties": { "fid": 33, "id": 33, "cluster_id": "212", "column": null, "row": "A" }, "geometry": { "type": "Point", "coordinates": [ 120.977028654813608, 14.305688985559101 ] } },
{ "type": "Feature", "properties": { "fid": 34, "id": 34, "cluster_id": "212", "column": null, "row": "A" }, "geometry": { "type": "Point", "coordinates": [ 120.977035686319354, 14.305689526444159 ] } },
{ "type": "Feature", "properties": { "fid": 35, "id": 35, "cluster_id": "212", "column": null, "row": "A" }, "geometry": { "type": "Point", "coordinates": [ 120.977041636055006, 14.305690067329218 ] } }
]
}
