{
"type": "FeatureCollection",
"name": "cltr-id-191-c-row",
"crs": { "type": "name", "properties": { "name": "urn:ogc:def:crs:OGC:1.3:CRS84" } },
"features": [
{ "type": "Feature", "properties": { "fid": 1, "id": 1, "cluster_id": "191", "column": null, "row": "C" }, "geometry": { "type": "Point", "coordinates": [ 120.976784039546118, 14.305432876484037 ] } },
{ "type": "Feature", "properties": { "fid": 2, "id": 2, "cluster_id": "191", "column": null, "row": "C" }, "geometry": { "type": "Point", "coordinates": [ 120.976782416890956, 14.305424222323106 ] } },
{ "type": "Feature", "properties": { "fid": 3, "id": 3, "cluster_id": "191", "column": null, "row": "C" }, "geometry": { "type": "Point", "coordinates": [ 120.976792693707054, 14.305420977012757 ] } },
{ "type": "Feature", "properties": { "fid": 4, "id": 4, "cluster_id": "191", "column": null, "row": "C" }, "geometry": { "type": "Point", "coordinates": [ 120.976802429638099, 14.305420436127697 ] } },
{ "type": "Feature", "properties": { "fid": 5, "id": 5, "cluster_id": "191", "column": null, "row": "C" }, "geometry": { "type": "Point", "coordinates": [ 120.976811083799035, 14.305420436127697 ] } },
{ "type": "Feature", "properties": { "fid": 6, "id": 6, "cluster_id": "191", "column": null, "row": "C" }, "geometry": { "type": "Point", "coordinates": [ 120.976820819730079, 14.305420436127697 ] } },
{ "type": "Feature", "properties": { "fid": 7, "id": 7, "cluster_id": "191", "column": null, "row": "C" }, "geometry": { "type": "Point", "coordinates": [ 120.976831637431246, 14.305423681438047 ] } },
{ "type": "Feature", "properties": { "fid": 8, "id": 8, "cluster_id": "191", "column": null, "row": "C" }, "geometry": { "type": "Point", "coordinates": [ 120.976837587166884, 14.305424222323106 ] } },
{ "type": "Feature", "properties": { "fid": 9, "id": 9, "cluster_id": "191", "column": null, "row": "C" }, "geometry": { "type": "Point", "coordinates": [ 120.976848945753105, 14.305424222323106 ] } },
{ "type": "Feature", "properties": { "fid": 10, "id": 10, "cluster_id": "191", "column": null, "row": "C" }, "geometry": { "type": "Point", "coordinates": [ 120.976857059028987, 14.305425844978281 ] } },
{ "type": "Feature", "properties": { "fid": 11, "id": 11, "cluster_id": "191", "column": null, "row": "C" }, "geometry": { "type": "Point", "coordinates": [ 120.976867335845085, 14.305425844978281 ] } },
{ "type": "Feature", "properties": { "fid": 12, "id": 12, "cluster_id": "191", "column": null, "row": "C" }, "geometry": { "type": "Point", "coordinates": [ 120.976877612661198, 14.305428008518513 ] } },
{ "type": "Feature", "properties": { "fid": 13, "id": 13, "cluster_id": "191", "column": null, "row": "C" }, "geometry": { "type": "Point", "coordinates": [ 120.976888971247419, 14.305429090288628 ] } },
{ "type": "Feature", "properties": { "fid": 14, "id": 14, "cluster_id": "191", "column": null, "row": "C" }, "geometry": { "type": "Point", "coordinates": [ 120.976897625408341, 14.305428549403571 ] } },
{ "type": "Feature", "properties": { "fid": 15, "id": 15, "cluster_id": "191", "column": null, "row": "C" }, "geometry": { "type": "Point", "coordinates": [ 120.976907631781913, 14.305430983386332 ] } },
{ "type": "Feature", "properties": { "fid": 16, "id": 16, "cluster_id": "191", "column": null, "row": "C" }, "geometry": { "type": "Point", "coordinates": [ 120.976916015500322, 14.305432876484037 ] } },
{ "type": "Feature", "properties": { "fid": 17, "id": 17, "cluster_id": "191", "column": null, "row": "C" }, "geometry": { "type": "Point", "coordinates": [ 120.976926833201489, 14.305434499139212 ] } },
{ "type": "Feature", "properties": { "fid": 18, "id": 18, "cluster_id": "191", "column": null, "row": "C" }, "geometry": { "type": "Point", "coordinates": [ 120.976935487362425, 14.305432876484037 ] } },
{ "type": "Feature", "properties": { "fid": 19, "id": 19, "cluster_id": "191", "column": null, "row": "C" }, "geometry": { "type": "Point", "coordinates": [ 120.976942789310712, 14.305435040024269 ] } },
{ "type": "Feature", "properties": { "fid": 20, "id": 20, "cluster_id": "191", "column": null, "row": "C" }, "geometry": { "type": "Point", "coordinates": [ 120.97695441833946, 14.305435580909327 ] } },
{ "type": "Feature", "properties": { "fid": 21, "id": 21, "cluster_id": "191", "column": null, "row": "C" }, "geometry": { "type": "Point", "coordinates": [ 120.976965236040627, 14.305437744449561 ] } },
{ "type": "Feature", "properties": { "fid": 22, "id": 22, "cluster_id": "191", "column": null, "row": "C" }, "geometry": { "type": "Point", "coordinates": [ 120.976975512856725, 14.305437203564502 ] } },
{ "type": "Feature", "properties": { "fid": 23, "id": 23, "cluster_id": "191", "column": null, "row": "C" }, "geometry": { "type": "Point", "coordinates": [ 120.976985789672838, 14.305437744449561 ] } },
{ "type": "Feature", "properties": { "fid": 24, "id": 24, "cluster_id": "191", "column": null, "row": "C" }, "geometry": { "type": "Point", "coordinates": [ 120.976994714276287, 14.30543801489209 ] } },
{ "type": "Feature", "properties": { "fid": 25, "id": 25, "cluster_id": "191", "column": null, "row": "C" }, "geometry": { "type": "Point", "coordinates": [ 120.977002016224588, 14.305440448874851 ] } },
{ "type": "Feature", "properties": { "fid": 26, "id": 26, "cluster_id": "191", "column": null, "row": "C" }, "geometry": { "type": "Point", "coordinates": [ 120.977016079236094, 14.30544098975991 ] } },
{ "type": "Feature", "properties": { "fid": 27, "id": 27, "cluster_id": "191", "column": null, "row": "C" }, "geometry": { "type": "Point", "coordinates": [ 120.97702311074184, 14.305440448874853 ] } },
{ "type": "Feature", "properties": { "fid": 28, "id": 28, "cluster_id": "191", "column": null, "row": "C" }, "geometry": { "type": "Point", "coordinates": [ 120.977033387557952, 14.30544423507026 ] } },
{ "type": "Feature", "properties": { "fid": 29, "id": 29, "cluster_id": "191", "column": null, "row": "C" }, "geometry": { "type": "Point", "coordinates": [ 120.977044746144188, 14.3054436941852 ] } },
{ "type": "Feature", "properties": { "fid": 30, "id": 30, "cluster_id": "191", "column": null, "row": "C" }, "geometry": { "type": "Point", "coordinates": [ 120.977052318535002, 14.30544423507026 ] } },
{ "type": "Feature", "properties": { "fid": 31, "id": 31, "cluster_id": "191", "column": null, "row": "C" }, "geometry": { "type": "Point", "coordinates": [ 120.977063136236154, 14.30544423507026 ] } },
{ "type": "Feature", "properties": { "fid": 32, "id": 32, "cluster_id": "191", "column": null, "row": "C" }, "geometry": { "type": "Point", "coordinates": [ 120.977071249512036, 14.305445857725434 ] } },
{ "type": "Feature", "properties": { "fid": 33, "id": 33, "cluster_id": "191", "column": null, "row": "C" }, "geometry": { "type": "Point", "coordinates": [ 120.977080174115486, 14.30544720993808 ] } },
{ "type": "Feature", "properties": { "fid": 34, "id": 34, "cluster_id": "191", "column": null, "row": "C" }, "geometry": { "type": "Point", "coordinates": [ 120.977088557833895, 14.305447480380609 ] } },
{ "type": "Feature", "properties": { "fid": 35, "id": 35, "cluster_id": "191", "column": null, "row": "C" }, "geometry": { "type": "Point", "coordinates": [ 120.977094507569532, 14.305450184805899 ] } },
{ "type": "Feature", "properties": { "fid": 36, "id": 36, "cluster_id": "191", "column": null, "row": "C" }, "geometry": { "type": "Point", "coordinates": [ 120.977101809517819, 14.305449643920843 ] } }
]
}
