{
"type": "FeatureCollection",
"name": "cltr-id-182-e-row",
"crs": { "type": "name", "properties": { "name": "urn:ogc:def:crs:OGC:1.3:CRS84" } },
"features": [
{ "type": "Feature", "properties": { "fid": 1, "id": 1, "cluster_id": "182", "column": null, "row": "E" }, "geometry": { "type": "Point", "coordinates": [ 120.976623881226686, 14.305438398019028 ] } },
{ "type": "Feature", "properties": { "fid": 2, "id": 2, "cluster_id": "182", "column": null, "row": "E" }, "geometry": { "type": "Point", "coordinates": [ 120.976635510255434, 14.30544110244432 ] } },
{ "type": "Feature", "properties": { "fid": 3, "id": 3, "cluster_id": "182", "column": null, "row": "E" }, "geometry": { "type": "Point", "coordinates": [ 120.976648761939359, 14.305441913771908 ] } },
{ "type": "Feature", "properties": { "fid": 4, "id": 4, "cluster_id": "182", "column": null, "row": "E" }, "geometry": { "type": "Point", "coordinates": [ 120.976660120525594, 14.305443806869611 ] } },
{ "type": "Feature", "properties": { "fid": 5, "id": 5, "cluster_id": "182", "column": null, "row": "E" }, "geometry": { "type": "Point", "coordinates": [ 120.976669856456638, 14.305444618197198 ] } },
{ "type": "Feature", "properties": { "fid": 6, "id": 6, "cluster_id": "182", "column": null, "row": "E" }, "geometry": { "type": "Point", "coordinates": [ 120.976679051502629, 14.305445429524786 ] } },
{ "type": "Feature", "properties": { "fid": 7, "id": 7, "cluster_id": "182", "column": null, "row": "E" }, "geometry": { "type": "Point", "coordinates": [ 120.9766890578762, 14.30544732262249 ] } },
{ "type": "Feature", "properties": { "fid": 8, "id": 8, "cluster_id": "182", "column": null, "row": "E" }, "geometry": { "type": "Point", "coordinates": [ 120.976696900709541, 14.305446511294901 ] } },
{ "type": "Feature", "properties": { "fid": 9, "id": 9, "cluster_id": "182", "column": null, "row": "E" }, "geometry": { "type": "Point", "coordinates": [ 120.9767066366406, 14.305448133950076 ] } },
{ "type": "Feature", "properties": { "fid": 10, "id": 10, "cluster_id": "182", "column": null, "row": "E" }, "geometry": { "type": "Point", "coordinates": [ 120.976716102129117, 14.305448404392607 ] } },
{ "type": "Feature", "properties": { "fid": 11, "id": 11, "cluster_id": "182", "column": null, "row": "E" }, "geometry": { "type": "Point", "coordinates": [ 120.976718806554402, 14.305443536427083 ] } },
{ "type": "Feature", "properties": { "fid": 12, "id": 12, "cluster_id": "182", "column": null, "row": "E" }, "geometry": { "type": "Point", "coordinates": [ 120.976719888324524, 14.305436775363853 ] } }
]
}
