{
"type": "FeatureCollection",
"name": "cltr-id-192-a-row",
"crs": { "type": "name", "properties": { "name": "urn:ogc:def:crs:OGC:1.3:CRS84" } },
"features": [
{ "type": "Feature", "properties": { "fid": 1, "id": 1, "cluster_id": "192", "column": null, "row": "A" }, "geometry": { "type": "Point", "coordinates": [ 120.976736035997135, 14.305598928196911 ] } },
{ "type": "Feature", "properties": { "fid": 2, "id": 2, "cluster_id": "192", "column": null, "row": "A" }, "geometry": { "type": "Point", "coordinates": [ 120.976743608387963, 14.305600550852086 ] } },
{ "type": "Feature", "properties": { "fid": 3, "id": 3, "cluster_id": "192", "column": null, "row": "A" }, "geometry": { "type": "Point", "coordinates": [ 120.976751180778763, 14.305600550852086 ] } },
{ "type": "Feature", "properties": { "fid": 4, "id": 4, "cluster_id": "192", "column": null, "row": "A" }, "geometry": { "type": "Point", "coordinates": [ 120.976759023612104, 14.305601632622203 ] } },
{ "type": "Feature", "properties": { "fid": 5, "id": 5, "cluster_id": "192", "column": null, "row": "A" }, "geometry": { "type": "Point", "coordinates": [ 120.976767948215567, 14.305602984834849 ] } },
{ "type": "Feature", "properties": { "fid": 6, "id": 6, "cluster_id": "192", "column": null, "row": "A" }, "geometry": { "type": "Point", "coordinates": [ 120.976779577244329, 14.305604337047493 ] } },
{ "type": "Feature", "properties": { "fid": 7, "id": 7, "cluster_id": "192", "column": null, "row": "A" }, "geometry": { "type": "Point", "coordinates": [ 120.976789042732833, 14.305605148375083 ] } },
{ "type": "Feature", "properties": { "fid": 8, "id": 8, "cluster_id": "192", "column": null, "row": "A" }, "geometry": { "type": "Point", "coordinates": [ 120.976797696893783, 14.305606230145198 ] } },
{ "type": "Feature", "properties": { "fid": 9, "id": 9, "cluster_id": "192", "column": null, "row": "A" }, "geometry": { "type": "Point", "coordinates": [ 120.976806080612192, 14.305607041472785 ] } },
{ "type": "Feature", "properties": { "fid": 10, "id": 10, "cluster_id": "192", "column": null, "row": "A" }, "geometry": { "type": "Point", "coordinates": [ 120.976819061853575, 14.305607852800371 ] } },
{ "type": "Feature", "properties": { "fid": 11, "id": 11, "cluster_id": "192", "column": null, "row": "A" }, "geometry": { "type": "Point", "coordinates": [ 120.976830149997269, 14.305608664127959 ] } },
{ "type": "Feature", "properties": { "fid": 12, "id": 12, "cluster_id": "192", "column": null, "row": "A" }, "geometry": { "type": "Point", "coordinates": [ 120.97684204946853, 14.305610557225664 ] } },
{ "type": "Feature", "properties": { "fid": 13, "id": 13, "cluster_id": "192", "column": null, "row": "A" }, "geometry": { "type": "Point", "coordinates": [ 120.976850974072008, 14.305610827668191 ] } },
{ "type": "Feature", "properties": { "fid": 14, "id": 14, "cluster_id": "192", "column": null, "row": "A" }, "geometry": { "type": "Point", "coordinates": [ 120.976861791773175, 14.305612991208424 ] } },
{ "type": "Feature", "properties": { "fid": 15, "id": 15, "cluster_id": "192", "column": null, "row": "A" }, "geometry": { "type": "Point", "coordinates": [ 120.976872879916854, 14.305612720765895 ] } },
{ "type": "Feature", "properties": { "fid": 16, "id": 16, "cluster_id": "192", "column": null, "row": "A" }, "geometry": { "type": "Point", "coordinates": [ 120.976885861158252, 14.305614343421071 ] } },
{ "type": "Feature", "properties": { "fid": 17, "id": 17, "cluster_id": "192", "column": null, "row": "A" }, "geometry": { "type": "Point", "coordinates": [ 120.976905603462896, 14.305616506961302 ] } },
{ "type": "Feature", "properties": { "fid": 18, "id": 18, "cluster_id": "192", "column": null, "row": "A" }, "geometry": { "type": "Point", "coordinates": [ 120.976898031072068, 14.305615154748656 ] } },
{ "type": "Feature", "properties": { "fid": 19, "id": 19, "cluster_id": "192", "column": null, "row": "A" }, "geometry": { "type": "Point", "coordinates": [ 120.976914798508872, 14.305617318288892 ] } },
{ "type": "Feature", "properties": { "fid": 20, "id": 20, "cluster_id": "192", "column": null, "row": "A" }, "geometry": { "type": "Point", "coordinates": [ 120.97692426399739, 14.305618400059007 ] } },
{ "type": "Feature", "properties": { "fid": 21, "id": 21, "cluster_id": "192", "column": null, "row": "A" }, "geometry": { "type": "Point", "coordinates": [ 120.976936163468665, 14.305618940944065 ] } },
{ "type": "Feature", "properties": { "fid": 22, "id": 22, "cluster_id": "192", "column": null, "row": "A" }, "geometry": { "type": "Point", "coordinates": [ 120.9769475220549, 14.305618940944065 ] } },
{ "type": "Feature", "properties": { "fid": 23, "id": 23, "cluster_id": "192", "column": null, "row": "A" }, "geometry": { "type": "Point", "coordinates": [ 120.976957257985944, 14.305620293156711 ] } },
{ "type": "Feature", "properties": { "fid": 24, "id": 24, "cluster_id": "192", "column": null, "row": "A" }, "geometry": { "type": "Point", "coordinates": [ 120.976966182589408, 14.30562056359924 ] } },
{ "type": "Feature", "properties": { "fid": 25, "id": 25, "cluster_id": "192", "column": null, "row": "A" }, "geometry": { "type": "Point", "coordinates": [ 120.97697132099745, 14.305620834041768 ] } },
{ "type": "Feature", "properties": { "fid": 26, "id": 26, "cluster_id": "192", "column": null, "row": "A" }, "geometry": { "type": "Point", "coordinates": [ 120.976976729848033, 14.305622186254414 ] } },
{ "type": "Feature", "properties": { "fid": 27, "id": 27, "cluster_id": "192", "column": null, "row": "A" }, "geometry": { "type": "Point", "coordinates": [ 120.976982138698617, 14.305622186254414 ] } },
{ "type": "Feature", "properties": { "fid": 28, "id": 28, "cluster_id": "192", "column": null, "row": "A" }, "geometry": { "type": "Point", "coordinates": [ 120.976987006664132, 14.305623538467062 ] } },
{ "type": "Feature", "properties": { "fid": 29, "id": 29, "cluster_id": "192", "column": null, "row": "A" }, "geometry": { "type": "Point", "coordinates": [ 120.97699457905496, 14.305623808909587 ] } },
{ "type": "Feature", "properties": { "fid": 30, "id": 30, "cluster_id": "192", "column": null, "row": "A" }, "geometry": { "type": "Point", "coordinates": [ 120.976999717463016, 14.305624620237175 ] } },
{ "type": "Feature", "properties": { "fid": 31, "id": 31, "cluster_id": "192", "column": null, "row": "A" }, "geometry": { "type": "Point", "coordinates": [ 120.977007019411289, 14.305625161122235 ] } },
{ "type": "Feature", "properties": { "fid": 32, "id": 32, "cluster_id": "192", "column": null, "row": "A" }, "geometry": { "type": "Point", "coordinates": [ 120.977014050917063, 14.305625972449821 ] } },
{ "type": "Feature", "properties": { "fid": 33, "id": 33, "cluster_id": "192", "column": null, "row": "A" }, "geometry": { "type": "Point", "coordinates": [ 120.977021352865336, 14.305626783777409 ] } },
{ "type": "Feature", "properties": { "fid": 34, "id": 34, "cluster_id": "192", "column": null, "row": "A" }, "geometry": { "type": "Point", "coordinates": [ 120.977028654813637, 14.305627595104998 ] } },
{ "type": "Feature", "properties": { "fid": 35, "id": 35, "cluster_id": "192", "column": null, "row": "A" }, "geometry": { "type": "Point", "coordinates": [ 120.977037308974573, 14.305628406432584 ] } },
{ "type": "Feature", "properties": { "fid": 36, "id": 36, "cluster_id": "192", "column": null, "row": "A" }, "geometry": { "type": "Point", "coordinates": [ 120.977045963135495, 14.305628406432584 ] } },
{ "type": "Feature", "properties": { "fid": 37, "id": 37, "cluster_id": "192", "column": null, "row": "A" }, "geometry": { "type": "Point", "coordinates": [ 120.977054887738944, 14.305628676875113 ] } },
{ "type": "Feature", "properties": { "fid": 38, "id": 38, "cluster_id": "192", "column": null, "row": "A" }, "geometry": { "type": "Point", "coordinates": [ 120.977062189687246, 14.30562975864523 ] } },
{ "type": "Feature", "properties": { "fid": 39, "id": 39, "cluster_id": "192", "column": null, "row": "A" }, "geometry": { "type": "Point", "coordinates": [ 120.977080850221739, 14.305621915811885 ] } },
{ "type": "Feature", "properties": { "fid": 40, "id": 40, "cluster_id": "192", "column": null, "row": "A" }, "geometry": { "type": "Point", "coordinates": [ 120.977081661549335, 14.305614072978541 ] } }
]
}
