{
"type": "FeatureCollection",
"name": "cltr-id-170-a-row",
"crs": { "type": "name", "properties": { "name": "urn:ogc:def:crs:OGC:1.3:CRS84" } },
"features": [
{ "type": "Feature", "properties": { "fid": 1, "id": 1, "cluster_id": "170", "column": null, "row": "A" }, "geometry": { "type": "Point", "coordinates": [ 120.976018861223366, 14.305871942434166 ] } },
{ "type": "Feature", "properties": { "fid": 2, "id": 2, "cluster_id": "170", "column": null, "row": "A" }, "geometry": { "type": "Point", "coordinates": [ 120.97602615315526, 14.305872503352004 ] } },
{ "type": "Feature", "properties": { "fid": 3, "id": 3, "cluster_id": "170", "column": null, "row": "A" }, "geometry": { "type": "Point", "coordinates": [ 120.976036810594195, 14.305873625187681 ] } },
{ "type": "Feature", "properties": { "fid": 4, "id": 4, "cluster_id": "170", "column": null, "row": "A" }, "geometry": { "type": "Point", "coordinates": [ 120.976044102526089, 14.305875307941196 ] } },
{ "type": "Feature", "properties": { "fid": 5, "id": 5, "cluster_id": "170", "column": null, "row": "A" }, "geometry": { "type": "Point", "coordinates": [ 120.976053638129343, 14.305874747023358 ] } },
{ "type": "Feature", "properties": { "fid": 6, "id": 6, "cluster_id": "170", "column": null, "row": "A" }, "geometry": { "type": "Point", "coordinates": [ 120.976064295568264, 14.305876429776873 ] } },
{ "type": "Feature", "properties": { "fid": 7, "id": 7, "cluster_id": "170", "column": null, "row": "A" }, "geometry": { "type": "Point", "coordinates": [ 120.976073831171519, 14.30587699069471 ] } },
{ "type": "Feature", "properties": { "fid": 8, "id": 8, "cluster_id": "170", "column": null, "row": "A" }, "geometry": { "type": "Point", "coordinates": [ 120.976084488610439, 14.305878673448225 ] } },
{ "type": "Feature", "properties": { "fid": 9, "id": 9, "cluster_id": "170", "column": null, "row": "A" }, "geometry": { "type": "Point", "coordinates": [ 120.976092341460173, 14.305879234366063 ] } },
{ "type": "Feature", "properties": { "fid": 10, "id": 10, "cluster_id": "170", "column": null, "row": "A" }, "geometry": { "type": "Point", "coordinates": [ 120.976099072474227, 14.305879234366063 ] } },
{ "type": "Feature", "properties": { "fid": 11, "id": 11, "cluster_id": "170", "column": null, "row": "A" }, "geometry": { "type": "Point", "coordinates": [ 120.976105242570455, 14.305879795283902 ] } },
{ "type": "Feature", "properties": { "fid": 12, "id": 12, "cluster_id": "170", "column": null, "row": "A" }, "geometry": { "type": "Point", "coordinates": [ 120.976113095420189, 14.305880917119579 ] } },
{ "type": "Feature", "properties": { "fid": 13, "id": 13, "cluster_id": "170", "column": null, "row": "A" }, "geometry": { "type": "Point", "coordinates": [ 120.976119265516402, 14.305881478037417 ] } },
{ "type": "Feature", "properties": { "fid": 14, "id": 14, "cluster_id": "170", "column": null, "row": "A" }, "geometry": { "type": "Point", "coordinates": [ 120.97612655744831, 14.305881478037417 ] } },
{ "type": "Feature", "properties": { "fid": 15, "id": 15, "cluster_id": "170", "column": null, "row": "A" }, "geometry": { "type": "Point", "coordinates": [ 120.976132727544524, 14.305881478037417 ] } },
{ "type": "Feature", "properties": { "fid": 16, "id": 16, "cluster_id": "170", "column": null, "row": "A" }, "geometry": { "type": "Point", "coordinates": [ 120.976137775805071, 14.305882038955254 ] } },
{ "type": "Feature", "properties": { "fid": 17, "id": 17, "cluster_id": "170", "column": null, "row": "A" }, "geometry": { "type": "Point", "coordinates": [ 120.976145067736965, 14.305882038955254 ] } },
{ "type": "Feature", "properties": { "fid": 18, "id": 18, "cluster_id": "170", "column": null, "row": "A" }, "geometry": { "type": "Point", "coordinates": [ 120.976152359668859, 14.305882599873092 ] } },
{ "type": "Feature", "properties": { "fid": 19, "id": 19, "cluster_id": "170", "column": null, "row": "A" }, "geometry": { "type": "Point", "coordinates": [ 120.976160212518593, 14.305884282626607 ] } },
{ "type": "Feature", "properties": { "fid": 20, "id": 20, "cluster_id": "170", "column": null, "row": "A" }, "geometry": { "type": "Point", "coordinates": [ 120.976167504450487, 14.305883721708769 ] } },
{ "type": "Feature", "properties": { "fid": 21, "id": 21, "cluster_id": "170", "column": null, "row": "A" }, "geometry": { "type": "Point", "coordinates": [ 120.976177040053742, 14.305885404462284 ] } },
{ "type": "Feature", "properties": { "fid": 22, "id": 22, "cluster_id": "170", "column": null, "row": "A" }, "geometry": { "type": "Point", "coordinates": [ 120.976187136574822, 14.305885965380121 ] } },
{ "type": "Feature", "properties": { "fid": 23, "id": 23, "cluster_id": "170", "column": null, "row": "A" }, "geometry": { "type": "Point", "coordinates": [ 120.976198915849423, 14.305887087215797 ] } },
{ "type": "Feature", "properties": { "fid": 24, "id": 24, "cluster_id": "170", "column": null, "row": "A" }, "geometry": { "type": "Point", "coordinates": [ 120.976209012370532, 14.305887648133634 ] } },
{ "type": "Feature", "properties": { "fid": 25, "id": 25, "cluster_id": "170", "column": null, "row": "A" }, "geometry": { "type": "Point", "coordinates": [ 120.976219108891627, 14.305890452722828 ] } },
{ "type": "Feature", "properties": { "fid": 26, "id": 26, "cluster_id": "170", "column": null, "row": "A" }, "geometry": { "type": "Point", "coordinates": [ 120.976231449084054, 14.305891013640666 ] } },
{ "type": "Feature", "properties": { "fid": 27, "id": 27, "cluster_id": "170", "column": null, "row": "A" }, "geometry": { "type": "Point", "coordinates": [ 120.976242106522974, 14.305891013640666 ] } },
{ "type": "Feature", "properties": { "fid": 28, "id": 28, "cluster_id": "170", "column": null, "row": "A" }, "geometry": { "type": "Point", "coordinates": [ 120.976255007633256, 14.305891574558505 ] } },
{ "type": "Feature", "properties": { "fid": 29, "id": 29, "cluster_id": "170", "column": null, "row": "A" }, "geometry": { "type": "Point", "coordinates": [ 120.976261738647324, 14.305892135476343 ] } },
{ "type": "Feature", "properties": { "fid": 30, "id": 30, "cluster_id": "170", "column": null, "row": "A" }, "geometry": { "type": "Point", "coordinates": [ 120.976269030579232, 14.305893257312018 ] } },
{ "type": "Feature", "properties": { "fid": 31, "id": 31, "cluster_id": "170", "column": null, "row": "A" }, "geometry": { "type": "Point", "coordinates": [ 120.976279688018138, 14.305893818229857 ] } },
{ "type": "Feature", "properties": { "fid": 32, "id": 32, "cluster_id": "170", "column": null, "row": "A" }, "geometry": { "type": "Point", "coordinates": [ 120.976291467292739, 14.305895500983368 ] } },
{ "type": "Feature", "properties": { "fid": 33, "id": 33, "cluster_id": "170", "column": null, "row": "A" }, "geometry": { "type": "Point", "coordinates": [ 120.976302124731674, 14.305895500983368 ] } },
{ "type": "Feature", "properties": { "fid": 34, "id": 34, "cluster_id": "170", "column": null, "row": "A" }, "geometry": { "type": "Point", "coordinates": [ 120.976314464924101, 14.305896622819049 ] } }
]
}
