{
"type": "FeatureCollection",
"name": "cltr-id-160-a-row",
"crs": { "type": "name", "properties": { "name": "urn:ogc:def:crs:OGC:1.3:CRS84" } },
"features": [
{ "type": "Feature", "properties": { "fid": 1, "id": 1, "cluster_id": "160", "column": null, "rows": "A" }, "geometry": { "type": "Point", "coordinates": [ 120.976382152862769, 14.305837377696614 ] } },
{ "type": "Feature", "properties": { "fid": 2, "id": 2, "cluster_id": "160", "column": null, "rows": "A" }, "geometry": { "type": "Point", "coordinates": [ 120.976393282184958, 14.305838543625605 ] } },
{ "type": "Feature", "properties": { "fid": 3, "id": 3, "cluster_id": "160", "column": null, "rows": "A" }, "geometry": { "type": "Point", "coordinates": [ 120.976404093526497, 14.305839285580417 ] } },
{ "type": "Feature", "properties": { "fid": 4, "id": 4, "cluster_id": "160", "column": null, "rows": "A" }, "geometry": { "type": "Point", "coordinates": [ 120.976416494771243, 14.30584023952232 ] } },
{ "type": "Feature", "properties": { "fid": 5, "id": 5, "cluster_id": "160", "column": null, "rows": "A" }, "geometry": { "type": "Point", "coordinates": [ 120.976425504222533, 14.305840875483588 ] } },
{ "type": "Feature", "properties": { "fid": 6, "id": 6, "cluster_id": "160", "column": null, "rows": "A" }, "geometry": { "type": "Point", "coordinates": [ 120.976433347744816, 14.305841405451311 ] } },
{ "type": "Feature", "properties": { "fid": 7, "id": 7, "cluster_id": "160", "column": null, "rows": "A" }, "geometry": { "type": "Point", "coordinates": [ 120.976441933221935, 14.305841829425489 ] } },
{ "type": "Feature", "properties": { "fid": 8, "id": 8, "cluster_id": "160", "column": null, "rows": "A" }, "geometry": { "type": "Point", "coordinates": [ 120.97644882280234, 14.305842677373846 ] } },
{ "type": "Feature", "properties": { "fid": 9, "id": 9, "cluster_id": "160", "column": null, "rows": "A" }, "geometry": { "type": "Point", "coordinates": [ 120.976458362221379, 14.305842889360935 ] } },
{ "type": "Feature", "properties": { "fid": 10, "id": 10, "cluster_id": "160", "column": null, "rows": "A" }, "geometry": { "type": "Point", "coordinates": [ 120.976465675775941, 14.305843631315748 ] } },
{ "type": "Feature", "properties": { "fid": 11, "id": 11, "cluster_id": "160", "column": null, "rows": "A" }, "geometry": { "type": "Point", "coordinates": [ 120.976474897214331, 14.305844055289926 ] } },
{ "type": "Feature", "properties": { "fid": 12, "id": 12, "cluster_id": "160", "column": null, "rows": "A" }, "geometry": { "type": "Point", "coordinates": [ 120.9764833766979, 14.305845115225372 ] } },
{ "type": "Feature", "properties": { "fid": 13, "id": 13, "cluster_id": "160", "column": null, "rows": "A" }, "geometry": { "type": "Point", "coordinates": [ 120.976491008233111, 14.305845221218917 ] } },
{ "type": "Feature", "properties": { "fid": 14, "id": 14, "cluster_id": "160", "column": null, "rows": "A" }, "geometry": { "type": "Point", "coordinates": [ 120.976495989929717, 14.305839179586872 ] } },
{ "type": "Feature", "properties": { "fid": 15, "id": 15, "cluster_id": "160", "column": null, "rows": "A" }, "geometry": { "type": "Point", "coordinates": [ 120.976496519897438, 14.305832290006471 ] } }
]
}
