{
"type": "FeatureCollection",
"name": "cltr-id-200-a-row",
"crs": { "type": "name", "properties": { "name": "urn:ogc:def:crs:OGC:1.3:CRS84" } },
"features": [
{ "type": "Feature", "properties": { "fid": 1, "id": 1, "cluster_id": "200", "column": null, "row": "A" }, "geometry": { "type": "Point", "coordinates": [ 120.976620230252536, 14.305517367237528 ] } },
{ "type": "Feature", "properties": { "fid": 2, "id": 2, "cluster_id": "200", "column": null, "row": "A" }, "geometry": { "type": "Point", "coordinates": [ 120.97662996618358, 14.305517908122585 ] } },
{ "type": "Feature", "properties": { "fid": 3, "id": 3, "cluster_id": "200", "column": null, "row": "A" }, "geometry": { "type": "Point", "coordinates": [ 120.976639161229571, 14.305518989892702 ] } },
{ "type": "Feature", "properties": { "fid": 4, "id": 4, "cluster_id": "200", "column": null, "row": "A" }, "geometry": { "type": "Point", "coordinates": [ 120.976647815390493, 14.305519260335229 ] } },
{ "type": "Feature", "properties": { "fid": 5, "id": 5, "cluster_id": "200", "column": null, "row": "A" }, "geometry": { "type": "Point", "coordinates": [ 120.976655387781321, 14.305519530777758 ] } },
{ "type": "Feature", "properties": { "fid": 6, "id": 6, "cluster_id": "200", "column": null, "row": "A" }, "geometry": { "type": "Point", "coordinates": [ 120.976664853269838, 14.305520612547877 ] } },
{ "type": "Feature", "properties": { "fid": 7, "id": 7, "cluster_id": "200", "column": null, "row": "A" }, "geometry": { "type": "Point", "coordinates": [ 120.97667485964341, 14.305521423875462 ] } },
{ "type": "Feature", "properties": { "fid": 8, "id": 8, "cluster_id": "200", "column": null, "row": "A" }, "geometry": { "type": "Point", "coordinates": [ 120.976684054689414, 14.305521964760521 ] } },
{ "type": "Feature", "properties": { "fid": 9, "id": 9, "cluster_id": "200", "column": null, "row": "A" }, "geometry": { "type": "Point", "coordinates": [ 120.976692979292864, 14.305522776088107 ] } },
{ "type": "Feature", "properties": { "fid": 10, "id": 10, "cluster_id": "200", "column": null, "row": "A" }, "geometry": { "type": "Point", "coordinates": [ 120.976703526551489, 14.305523316973165 ] } }
]
}
