{
"type": "FeatureCollection",
"name": "cltr-id-166-b -row",
"crs": { "type": "name", "properties": { "name": "urn:ogc:def:crs:OGC:1.3:CRS84" } },
"features": [
{ "type": "Feature", "properties": { "fid": 1, "id": 1, "cluster_id": "166", "column": null, "row": "B" }, "geometry": { "type": "Point", "coordinates": [ 120.976042777949175, 14.305595304814767 ] } },
{ "type": "Feature", "properties": { "fid": 2, "id": 2, "cluster_id": "166", "column": null, "row": "B" }, "geometry": { "type": "Point", "coordinates": [ 120.976051752634589, 14.305596800595669 ] } },
{ "type": "Feature", "properties": { "fid": 3, "id": 3, "cluster_id": "166", "column": null, "row": "B" }, "geometry": { "type": "Point", "coordinates": [ 120.976060353374763, 14.305598296376571 ] } },
{ "type": "Feature", "properties": { "fid": 4, "id": 4, "cluster_id": "166", "column": null, "row": "B" }, "geometry": { "type": "Point", "coordinates": [ 120.976069702005404, 14.305599044267021 ] } },
{ "type": "Feature", "properties": { "fid": 5, "id": 5, "cluster_id": "166", "column": null, "row": "B" }, "geometry": { "type": "Point", "coordinates": [ 120.976078676690818, 14.3056001661027 ] } },
{ "type": "Feature", "properties": { "fid": 6, "id": 6, "cluster_id": "166", "column": null, "row": "B" }, "geometry": { "type": "Point", "coordinates": [ 120.976086529540552, 14.305600540047925 ] } },
{ "type": "Feature", "properties": { "fid": 7, "id": 7, "cluster_id": "166", "column": null, "row": "B" }, "geometry": { "type": "Point", "coordinates": [ 120.976092512664167, 14.30560091399315 ] } },
{ "type": "Feature", "properties": { "fid": 8, "id": 8, "cluster_id": "166", "column": null, "row": "B" }, "geometry": { "type": "Point", "coordinates": [ 120.976100365513901, 14.305601287938375 ] } },
{ "type": "Feature", "properties": { "fid": 9, "id": 9, "cluster_id": "166", "column": null, "row": "B" }, "geometry": { "type": "Point", "coordinates": [ 120.976107844418408, 14.305602409774052 ] } },
{ "type": "Feature", "properties": { "fid": 10, "id": 10, "cluster_id": "166", "column": null, "row": "B" }, "geometry": { "type": "Point", "coordinates": [ 120.976115323322915, 14.305602409774052 ] } },
{ "type": "Feature", "properties": { "fid": 11, "id": 11, "cluster_id": "166", "column": null, "row": "B" }, "geometry": { "type": "Point", "coordinates": [ 120.976123176172649, 14.305603905554953 ] } },
{ "type": "Feature", "properties": { "fid": 12, "id": 12, "cluster_id": "166", "column": null, "row": "B" }, "geometry": { "type": "Point", "coordinates": [ 120.976129533241476, 14.305604279500178 ] } },
{ "type": "Feature", "properties": { "fid": 13, "id": 13, "cluster_id": "166", "column": null, "row": "B" }, "geometry": { "type": "Point", "coordinates": [ 120.97613551636509, 14.305605401335855 ] } },
{ "type": "Feature", "properties": { "fid": 14, "id": 14, "cluster_id": "166", "column": null, "row": "B" }, "geometry": { "type": "Point", "coordinates": [ 120.976142247379144, 14.30560577528108 ] } },
{ "type": "Feature", "properties": { "fid": 15, "id": 15, "cluster_id": "166", "column": null, "row": "B" }, "geometry": { "type": "Point", "coordinates": [ 120.976148978393212, 14.305606149226307 ] } },
{ "type": "Feature", "properties": { "fid": 16, "id": 16, "cluster_id": "166", "column": null, "row": "B" }, "geometry": { "type": "Point", "coordinates": [ 120.976156831242946, 14.305606523171532 ] } },
{ "type": "Feature", "properties": { "fid": 17, "id": 17, "cluster_id": "166", "column": null, "row": "B" }, "geometry": { "type": "Point", "coordinates": [ 120.976165805928346, 14.305607645007209 ] } },
{ "type": "Feature", "properties": { "fid": 18, "id": 18, "cluster_id": "166", "column": null, "row": "B" }, "geometry": { "type": "Point", "coordinates": [ 120.976173658778094, 14.305608018952434 ] } },
{ "type": "Feature", "properties": { "fid": 19, "id": 19, "cluster_id": "166", "column": null, "row": "B" }, "geometry": { "type": "Point", "coordinates": [ 120.976182633463495, 14.305608766842886 ] } },
{ "type": "Feature", "properties": { "fid": 20, "id": 20, "cluster_id": "166", "column": null, "row": "B" }, "geometry": { "type": "Point", "coordinates": [ 120.976190486313229, 14.305610262623787 ] } },
{ "type": "Feature", "properties": { "fid": 21, "id": 21, "cluster_id": "166", "column": null, "row": "B" }, "geometry": { "type": "Point", "coordinates": [ 120.976199087053416, 14.305610636569012 ] } },
{ "type": "Feature", "properties": { "fid": 22, "id": 22, "cluster_id": "166", "column": null, "row": "B" }, "geometry": { "type": "Point", "coordinates": [ 120.976208435684057, 14.305612132349914 ] } },
{ "type": "Feature", "properties": { "fid": 23, "id": 23, "cluster_id": "166", "column": null, "row": "B" }, "geometry": { "type": "Point", "coordinates": [ 120.976217410369472, 14.305613628130816 ] } },
{ "type": "Feature", "properties": { "fid": 24, "id": 24, "cluster_id": "166", "column": null, "row": "B" }, "geometry": { "type": "Point", "coordinates": [ 120.976227132945326, 14.305614749966493 ] } },
{ "type": "Feature", "properties": { "fid": 25, "id": 25, "cluster_id": "166", "column": null, "row": "B" }, "geometry": { "type": "Point", "coordinates": [ 120.976236855521194, 14.30561587180217 ] } },
{ "type": "Feature", "properties": { "fid": 26, "id": 26, "cluster_id": "166", "column": null, "row": "B" }, "geometry": { "type": "Point", "coordinates": [ 120.976248447823181, 14.305615497856943 ] } },
{ "type": "Feature", "properties": { "fid": 27, "id": 27, "cluster_id": "166", "column": null, "row": "B" }, "geometry": { "type": "Point", "coordinates": [ 120.976257796453822, 14.30561661969262 ] } },
{ "type": "Feature", "properties": { "fid": 28, "id": 28, "cluster_id": "166", "column": null, "row": "B" }, "geometry": { "type": "Point", "coordinates": [ 120.976267892974903, 14.305616993637845 ] } },
{ "type": "Feature", "properties": { "fid": 29, "id": 29, "cluster_id": "166", "column": null, "row": "B" }, "geometry": { "type": "Point", "coordinates": [ 120.976276867660317, 14.305617367583071 ] } },
{ "type": "Feature", "properties": { "fid": 30, "id": 30, "cluster_id": "166", "column": null, "row": "B" }, "geometry": { "type": "Point", "coordinates": [ 120.976284346564825, 14.305617741528296 ] } },
{ "type": "Feature", "properties": { "fid": 31, "id": 31, "cluster_id": "166", "column": null, "row": "B" }, "geometry": { "type": "Point", "coordinates": [ 120.976292199414559, 14.305618489418746 ] } },
{ "type": "Feature", "properties": { "fid": 32, "id": 32, "cluster_id": "166", "column": null, "row": "B" }, "geometry": { "type": "Point", "coordinates": [ 120.9763015480452, 14.305619611254423 ] } },
{ "type": "Feature", "properties": { "fid": 33, "id": 33, "cluster_id": "166", "column": null, "row": "B" }, "geometry": { "type": "Point", "coordinates": [ 120.976309400894934, 14.3056207330901 ] } },
{ "type": "Feature", "properties": { "fid": 34, "id": 34, "cluster_id": "166", "column": null, "row": "B" }, "geometry": { "type": "Point", "coordinates": [ 120.976320245306468, 14.305621854925779 ] } }
]
}
