{
"type": "FeatureCollection",
"name": "cltr-id-149-b-row",
"crs": { "type": "name", "properties": { "name": "urn:ogc:def:crs:OGC:1.3:CRS84" } },
"features": [
{ "type": "Feature", "properties": { "fid": 1, "id": 1, "cluster_id": "149", "column": null, "row": "B" }, "geometry": { "type": "Point", "coordinates": [ 120.976042871435638, 14.305509203926599 ] } },
{ "type": "Feature", "properties": { "fid": 2, "id": 2, "cluster_id": "149", "column": null, "row": "B" }, "geometry": { "type": "Point", "coordinates": [ 120.976042497490411, 14.305500977131638 ] } },
{ "type": "Feature", "properties": { "fid": 3, "id": 3, "cluster_id": "149", "column": null, "row": "B" }, "geometry": { "type": "Point", "coordinates": [ 120.976055959518519, 14.305495741898481 ] } },
{ "type": "Feature", "properties": { "fid": 4, "id": 4, "cluster_id": "149", "column": null, "row": "B" }, "geometry": { "type": "Point", "coordinates": [ 120.976067925765733, 14.305496863734158 ] } },
{ "type": "Feature", "properties": { "fid": 5, "id": 5, "cluster_id": "149", "column": null, "row": "B" }, "geometry": { "type": "Point", "coordinates": [ 120.976081013848628, 14.305497985569835 ] } },
{ "type": "Feature", "properties": { "fid": 6, "id": 6, "cluster_id": "149", "column": null, "row": "B" }, "geometry": { "type": "Point", "coordinates": [ 120.976094101931523, 14.30549910740551 ] } },
{ "type": "Feature", "properties": { "fid": 7, "id": 7, "cluster_id": "149", "column": null, "row": "B" }, "geometry": { "type": "Point", "coordinates": [ 120.976104946343057, 14.305498733460285 ] } },
{ "type": "Feature", "properties": { "fid": 8, "id": 8, "cluster_id": "149", "column": null, "row": "B" }, "geometry": { "type": "Point", "coordinates": [ 120.976115042864151, 14.305500229241186 ] } },
{ "type": "Feature", "properties": { "fid": 9, "id": 9, "cluster_id": "149", "column": null, "row": "B" }, "geometry": { "type": "Point", "coordinates": [ 120.976123643604339, 14.305501725022088 ] } },
{ "type": "Feature", "properties": { "fid": 10, "id": 10, "cluster_id": "149", "column": null, "row": "B" }, "geometry": { "type": "Point", "coordinates": [ 120.97613374012542, 14.305501725022088 ] } },
{ "type": "Feature", "properties": { "fid": 11, "id": 11, "cluster_id": "149", "column": null, "row": "B" }, "geometry": { "type": "Point", "coordinates": [ 120.976144210591741, 14.305502098967315 ] } },
{ "type": "Feature", "properties": { "fid": 12, "id": 12, "cluster_id": "149", "column": null, "row": "B" }, "geometry": { "type": "Point", "coordinates": [ 120.976153933167595, 14.30550322080299 ] } },
{ "type": "Feature", "properties": { "fid": 13, "id": 13, "cluster_id": "149", "column": null, "row": "B" }, "geometry": { "type": "Point", "coordinates": [ 120.97616402968869, 14.305503968693442 ] } },
{ "type": "Feature", "properties": { "fid": 14, "id": 14, "cluster_id": "149", "column": null, "row": "B" }, "geometry": { "type": "Point", "coordinates": [ 120.97617412620977, 14.305504716583892 ] } },
{ "type": "Feature", "properties": { "fid": 15, "id": 15, "cluster_id": "149", "column": null, "row": "B" }, "geometry": { "type": "Point", "coordinates": [ 120.976182726949958, 14.305505090529119 ] } },
{ "type": "Feature", "properties": { "fid": 16, "id": 16, "cluster_id": "149", "column": null, "row": "B" }, "geometry": { "type": "Point", "coordinates": [ 120.976192449525826, 14.305505838419569 ] } },
{ "type": "Feature", "properties": { "fid": 17, "id": 17, "cluster_id": "149", "column": null, "row": "B" }, "geometry": { "type": "Point", "coordinates": [ 120.976201798156453, 14.305505838419569 ] } },
{ "type": "Feature", "properties": { "fid": 18, "id": 18, "cluster_id": "149", "column": null, "row": "B" }, "geometry": { "type": "Point", "coordinates": [ 120.976210772841867, 14.305506960255245 ] } },
{ "type": "Feature", "properties": { "fid": 19, "id": 19, "cluster_id": "149", "column": null, "row": "B" }, "geometry": { "type": "Point", "coordinates": [ 120.976221243308188, 14.305508082090922 ] } },
{ "type": "Feature", "properties": { "fid": 20, "id": 20, "cluster_id": "149", "column": null, "row": "B" }, "geometry": { "type": "Point", "coordinates": [ 120.976229470103149, 14.305508829981372 ] } },
{ "type": "Feature", "properties": { "fid": 21, "id": 21, "cluster_id": "149", "column": null, "row": "B" }, "geometry": { "type": "Point", "coordinates": [ 120.976238818733776, 14.305509951817049 ] } },
{ "type": "Feature", "properties": { "fid": 22, "id": 22, "cluster_id": "149", "column": null, "row": "B" }, "geometry": { "type": "Point", "coordinates": [ 120.976247793419191, 14.305510325762274 ] } },
{ "type": "Feature", "properties": { "fid": 23, "id": 23, "cluster_id": "149", "column": null, "row": "B" }, "geometry": { "type": "Point", "coordinates": [ 120.976256768104605, 14.305511073652726 ] } },
{ "type": "Feature", "properties": { "fid": 24, "id": 24, "cluster_id": "149", "column": null, "row": "B" }, "geometry": { "type": "Point", "coordinates": [ 120.976264994899566, 14.305511447597951 ] } },
{ "type": "Feature", "properties": { "fid": 25, "id": 25, "cluster_id": "149", "column": null, "row": "B" }, "geometry": { "type": "Point", "coordinates": [ 120.976272473804073, 14.305511821543176 ] } },
{ "type": "Feature", "properties": { "fid": 26, "id": 26, "cluster_id": "149", "column": null, "row": "B" }, "geometry": { "type": "Point", "coordinates": [ 120.976280326653807, 14.305512569433628 ] } },
{ "type": "Feature", "properties": { "fid": 27, "id": 27, "cluster_id": "149", "column": null, "row": "B" }, "geometry": { "type": "Point", "coordinates": [ 120.976287805558314, 14.305512943378853 ] } },
{ "type": "Feature", "properties": { "fid": 28, "id": 28, "cluster_id": "149", "column": null, "row": "B" }, "geometry": { "type": "Point", "coordinates": [ 120.976296032353275, 14.305514065214529 ] } },
{ "type": "Feature", "properties": { "fid": 29, "id": 29, "cluster_id": "149", "column": null, "row": "B" }, "geometry": { "type": "Point", "coordinates": [ 120.976303885203009, 14.305514065214529 ] } },
{ "type": "Feature", "properties": { "fid": 30, "id": 30, "cluster_id": "149", "column": null, "row": "B" }, "geometry": { "type": "Point", "coordinates": [ 120.976310990162304, 14.305514813104981 ] } },
{ "type": "Feature", "properties": { "fid": 31, "id": 31, "cluster_id": "149", "column": null, "row": "B" }, "geometry": { "type": "Point", "coordinates": [ 120.976318095121584, 14.305515187050206 ] } },
{ "type": "Feature", "properties": { "fid": 32, "id": 32, "cluster_id": "149", "column": null, "row": "B" }, "geometry": { "type": "Point", "coordinates": [ 120.976325574026092, 14.305515560995431 ] } },
{ "type": "Feature", "properties": { "fid": 33, "id": 33, "cluster_id": "149", "column": null, "row": "B" }, "geometry": { "type": "Point", "coordinates": [ 120.976333052930599, 14.305517056776333 ] } },
{ "type": "Feature", "properties": { "fid": 34, "id": 34, "cluster_id": "149", "column": null, "row": "B" }, "geometry": { "type": "Point", "coordinates": [ 120.976339783944653, 14.305516682831108 ] } },
{ "type": "Feature", "properties": { "fid": 35, "id": 35, "cluster_id": "149", "column": null, "row": "B" }, "geometry": { "type": "Point", "coordinates": [ 120.976346141013494, 14.30551817861201 ] } },
{ "type": "Feature", "properties": { "fid": 36, "id": 36, "cluster_id": "149", "column": null, "row": "B" }, "geometry": { "type": "Point", "coordinates": [ 120.976354741753681, 14.30551817861201 ] } }
]
}
