{
"type": "FeatureCollection",
"name": "cltr-id-151-c-row",
"crs": { "type": "name", "properties": { "name": "urn:ogc:def:crs:OGC:1.3:CRS84" } },
"features": [
{ "type": "Feature", "properties": { "fid": 1, "id": 1, "cluster_id": "151", "column": null, "row": "C" }, "geometry": { "type": "Point", "coordinates": [ 120.976041581782368, 14.305644347455484 ] } },
{ "type": "Feature", "properties": { "fid": 2, "id": 2, "cluster_id": "151", "column": null, "row": "C" }, "geometry": { "type": "Point", "coordinates": [ 120.976042142700209, 14.305636494605748 ] } },
{ "type": "Feature", "properties": { "fid": 3, "id": 3, "cluster_id": "151", "column": null, "row": "C" }, "geometry": { "type": "Point", "coordinates": [ 120.976048790460339, 14.305635868286837 ] } },
{ "type": "Feature", "properties": { "fid": 4, "id": 4, "cluster_id": "151", "column": null, "row": "C" }, "geometry": { "type": "Point", "coordinates": [ 120.976061504598007, 14.305636990122514 ] } },
{ "type": "Feature", "properties": { "fid": 5, "id": 5, "cluster_id": "151", "column": null, "row": "C" }, "geometry": { "type": "Point", "coordinates": [ 120.976074218735675, 14.305637738012964 ] } },
{ "type": "Feature", "properties": { "fid": 6, "id": 6, "cluster_id": "151", "column": null, "row": "C" }, "geometry": { "type": "Point", "coordinates": [ 120.97608730681857, 14.305638485903415 ] } },
{ "type": "Feature", "properties": { "fid": 7, "id": 7, "cluster_id": "151", "column": null, "row": "C" }, "geometry": { "type": "Point", "coordinates": [ 120.976097777284878, 14.30563885984864 ] } },
{ "type": "Feature", "properties": { "fid": 8, "id": 8, "cluster_id": "151", "column": null, "row": "C" }, "geometry": { "type": "Point", "coordinates": [ 120.976108247751199, 14.305639607739092 ] } },
{ "type": "Feature", "properties": { "fid": 9, "id": 9, "cluster_id": "151", "column": null, "row": "C" }, "geometry": { "type": "Point", "coordinates": [ 120.97611647454616, 14.305640729574767 ] } },
{ "type": "Feature", "properties": { "fid": 10, "id": 10, "cluster_id": "151", "column": null, "row": "C" }, "geometry": { "type": "Point", "coordinates": [ 120.976126945012467, 14.305640729574767 ] } },
{ "type": "Feature", "properties": { "fid": 11, "id": 11, "cluster_id": "151", "column": null, "row": "C" }, "geometry": { "type": "Point", "coordinates": [ 120.976137041533562, 14.305641103519994 ] } },
{ "type": "Feature", "properties": { "fid": 12, "id": 12, "cluster_id": "151", "column": null, "row": "C" }, "geometry": { "type": "Point", "coordinates": [ 120.976147138054642, 14.305642599300896 ] } },
{ "type": "Feature", "properties": { "fid": 13, "id": 13, "cluster_id": "151", "column": null, "row": "C" }, "geometry": { "type": "Point", "coordinates": [ 120.976156486685284, 14.305642973246121 ] } },
{ "type": "Feature", "properties": { "fid": 14, "id": 14, "cluster_id": "151", "column": null, "row": "C" }, "geometry": { "type": "Point", "coordinates": [ 120.976166957151591, 14.305643721136571 ] } },
{ "type": "Feature", "properties": { "fid": 15, "id": 15, "cluster_id": "151", "column": null, "row": "C" }, "geometry": { "type": "Point", "coordinates": [ 120.976175931837005, 14.305644469027023 ] } },
{ "type": "Feature", "properties": { "fid": 16, "id": 16, "cluster_id": "151", "column": null, "row": "C" }, "geometry": { "type": "Point", "coordinates": [ 120.976185280467647, 14.305644842972248 ] } },
{ "type": "Feature", "properties": { "fid": 17, "id": 17, "cluster_id": "151", "column": null, "row": "C" }, "geometry": { "type": "Point", "coordinates": [ 120.9761950030435, 14.305645216917473 ] } },
{ "type": "Feature", "properties": { "fid": 18, "id": 18, "cluster_id": "151", "column": null, "row": "C" }, "geometry": { "type": "Point", "coordinates": [ 120.976203977728915, 14.305646338753149 ] } },
{ "type": "Feature", "properties": { "fid": 19, "id": 19, "cluster_id": "151", "column": null, "row": "C" }, "geometry": { "type": "Point", "coordinates": [ 120.976214448195236, 14.305647086643601 ] } },
{ "type": "Feature", "properties": { "fid": 20, "id": 20, "cluster_id": "151", "column": null, "row": "C" }, "geometry": { "type": "Point", "coordinates": [ 120.976222674990183, 14.305648208479278 ] } },
{ "type": "Feature", "properties": { "fid": 21, "id": 21, "cluster_id": "151", "column": null, "row": "C" }, "geometry": { "type": "Point", "coordinates": [ 120.976231649675597, 14.305649330314953 ] } },
{ "type": "Feature", "properties": { "fid": 22, "id": 22, "cluster_id": "151", "column": null, "row": "C" }, "geometry": { "type": "Point", "coordinates": [ 120.976241372251465, 14.30564970426018 ] } },
{ "type": "Feature", "properties": { "fid": 23, "id": 23, "cluster_id": "151", "column": null, "row": "C" }, "geometry": { "type": "Point", "coordinates": [ 120.976249972991653, 14.30565045215063 ] } },
{ "type": "Feature", "properties": { "fid": 24, "id": 24, "cluster_id": "151", "column": null, "row": "C" }, "geometry": { "type": "Point", "coordinates": [ 120.976258199786614, 14.305651200041082 ] } },
{ "type": "Feature", "properties": { "fid": 25, "id": 25, "cluster_id": "151", "column": null, "row": "C" }, "geometry": { "type": "Point", "coordinates": [ 120.976266052636348, 14.305650826095855 ] } },
{ "type": "Feature", "properties": { "fid": 26, "id": 26, "cluster_id": "151", "column": null, "row": "C" }, "geometry": { "type": "Point", "coordinates": [ 120.976273531540855, 14.305651947931532 ] } },
{ "type": "Feature", "properties": { "fid": 27, "id": 27, "cluster_id": "151", "column": null, "row": "C" }, "geometry": { "type": "Point", "coordinates": [ 120.976281010445362, 14.305652321876757 ] } },
{ "type": "Feature", "properties": { "fid": 28, "id": 28, "cluster_id": "151", "column": null, "row": "C" }, "geometry": { "type": "Point", "coordinates": [ 120.976289237240323, 14.305652695821983 ] } },
{ "type": "Feature", "properties": { "fid": 29, "id": 29, "cluster_id": "151", "column": null, "row": "C" }, "geometry": { "type": "Point", "coordinates": [ 120.976297090090057, 14.30565381765766 ] } },
{ "type": "Feature", "properties": { "fid": 30, "id": 30, "cluster_id": "151", "column": null, "row": "C" }, "geometry": { "type": "Point", "coordinates": [ 120.976304195049337, 14.305654191602885 ] } },
{ "type": "Feature", "properties": { "fid": 31, "id": 31, "cluster_id": "151", "column": null, "row": "C" }, "geometry": { "type": "Point", "coordinates": [ 120.976311300008632, 14.305654939493335 ] } },
{ "type": "Feature", "properties": { "fid": 32, "id": 32, "cluster_id": "151", "column": null, "row": "C" }, "geometry": { "type": "Point", "coordinates": [ 120.976318404967913, 14.305655313438562 ] } },
{ "type": "Feature", "properties": { "fid": 33, "id": 33, "cluster_id": "151", "column": null, "row": "C" }, "geometry": { "type": "Point", "coordinates": [ 120.97632588387242, 14.305656061329012 ] } },
{ "type": "Feature", "properties": { "fid": 34, "id": 34, "cluster_id": "151", "column": null, "row": "C" }, "geometry": { "type": "Point", "coordinates": [ 120.976332240941261, 14.305656435274237 ] } },
{ "type": "Feature", "properties": { "fid": 35, "id": 35, "cluster_id": "151", "column": null, "row": "C" }, "geometry": { "type": "Point", "coordinates": [ 120.976339345900541, 14.305657557109914 ] } },
{ "type": "Feature", "properties": { "fid": 36, "id": 36, "cluster_id": "151", "column": null, "row": "C" }, "geometry": { "type": "Point", "coordinates": [ 120.976347198750275, 14.305657931055139 ] } }
]
}
