{
"type": "FeatureCollection",
"name": "cltr-id-171-b-row",
"crs": { "type": "name", "properties": { "name": "urn:ogc:def:crs:OGC:1.3:CRS84" } },
"features": [
{ "type": "Feature", "properties": { "fid": 1, "id": 1, "cluster_id": "171", "column": null, "row": "B" }, "geometry": { "type": "Point", "coordinates": [ 120.976025592237434, 14.30584501837793 ] } },
{ "type": "Feature", "properties": { "fid": 2, "id": 2, "cluster_id": "171", "column": null, "row": "B" }, "geometry": { "type": "Point", "coordinates": [ 120.976036249676355, 14.305846140213607 ] } },
{ "type": "Feature", "properties": { "fid": 3, "id": 3, "cluster_id": "171", "column": null, "row": "B" }, "geometry": { "type": "Point", "coordinates": [ 120.976049150786636, 14.305846701131445 ] } },
{ "type": "Feature", "properties": { "fid": 4, "id": 4, "cluster_id": "171", "column": null, "row": "B" }, "geometry": { "type": "Point", "coordinates": [ 120.976060930061237, 14.305848383884959 ] } },
{ "type": "Feature", "properties": { "fid": 5, "id": 5, "cluster_id": "171", "column": null, "row": "B" }, "geometry": { "type": "Point", "coordinates": [ 120.976072148418012, 14.305849505720635 ] } },
{ "type": "Feature", "properties": { "fid": 6, "id": 6, "cluster_id": "171", "column": null, "row": "B" }, "geometry": { "type": "Point", "coordinates": [ 120.976082244939093, 14.305850627556312 ] } },
{ "type": "Feature", "properties": { "fid": 7, "id": 7, "cluster_id": "171", "column": null, "row": "B" }, "geometry": { "type": "Point", "coordinates": [ 120.976091219624507, 14.305851188474151 ] } },
{ "type": "Feature", "properties": { "fid": 8, "id": 8, "cluster_id": "171", "column": null, "row": "B" }, "geometry": { "type": "Point", "coordinates": [ 120.976100755227762, 14.305852310309827 ] } },
{ "type": "Feature", "properties": { "fid": 9, "id": 9, "cluster_id": "171", "column": null, "row": "B" }, "geometry": { "type": "Point", "coordinates": [ 120.976109729913162, 14.305851749391989 ] } },
{ "type": "Feature", "properties": { "fid": 10, "id": 10, "cluster_id": "171", "column": null, "row": "B" }, "geometry": { "type": "Point", "coordinates": [ 120.976119826434257, 14.305853993063341 ] } },
{ "type": "Feature", "properties": { "fid": 11, "id": 11, "cluster_id": "171", "column": null, "row": "B" }, "geometry": { "type": "Point", "coordinates": [ 120.976129922955337, 14.305852871227666 ] } },
{ "type": "Feature", "properties": { "fid": 12, "id": 12, "cluster_id": "171", "column": null, "row": "B" }, "geometry": { "type": "Point", "coordinates": [ 120.976138336722912, 14.305855114899018 ] } },
{ "type": "Feature", "properties": { "fid": 13, "id": 13, "cluster_id": "171", "column": null, "row": "B" }, "geometry": { "type": "Point", "coordinates": [ 120.976148994161846, 14.305856797652533 ] } },
{ "type": "Feature", "properties": { "fid": 14, "id": 14, "cluster_id": "171", "column": null, "row": "B" }, "geometry": { "type": "Point", "coordinates": [ 120.9761557251759, 14.305856797652533 ] } },
{ "type": "Feature", "properties": { "fid": 15, "id": 15, "cluster_id": "171", "column": null, "row": "B" }, "geometry": { "type": "Point", "coordinates": [ 120.976167504450501, 14.30585791948821 ] } },
{ "type": "Feature", "properties": { "fid": 16, "id": 16, "cluster_id": "171", "column": null, "row": "B" }, "geometry": { "type": "Point", "coordinates": [ 120.976178161889422, 14.305857358570371 ] } },
{ "type": "Feature", "properties": { "fid": 17, "id": 17, "cluster_id": "171", "column": null, "row": "B" }, "geometry": { "type": "Point", "coordinates": [ 120.976187697492676, 14.30585791948821 ] } },
{ "type": "Feature", "properties": { "fid": 18, "id": 18, "cluster_id": "171", "column": null, "row": "B" }, "geometry": { "type": "Point", "coordinates": [ 120.976196672178091, 14.305858480406046 ] } },
{ "type": "Feature", "properties": { "fid": 19, "id": 19, "cluster_id": "171", "column": null, "row": "B" }, "geometry": { "type": "Point", "coordinates": [ 120.976205646863505, 14.305859602241723 ] } },
{ "type": "Feature", "properties": { "fid": 20, "id": 20, "cluster_id": "171", "column": null, "row": "B" }, "geometry": { "type": "Point", "coordinates": [ 120.976214060631079, 14.3058607240774 ] } },
{ "type": "Feature", "properties": { "fid": 21, "id": 21, "cluster_id": "171", "column": null, "row": "B" }, "geometry": { "type": "Point", "coordinates": [ 120.97622471807, 14.305861284995238 ] } },
{ "type": "Feature", "properties": { "fid": 22, "id": 22, "cluster_id": "171", "column": null, "row": "B" }, "geometry": { "type": "Point", "coordinates": [ 120.976232570919734, 14.305861284995238 ] } },
{ "type": "Feature", "properties": { "fid": 23, "id": 23, "cluster_id": "171", "column": null, "row": "B" }, "geometry": { "type": "Point", "coordinates": [ 120.976239301933788, 14.305862967748753 ] } },
{ "type": "Feature", "properties": { "fid": 24, "id": 24, "cluster_id": "171", "column": null, "row": "B" }, "geometry": { "type": "Point", "coordinates": [ 120.976247154783522, 14.305862967748753 ] } },
{ "type": "Feature", "properties": { "fid": 25, "id": 25, "cluster_id": "171", "column": null, "row": "B" }, "geometry": { "type": "Point", "coordinates": [ 120.97625388579759, 14.305864089584428 ] } },
{ "type": "Feature", "properties": { "fid": 26, "id": 26, "cluster_id": "171", "column": null, "row": "B" }, "geometry": { "type": "Point", "coordinates": [ 120.976261177729484, 14.305865211420105 ] } },
{ "type": "Feature", "properties": { "fid": 27, "id": 27, "cluster_id": "171", "column": null, "row": "B" }, "geometry": { "type": "Point", "coordinates": [ 120.976270152414898, 14.305864650502267 ] } },
{ "type": "Feature", "properties": { "fid": 28, "id": 28, "cluster_id": "171", "column": null, "row": "B" }, "geometry": { "type": "Point", "coordinates": [ 120.976278005264632, 14.305866333255782 ] } },
{ "type": "Feature", "properties": { "fid": 29, "id": 29, "cluster_id": "171", "column": null, "row": "B" }, "geometry": { "type": "Point", "coordinates": [ 120.976283053525165, 14.305868016009297 ] } },
{ "type": "Feature", "properties": { "fid": 30, "id": 30, "cluster_id": "171", "column": null, "row": "B" }, "geometry": { "type": "Point", "coordinates": [ 120.976289223621393, 14.305868576927134 ] } },
{ "type": "Feature", "properties": { "fid": 31, "id": 31, "cluster_id": "171", "column": null, "row": "B" }, "geometry": { "type": "Point", "coordinates": [ 120.976299320142473, 14.305868016009297 ] } },
{ "type": "Feature", "properties": { "fid": 32, "id": 32, "cluster_id": "171", "column": null, "row": "B" }, "geometry": { "type": "Point", "coordinates": [ 120.976306051156541, 14.305869137844972 ] } },
{ "type": "Feature", "properties": { "fid": 33, "id": 33, "cluster_id": "171", "column": null, "row": "B" }, "geometry": { "type": "Point", "coordinates": [ 120.976313343088435, 14.305869698762811 ] } },
{ "type": "Feature", "properties": { "fid": 34, "id": 34, "cluster_id": "171", "column": null, "row": "B" }, "geometry": { "type": "Point", "coordinates": [ 120.976317830431142, 14.305869137844972 ] } }
]
}
