{
"type": "FeatureCollection",
"name": "cltr-id-196-d-row",
"crs": { "type": "name", "properties": { "name": "urn:ogc:def:crs:OGC:1.3:CRS84" } },
"features": [
{ "type": "Feature", "properties": { "fid": 1, "id": 1, "cluster_id": "196", "column": null, "row": "D" }, "geometry": { "type": "Point", "coordinates": [ 120.976706152097663, 14.305852873731762 ] } },
{ "type": "Feature", "properties": { "fid": 2, "id": 2, "cluster_id": "196", "column": null, "row": "D" }, "geometry": { "type": "Point", "coordinates": [ 120.976714062541632, 14.305852873731764 ] } },
{ "type": "Feature", "properties": { "fid": 3, "id": 3, "cluster_id": "196", "column": null, "row": "D" }, "geometry": { "type": "Point", "coordinates": [ 120.976721972985601, 14.305853887891248 ] } },
{ "type": "Feature", "properties": { "fid": 4, "id": 4, "cluster_id": "196", "column": null, "row": "D" }, "geometry": { "type": "Point", "coordinates": [ 120.976731911748558, 14.305854699218834 ] } },
{ "type": "Feature", "properties": { "fid": 5, "id": 5, "cluster_id": "196", "column": null, "row": "D" }, "geometry": { "type": "Point", "coordinates": [ 120.976741647679603, 14.305855713378318 ] } },
{ "type": "Feature", "properties": { "fid": 6, "id": 6, "cluster_id": "196", "column": null, "row": "D" }, "geometry": { "type": "Point", "coordinates": [ 120.976751992106344, 14.305857538865389 ] } },
{ "type": "Feature", "properties": { "fid": 7, "id": 7, "cluster_id": "196", "column": null, "row": "D" }, "geometry": { "type": "Point", "coordinates": [ 120.976761728037403, 14.305858350192976 ] } },
{ "type": "Feature", "properties": { "fid": 8, "id": 8, "cluster_id": "196", "column": null, "row": "D" }, "geometry": { "type": "Point", "coordinates": [ 120.976769841313271, 14.305858350192979 ] } },
{ "type": "Feature", "properties": { "fid": 9, "id": 9, "cluster_id": "196", "column": null, "row": "D" }, "geometry": { "type": "Point", "coordinates": [ 120.976777143261572, 14.305858755856772 ] } },
{ "type": "Feature", "properties": { "fid": 10, "id": 10, "cluster_id": "196", "column": null, "row": "D" }, "geometry": { "type": "Point", "coordinates": [ 120.976786067865021, 14.305858958688669 ] } },
{ "type": "Feature", "properties": { "fid": 11, "id": 11, "cluster_id": "196", "column": null, "row": "D" }, "geometry": { "type": "Point", "coordinates": [ 120.976792761317611, 14.305861189839534 ] } },
{ "type": "Feature", "properties": { "fid": 12, "id": 12, "cluster_id": "196", "column": null, "row": "D" }, "geometry": { "type": "Point", "coordinates": [ 120.976800063265898, 14.305860581343845 ] } },
{ "type": "Feature", "properties": { "fid": 13, "id": 13, "cluster_id": "196", "column": null, "row": "D" }, "geometry": { "type": "Point", "coordinates": [ 120.976807568046084, 14.305861798335226 ] } },
{ "type": "Feature", "properties": { "fid": 14, "id": 14, "cluster_id": "196", "column": null, "row": "D" }, "geometry": { "type": "Point", "coordinates": [ 120.976814667162486, 14.305861189839534 ] } },
{ "type": "Feature", "properties": { "fid": 15, "id": 15, "cluster_id": "196", "column": null, "row": "D" }, "geometry": { "type": "Point", "coordinates": [ 120.976821563446975, 14.30586260966281 ] } },
{ "type": "Feature", "properties": { "fid": 16, "id": 16, "cluster_id": "196", "column": null, "row": "D" }, "geometry": { "type": "Point", "coordinates": [ 120.976828662563378, 14.30586402948609 ] } },
{ "type": "Feature", "properties": { "fid": 17, "id": 17, "cluster_id": "196", "column": null, "row": "D" }, "geometry": { "type": "Point", "coordinates": [ 120.976835761679752, 14.30586402948609 ] } },
{ "type": "Feature", "properties": { "fid": 18, "id": 18, "cluster_id": "196", "column": null, "row": "D" }, "geometry": { "type": "Point", "coordinates": [ 120.976845294778897, 14.30586402948609 ] } },
{ "type": "Feature", "properties": { "fid": 19, "id": 19, "cluster_id": "196", "column": null, "row": "D" }, "geometry": { "type": "Point", "coordinates": [ 120.976854422214274, 14.305864232317987 ] } },
{ "type": "Feature", "properties": { "fid": 20, "id": 20, "cluster_id": "196", "column": null, "row": "D" }, "geometry": { "type": "Point", "coordinates": [ 120.976864158145332, 14.305866869132647 ] } },
{ "type": "Feature", "properties": { "fid": 21, "id": 21, "cluster_id": "196", "column": null, "row": "D" }, "geometry": { "type": "Point", "coordinates": [ 120.976872879916883, 14.30587052010679 ] } },
{ "type": "Feature", "properties": { "fid": 22, "id": 22, "cluster_id": "196", "column": null, "row": "D" }, "geometry": { "type": "Point", "coordinates": [ 120.976883021511725, 14.305870520106788 ] } },
{ "type": "Feature", "properties": { "fid": 23, "id": 23, "cluster_id": "196", "column": null, "row": "D" }, "geometry": { "type": "Point", "coordinates": [ 120.97689336593848, 14.305872751257656 ] } },
{ "type": "Feature", "properties": { "fid": 24, "id": 24, "cluster_id": "196", "column": null, "row": "D" }, "geometry": { "type": "Point", "coordinates": [ 120.976901073550536, 14.305873359753347 ] } },
{ "type": "Feature", "properties": { "fid": 25, "id": 25, "cluster_id": "196", "column": null, "row": "D" }, "geometry": { "type": "Point", "coordinates": [ 120.976908578330736, 14.305873156921452 ] } },
{ "type": "Feature", "properties": { "fid": 26, "id": 26, "cluster_id": "196", "column": null, "row": "D" }, "geometry": { "type": "Point", "coordinates": [ 120.976919328421261, 14.305875185240417 ] } },
{ "type": "Feature", "properties": { "fid": 27, "id": 27, "cluster_id": "196", "column": null, "row": "D" }, "geometry": { "type": "Point", "coordinates": [ 120.97692886152042, 14.305875590904213 ] } },
{ "type": "Feature", "properties": { "fid": 28, "id": 28, "cluster_id": "196", "column": null, "row": "D" }, "geometry": { "type": "Point", "coordinates": [ 120.976940422938526, 14.305874576744726 ] } },
{ "type": "Feature", "properties": { "fid": 29, "id": 29, "cluster_id": "196", "column": null, "row": "D" }, "geometry": { "type": "Point", "coordinates": [ 120.976951578692876, 14.30587579373611 ] } },
{ "type": "Feature", "properties": { "fid": 30, "id": 30, "cluster_id": "196", "column": null, "row": "D" }, "geometry": { "type": "Point", "coordinates": [ 120.976962734447184, 14.305875590904213 ] } },
{ "type": "Feature", "properties": { "fid": 31, "id": 31, "cluster_id": "196", "column": null, "row": "D" }, "geometry": { "type": "Point", "coordinates": [ 120.976970644891168, 14.305879850374046 ] } },
{ "type": "Feature", "properties": { "fid": 32, "id": 32, "cluster_id": "196", "column": null, "row": "D" }, "geometry": { "type": "Point", "coordinates": [ 120.976983017636883, 14.305881473029222 ] } },
{ "type": "Feature", "properties": { "fid": 33, "id": 33, "cluster_id": "196", "column": null, "row": "D" }, "geometry": { "type": "Point", "coordinates": [ 120.976994579055017, 14.305882690020599 ] } },
{ "type": "Feature", "properties": { "fid": 34, "id": 34, "cluster_id": "196", "column": null, "row": "D" }, "geometry": { "type": "Point", "coordinates": [ 120.977001881003304, 14.305880458869741 ] } },
{ "type": "Feature", "properties": { "fid": 35, "id": 35, "cluster_id": "196", "column": null, "row": "D" }, "geometry": { "type": "Point", "coordinates": [ 120.977002489498986, 14.305876807895594 ] } }
]
}
