{
"type": "FeatureCollection",
"name": "cltr-id-195-d-row",
"crs": { "type": "name", "properties": { "name": "urn:ogc:def:crs:OGC:1.3:CRS84" } },
"features": [
{ "type": "Feature", "properties": { "fid": 1, "id": 1, "cluster_id": "195", "column": null, "row": "D" }, "geometry": { "type": "Point", "coordinates": [ 120.976736847324645, 14.305691149099328 ] } },
{ "type": "Feature", "properties": { "fid": 2, "id": 2, "cluster_id": "195", "column": null, "row": "D" }, "geometry": { "type": "Point", "coordinates": [ 120.976736576882118, 14.305697098834969 ] } },
{ "type": "Feature", "properties": { "fid": 3, "id": 3, "cluster_id": "195", "column": null, "row": "D" }, "geometry": { "type": "Point", "coordinates": [ 120.976744419715459, 14.305697098834969 ] } },
{ "type": "Feature", "properties": { "fid": 4, "id": 4, "cluster_id": "195", "column": null, "row": "D" }, "geometry": { "type": "Point", "coordinates": [ 120.976750639893638, 14.305697639720027 ] } },
{ "type": "Feature", "properties": { "fid": 5, "id": 5, "cluster_id": "195", "column": null, "row": "D" }, "geometry": { "type": "Point", "coordinates": [ 120.97675929405456, 14.30570007370279 ] } },
{ "type": "Feature", "properties": { "fid": 6, "id": 6, "cluster_id": "195", "column": null, "row": "D" }, "geometry": { "type": "Point", "coordinates": [ 120.976769029985618, 14.30570007370279 ] } },
{ "type": "Feature", "properties": { "fid": 7, "id": 7, "cluster_id": "195", "column": null, "row": "D" }, "geometry": { "type": "Point", "coordinates": [ 120.976777143261486, 14.30569953281773 ] } },
{ "type": "Feature", "properties": { "fid": 8, "id": 8, "cluster_id": "195", "column": null, "row": "D" }, "geometry": { "type": "Point", "coordinates": [ 120.97678255211207, 14.305701425915434 ] } },
{ "type": "Feature", "properties": { "fid": 9, "id": 9, "cluster_id": "195", "column": null, "row": "D" }, "geometry": { "type": "Point", "coordinates": [ 120.976790124502884, 14.305701155472905 ] } },
{ "type": "Feature", "properties": { "fid": 10, "id": 10, "cluster_id": "195", "column": null, "row": "D" }, "geometry": { "type": "Point", "coordinates": [ 120.976794722025872, 14.305703589455668 ] } },
{ "type": "Feature", "properties": { "fid": 11, "id": 11, "cluster_id": "195", "column": null, "row": "D" }, "geometry": { "type": "Point", "coordinates": [ 120.976802294416686, 14.305704400783254 ] } },
{ "type": "Feature", "properties": { "fid": 12, "id": 12, "cluster_id": "195", "column": null, "row": "D" }, "geometry": { "type": "Point", "coordinates": [ 120.976811489462676, 14.305704671225783 ] } },
{ "type": "Feature", "properties": { "fid": 13, "id": 13, "cluster_id": "195", "column": null, "row": "D" }, "geometry": { "type": "Point", "coordinates": [ 120.976819602738559, 14.305706023438429 ] } },
{ "type": "Feature", "properties": { "fid": 14, "id": 14, "cluster_id": "195", "column": null, "row": "D" }, "geometry": { "type": "Point", "coordinates": [ 120.97682609335925, 14.305705212110842 ] } },
{ "type": "Feature", "properties": { "fid": 15, "id": 15, "cluster_id": "195", "column": null, "row": "D" }, "geometry": { "type": "Point", "coordinates": [ 120.976833665750064, 14.305706564323488 ] } },
{ "type": "Feature", "properties": { "fid": 16, "id": 16, "cluster_id": "195", "column": null, "row": "D" }, "geometry": { "type": "Point", "coordinates": [ 120.976842590353527, 14.305708457421192 ] } },
{ "type": "Feature", "properties": { "fid": 17, "id": 17, "cluster_id": "195", "column": null, "row": "D" }, "geometry": { "type": "Point", "coordinates": [ 120.976848540089165, 14.305708457421192 ] } },
{ "type": "Feature", "properties": { "fid": 18, "id": 18, "cluster_id": "195", "column": null, "row": "D" }, "geometry": { "type": "Point", "coordinates": [ 120.976860980445508, 14.305710350518895 ] } },
{ "type": "Feature", "properties": { "fid": 19, "id": 19, "cluster_id": "195", "column": null, "row": "D" }, "geometry": { "type": "Point", "coordinates": [ 120.976872609474256, 14.305711702731541 ] } },
{ "type": "Feature", "properties": { "fid": 20, "id": 20, "cluster_id": "195", "column": null, "row": "D" }, "geometry": { "type": "Point", "coordinates": [ 120.976886131600722, 14.305713325386716 ] } },
{ "type": "Feature", "properties": { "fid": 21, "id": 21, "cluster_id": "195", "column": null, "row": "D" }, "geometry": { "type": "Point", "coordinates": [ 120.97689640841682, 14.305714136714302 ] } },
{ "type": "Feature", "properties": { "fid": 22, "id": 22, "cluster_id": "195", "column": null, "row": "D" }, "geometry": { "type": "Point", "coordinates": [ 120.976908578330637, 14.30571467759936 ] } },
{ "type": "Feature", "properties": { "fid": 23, "id": 23, "cluster_id": "195", "column": null, "row": "D" }, "geometry": { "type": "Point", "coordinates": [ 120.976919125589262, 14.305716300254534 ] } },
{ "type": "Feature", "properties": { "fid": 24, "id": 24, "cluster_id": "195", "column": null, "row": "D" }, "geometry": { "type": "Point", "coordinates": [ 120.976924534439846, 14.305716300254534 ] } },
{ "type": "Feature", "properties": { "fid": 25, "id": 25, "cluster_id": "195", "column": null, "row": "D" }, "geometry": { "type": "Point", "coordinates": [ 120.976932377273187, 14.30571765246718 ] } },
{ "type": "Feature", "properties": { "fid": 26, "id": 26, "cluster_id": "195", "column": null, "row": "D" }, "geometry": { "type": "Point", "coordinates": [ 120.97694346541688, 14.305719816007414 ] } },
{ "type": "Feature", "properties": { "fid": 27, "id": 27, "cluster_id": "195", "column": null, "row": "D" }, "geometry": { "type": "Point", "coordinates": [ 120.97695536488817, 14.305720627335001 ] } },
{ "type": "Feature", "properties": { "fid": 28, "id": 28, "cluster_id": "195", "column": null, "row": "D" }, "geometry": { "type": "Point", "coordinates": [ 120.976970239227271, 14.305721168220058 ] } },
{ "type": "Feature", "properties": { "fid": 29, "id": 29, "cluster_id": "195", "column": null, "row": "D" }, "geometry": { "type": "Point", "coordinates": [ 120.976985924893953, 14.305721979547647 ] } },
{ "type": "Feature", "properties": { "fid": 30, "id": 30, "cluster_id": "195", "column": null, "row": "D" }, "geometry": { "type": "Point", "coordinates": [ 120.976999987905472, 14.305724143087879 ] } },
{ "type": "Feature", "properties": { "fid": 31, "id": 31, "cluster_id": "195", "column": null, "row": "D" }, "geometry": { "type": "Point", "coordinates": [ 120.977010805606639, 14.305722520432704 ] } },
{ "type": "Feature", "properties": { "fid": 32, "id": 32, "cluster_id": "195", "column": null, "row": "D" }, "geometry": { "type": "Point", "coordinates": [ 120.977022975520441, 14.305722790875233 ] } },
{ "type": "Feature", "properties": { "fid": 33, "id": 33, "cluster_id": "195", "column": null, "row": "D" }, "geometry": { "type": "Point", "coordinates": [ 120.977032170566432, 14.305723061317762 ] } }
]
}
