{
"type": "FeatureCollection",
"name": "cltr-id-188-e-row",
"crs": { "type": "name", "properties": { "name": "urn:ogc:def:crs:OGC:1.3:CRS84" } },
"features": [
{ "type": "Feature", "properties": { "fid": 1, "id": 1, "cluster_id": "188", "column": null, "row": "E" }, "geometry": { "type": "Point", "coordinates": [ 120.976578232781478, 14.305842191251834 ] } },
{ "type": "Feature", "properties": { "fid": 2, "id": 2, "cluster_id": "188", "column": null, "row": "E" }, "geometry": { "type": "Point", "coordinates": [ 120.976585534729765, 14.30584354346448 ] } },
{ "type": "Feature", "properties": { "fid": 3, "id": 3, "cluster_id": "188", "column": null, "row": "E" }, "geometry": { "type": "Point", "coordinates": [ 120.976592836678051, 14.30584354346448 ] } },
{ "type": "Feature", "properties": { "fid": 4, "id": 4, "cluster_id": "188", "column": null, "row": "E" }, "geometry": { "type": "Point", "coordinates": [ 120.976600409068865, 14.305845436562183 ] } },
{ "type": "Feature", "properties": { "fid": 5, "id": 5, "cluster_id": "188", "column": null, "row": "E" }, "geometry": { "type": "Point", "coordinates": [ 120.976607711017152, 14.305845436562183 ] } },
{ "type": "Feature", "properties": { "fid": 6, "id": 6, "cluster_id": "188", "column": null, "row": "E" }, "geometry": { "type": "Point", "coordinates": [ 120.976616635620616, 14.305847059217358 ] } },
{ "type": "Feature", "properties": { "fid": 7, "id": 7, "cluster_id": "188", "column": null, "row": "E" }, "geometry": { "type": "Point", "coordinates": [ 120.976623126241307, 14.305847059217358 ] } },
{ "type": "Feature", "properties": { "fid": 8, "id": 8, "cluster_id": "188", "column": null, "row": "E" }, "geometry": { "type": "Point", "coordinates": [ 120.976631239517189, 14.305847329659887 ] } },
{ "type": "Feature", "properties": { "fid": 9, "id": 9, "cluster_id": "188", "column": null, "row": "E" }, "geometry": { "type": "Point", "coordinates": [ 120.976640164120639, 14.305848681872533 ] } },
{ "type": "Feature", "properties": { "fid": 10, "id": 10, "cluster_id": "188", "column": null, "row": "E" }, "geometry": { "type": "Point", "coordinates": [ 120.976648277396521, 14.305848681872533 ] } },
{ "type": "Feature", "properties": { "fid": 11, "id": 11, "cluster_id": "188", "column": null, "row": "E" }, "geometry": { "type": "Point", "coordinates": [ 120.976658554212619, 14.305849763642648 ] } },
{ "type": "Feature", "properties": { "fid": 12, "id": 12, "cluster_id": "188", "column": null, "row": "E" }, "geometry": { "type": "Point", "coordinates": [ 120.976668560586205, 14.305851386297823 ] } },
{ "type": "Feature", "properties": { "fid": 13, "id": 13, "cluster_id": "188", "column": null, "row": "E" }, "geometry": { "type": "Point", "coordinates": [ 120.976678837402304, 14.305847329659887 ] } },
{ "type": "Feature", "properties": { "fid": 14, "id": 14, "cluster_id": "188", "column": null, "row": "E" }, "geometry": { "type": "Point", "coordinates": [ 120.976680189614953, 14.305841379924246 ] } }
]
}
