{
    "type": "FeatureCollection",
    "name": "cltr-id-156-d-row",
    "crs": {
        "type": "name",
        "properties": { "name": "urn:ogc:def:crs:OGC:1.3:CRS84" }
    },
    "features": [
        {
            "type": "Feature",
            "properties": {
                "fid": 1,
                "id": 1,
                "cluster_id": "156",
                "column": null,
                "row": "D"
            },
            "geometry": {
                "type": "Point",
                "coordinates": [120.976406107403861, 14.305565928228795]
            }
        },
        {
            "type": "Feature",
            "properties": {
                "fid": 2,
                "id": 2,
                "cluster_id": "156",
                "column": null,
                "row": "D"
            },
            "geometry": {
                "type": "Point",
                "coordinates": [120.976416070797058, 14.305566988164241]
            }
        },
        {
            "type": "Feature",
            "properties": {
                "fid": 3,
                "id": 3,
                "cluster_id": "156",
                "column": null,
                "row": "D"
            },
            "geometry": {
                "type": "Point",
                "coordinates": [120.976426034190254, 14.305566564190062]
            }
        },
        {
            "type": "Feature",
            "properties": {
                "fid": 4,
                "id": 4,
                "cluster_id": "156",
                "column": null,
                "row": "D"
            },
            "geometry": {
                "type": "Point",
                "coordinates": [120.976434937648008, 14.305567836112598]
            }
        },
        {
            "type": "Feature",
            "properties": {
                "fid": 5,
                "id": 5,
                "cluster_id": "156",
                "column": null,
                "row": "D"
            },
            "geometry": {
                "type": "Point",
                "coordinates": [120.976443841105763, 14.305567836112598]
            }
        },
        {
            "type": "Feature",
            "properties": {
                "fid": 6,
                "id": 6,
                "cluster_id": "156",
                "column": null,
                "row": "D"
            },
            "geometry": {
                "type": "Point",
                "coordinates": [120.976452956550602, 14.305568684060955]
            }
        },
        {
            "type": "Feature",
            "properties": {
                "fid": 7,
                "id": 7,
                "cluster_id": "156",
                "column": null,
                "row": "D"
            },
            "geometry": {
                "type": "Point",
                "coordinates": [120.976461012059985, 14.30556995598349]
            }
        },
        {
            "type": "Feature",
            "properties": {
                "fid": 8,
                "id": 8,
                "cluster_id": "156",
                "column": null,
                "row": "D"
            },
            "geometry": {
                "type": "Point",
                "coordinates": [120.976469703530654, 14.305571015918936]
            }
        },
        {
            "type": "Feature",
            "properties": {
                "fid": 9,
                "id": 9,
                "cluster_id": "156",
                "column": null,
                "row": "D"
            },
            "geometry": {
                "type": "Point",
                "coordinates": [120.976478183014223, 14.305571015918936]
            }
        },
        {
            "type": "Feature",
            "properties": {
                "fid": 10,
                "id": 10,
                "cluster_id": "156",
                "column": null,
                "row": "D"
            },
            "geometry": {
                "type": "Point",
                "coordinates": [120.976487298459062, 14.305571863867295]
            }
        },
        {
            "type": "Feature",
            "properties": {
                "fid": 11,
                "id": 11,
                "cluster_id": "156",
                "column": null,
                "row": "D"
            },
            "geometry": {
                "type": "Point",
                "coordinates": [120.976495989929717, 14.305572923802741]
            }
        },
        {
            "type": "Feature",
            "properties": {
                "fid": 12,
                "id": 12,
                "cluster_id": "156",
                "column": null,
                "row": "D"
            },
            "geometry": {
                "type": "Point",
                "coordinates": [120.976503197490757, 14.305572923802741]
            }
        },
        {
            "type": "Feature",
            "properties": {
                "fid": 13,
                "id": 13,
                "cluster_id": "156",
                "column": null,
                "row": "D"
            },
            "geometry": {
                "type": "Point",
                "coordinates": [120.976511676974326, 14.305573983738187]
            }
        },
        {
            "type": "Feature",
            "properties": {
                "fid": 14,
                "id": 14,
                "cluster_id": "156",
                "column": null,
                "row": "D"
            },
            "geometry": {
                "type": "Point",
                "coordinates": [120.976517612612824, 14.305571651880205]
            }
        },
        {
            "type": "Feature",
            "properties": {
                "fid": 15,
                "id": 15,
                "cluster_id": "156",
                "column": null,
                "row": "D"
            },
            "geometry": {
                "type": "Point",
                "coordinates": [120.976517612612824, 14.305563384383722]
            }
        }
    ]
}
