{
"type": "FeatureCollection",
"name": "cltr-id-149-d-row",
"crs": { "type": "name", "properties": { "name": "urn:ogc:def:crs:OGC:1.3:CRS84" } },
"features": [
{ "type": "Feature", "properties": { "fid": 1, "id": 1, "cluster_id": "149", "column": null, "row": "E" }, "geometry": { "type": "Point", "coordinates": [ 120.976045489052211, 14.305509577871824 ] } },
{ "type": "Feature", "properties": { "fid": 2, "id": 2, "cluster_id": "149", "column": null, "row": "E" }, "geometry": { "type": "Point", "coordinates": [ 120.976045489052211, 14.305500603186413 ] } },
{ "type": "Feature", "properties": { "fid": 3, "id": 3, "cluster_id": "149", "column": null, "row": "E" }, "geometry": { "type": "Point", "coordinates": [ 120.976055585573292, 14.305499481350736 ] } },
{ "type": "Feature", "properties": { "fid": 4, "id": 4, "cluster_id": "149", "column": null, "row": "E" }, "geometry": { "type": "Point", "coordinates": [ 120.976067925765733, 14.305500603186413 ] } },
{ "type": "Feature", "properties": { "fid": 5, "id": 5, "cluster_id": "149", "column": null, "row": "E" }, "geometry": { "type": "Point", "coordinates": [ 120.976080639903401, 14.305502098967315 ] } },
{ "type": "Feature", "properties": { "fid": 6, "id": 6, "cluster_id": "149", "column": null, "row": "E" }, "geometry": { "type": "Point", "coordinates": [ 120.976094101931523, 14.30550322080299 ] } },
{ "type": "Feature", "properties": { "fid": 7, "id": 7, "cluster_id": "149", "column": null, "row": "E" }, "geometry": { "type": "Point", "coordinates": [ 120.97610457239783, 14.305503968693442 ] } },
{ "type": "Feature", "properties": { "fid": 8, "id": 8, "cluster_id": "149", "column": null, "row": "E" }, "geometry": { "type": "Point", "coordinates": [ 120.976114294973698, 14.305505464474344 ] } },
{ "type": "Feature", "properties": { "fid": 9, "id": 9, "cluster_id": "149", "column": null, "row": "E" }, "geometry": { "type": "Point", "coordinates": [ 120.976123643604339, 14.305506212364794 ] } },
{ "type": "Feature", "properties": { "fid": 10, "id": 10, "cluster_id": "149", "column": null, "row": "E" }, "geometry": { "type": "Point", "coordinates": [ 120.9761348619611, 14.305505838419569 ] } },
{ "type": "Feature", "properties": { "fid": 11, "id": 11, "cluster_id": "149", "column": null, "row": "E" }, "geometry": { "type": "Point", "coordinates": [ 120.976144210591741, 14.30550733420047 ] } },
{ "type": "Feature", "properties": { "fid": 12, "id": 12, "cluster_id": "149", "column": null, "row": "E" }, "geometry": { "type": "Point", "coordinates": [ 120.976153559222368, 14.305506960255245 ] } },
{ "type": "Feature", "properties": { "fid": 13, "id": 13, "cluster_id": "149", "column": null, "row": "E" }, "geometry": { "type": "Point", "coordinates": [ 120.976163655743463, 14.305510325762274 ] } },
{ "type": "Feature", "properties": { "fid": 14, "id": 14, "cluster_id": "149", "column": null, "row": "E" }, "geometry": { "type": "Point", "coordinates": [ 120.97617412620977, 14.305509577871824 ] } },
{ "type": "Feature", "properties": { "fid": 15, "id": 15, "cluster_id": "149", "column": null, "row": "E" }, "geometry": { "type": "Point", "coordinates": [ 120.976182726949958, 14.305509951817049 ] } },
{ "type": "Feature", "properties": { "fid": 16, "id": 16, "cluster_id": "149", "column": null, "row": "E" }, "geometry": { "type": "Point", "coordinates": [ 120.976192075580599, 14.305510325762274 ] } },
{ "type": "Feature", "properties": { "fid": 17, "id": 17, "cluster_id": "149", "column": null, "row": "E" }, "geometry": { "type": "Point", "coordinates": [ 120.976201050266013, 14.305510699707501 ] } },
{ "type": "Feature", "properties": { "fid": 18, "id": 18, "cluster_id": "149", "column": null, "row": "E" }, "geometry": { "type": "Point", "coordinates": [ 120.97621039889664, 14.305512195488403 ] } },
{ "type": "Feature", "properties": { "fid": 19, "id": 19, "cluster_id": "149", "column": null, "row": "E" }, "geometry": { "type": "Point", "coordinates": [ 120.976220869362962, 14.305512569433628 ] } },
{ "type": "Feature", "properties": { "fid": 20, "id": 20, "cluster_id": "149", "column": null, "row": "E" }, "geometry": { "type": "Point", "coordinates": [ 120.976229096157923, 14.305514065214529 ] } },
{ "type": "Feature", "properties": { "fid": 21, "id": 21, "cluster_id": "149", "column": null, "row": "E" }, "geometry": { "type": "Point", "coordinates": [ 120.976239940569457, 14.305515187050206 ] } },
{ "type": "Feature", "properties": { "fid": 22, "id": 22, "cluster_id": "149", "column": null, "row": "E" }, "geometry": { "type": "Point", "coordinates": [ 120.976247793419191, 14.305515187050206 ] } },
{ "type": "Feature", "properties": { "fid": 23, "id": 23, "cluster_id": "149", "column": null, "row": "E" }, "geometry": { "type": "Point", "coordinates": [ 120.976256020214151, 14.305515934940656 ] } },
{ "type": "Feature", "properties": { "fid": 24, "id": 24, "cluster_id": "149", "column": null, "row": "E" }, "geometry": { "type": "Point", "coordinates": [ 120.976264620954339, 14.305517056776333 ] } },
{ "type": "Feature", "properties": { "fid": 25, "id": 25, "cluster_id": "149", "column": null, "row": "E" }, "geometry": { "type": "Point", "coordinates": [ 120.97627172591362, 14.305516308885883 ] } },
{ "type": "Feature", "properties": { "fid": 26, "id": 26, "cluster_id": "149", "column": null, "row": "E" }, "geometry": { "type": "Point", "coordinates": [ 120.976280326653807, 14.305517056776333 ] } },
{ "type": "Feature", "properties": { "fid": 27, "id": 27, "cluster_id": "149", "column": null, "row": "E" }, "geometry": { "type": "Point", "coordinates": [ 120.976287057667861, 14.305517430721558 ] } },
{ "type": "Feature", "properties": { "fid": 28, "id": 28, "cluster_id": "149", "column": null, "row": "E" }, "geometry": { "type": "Point", "coordinates": [ 120.976295284462822, 14.305518552557235 ] } },
{ "type": "Feature", "properties": { "fid": 29, "id": 29, "cluster_id": "149", "column": null, "row": "E" }, "geometry": { "type": "Point", "coordinates": [ 120.976303137312556, 14.305519300447687 ] } },
{ "type": "Feature", "properties": { "fid": 30, "id": 30, "cluster_id": "149", "column": null, "row": "E" }, "geometry": { "type": "Point", "coordinates": [ 120.97631024227185, 14.305519300447687 ] } },
{ "type": "Feature", "properties": { "fid": 31, "id": 31, "cluster_id": "149", "column": null, "row": "E" }, "geometry": { "type": "Point", "coordinates": [ 120.976318095121584, 14.30551892650246 ] } },
{ "type": "Feature", "properties": { "fid": 32, "id": 32, "cluster_id": "149", "column": null, "row": "E" }, "geometry": { "type": "Point", "coordinates": [ 120.976325574026092, 14.305520048338137 ] } },
{ "type": "Feature", "properties": { "fid": 33, "id": 33, "cluster_id": "149", "column": null, "row": "E" }, "geometry": { "type": "Point", "coordinates": [ 120.976333052930599, 14.305520796228588 ] } },
{ "type": "Feature", "properties": { "fid": 34, "id": 34, "cluster_id": "149", "column": null, "row": "E" }, "geometry": { "type": "Point", "coordinates": [ 120.976339783944653, 14.305520422283362 ] } },
{ "type": "Feature", "properties": { "fid": 35, "id": 35, "cluster_id": "149", "column": null, "row": "E" }, "geometry": { "type": "Point", "coordinates": [ 120.976346888903947, 14.30552229200949 ] } },
{ "type": "Feature", "properties": { "fid": 36, "id": 36, "cluster_id": "149", "column": null, "row": "E" }, "geometry": { "type": "Point", "coordinates": [ 120.976355489644135, 14.30552303989994 ] } }
]
}
