{
"type": "FeatureCollection",
"name": "cltr-id-148-b-row",
"crs": { "type": "name", "properties": { "name": "urn:ogc:def:crs:OGC:1.3:CRS84" } },
"features": [
{ "type": "Feature", "properties": { "fid": 1, "id": 1, "cluster_id": "148", "column": null, "row": "B" }, "geometry": { "type": "Point", "coordinates": [ 120.976049453659968, 14.305537292457778 ] } },
{ "type": "Feature", "properties": { "fid": 2, "id": 2, "cluster_id": "148", "column": null, "row": "B" }, "geometry": { "type": "Point", "coordinates": [ 120.976057867427542, 14.305538414293453 ] } },
{ "type": "Feature", "properties": { "fid": 3, "id": 3, "cluster_id": "148", "column": null, "row": "B" }, "geometry": { "type": "Point", "coordinates": [ 120.976065720277276, 14.305538414293453 ] } },
{ "type": "Feature", "properties": { "fid": 4, "id": 4, "cluster_id": "148", "column": null, "row": "B" }, "geometry": { "type": "Point", "coordinates": [ 120.97607413404485, 14.305538975211292 ] } },
{ "type": "Feature", "properties": { "fid": 5, "id": 5, "cluster_id": "148", "column": null, "row": "B" }, "geometry": { "type": "Point", "coordinates": [ 120.976081425976744, 14.305538975211292 ] } },
{ "type": "Feature", "properties": { "fid": 6, "id": 6, "cluster_id": "148", "column": null, "row": "B" }, "geometry": { "type": "Point", "coordinates": [ 120.976088717908652, 14.305538975211292 ] } },
{ "type": "Feature", "properties": { "fid": 7, "id": 7, "cluster_id": "148", "column": null, "row": "B" }, "geometry": { "type": "Point", "coordinates": [ 120.976096009840546, 14.305541218882645 ] } },
{ "type": "Feature", "properties": { "fid": 8, "id": 8, "cluster_id": "148", "column": null, "row": "B" }, "geometry": { "type": "Point", "coordinates": [ 120.97610386269028, 14.305541779800484 ] } },
{ "type": "Feature", "properties": { "fid": 9, "id": 9, "cluster_id": "148", "column": null, "row": "B" }, "geometry": { "type": "Point", "coordinates": [ 120.976112837375695, 14.305542340718322 ] } },
{ "type": "Feature", "properties": { "fid": 10, "id": 10, "cluster_id": "148", "column": null, "row": "B" }, "geometry": { "type": "Point", "coordinates": [ 120.976120129307589, 14.30554290163616 ] } },
{ "type": "Feature", "properties": { "fid": 11, "id": 11, "cluster_id": "148", "column": null, "row": "B" }, "geometry": { "type": "Point", "coordinates": [ 120.976129103993003, 14.305545706225351 ] } },
{ "type": "Feature", "properties": { "fid": 12, "id": 12, "cluster_id": "148", "column": null, "row": "B" }, "geometry": { "type": "Point", "coordinates": [ 120.976136395924897, 14.305544584389674 ] } },
{ "type": "Feature", "properties": { "fid": 13, "id": 13, "cluster_id": "148", "column": null, "row": "B" }, "geometry": { "type": "Point", "coordinates": [ 120.976144248774631, 14.305545145307512 ] } },
{ "type": "Feature", "properties": { "fid": 14, "id": 14, "cluster_id": "148", "column": null, "row": "B" }, "geometry": { "type": "Point", "coordinates": [ 120.976154906213551, 14.305545706225351 ] } },
{ "type": "Feature", "properties": { "fid": 15, "id": 15, "cluster_id": "148", "column": null, "row": "B" }, "geometry": { "type": "Point", "coordinates": [ 120.976162759063286, 14.305546828061027 ] } },
{ "type": "Feature", "properties": { "fid": 16, "id": 16, "cluster_id": "148", "column": null, "row": "B" }, "geometry": { "type": "Point", "coordinates": [ 120.976173977420061, 14.305546828061027 ] } },
{ "type": "Feature", "properties": { "fid": 17, "id": 17, "cluster_id": "148", "column": null, "row": "B" }, "geometry": { "type": "Point", "coordinates": [ 120.976180147516274, 14.305546828061027 ] } },
{ "type": "Feature", "properties": { "fid": 18, "id": 18, "cluster_id": "148", "column": null, "row": "B" }, "geometry": { "type": "Point", "coordinates": [ 120.976188561283848, 14.305548510814541 ] } },
{ "type": "Feature", "properties": { "fid": 19, "id": 19, "cluster_id": "148", "column": null, "row": "B" }, "geometry": { "type": "Point", "coordinates": [ 120.976196975051423, 14.305549071732379 ] } },
{ "type": "Feature", "properties": { "fid": 20, "id": 20, "cluster_id": "148", "column": null, "row": "B" }, "geometry": { "type": "Point", "coordinates": [ 120.976204827901157, 14.305549071732379 ] } },
{ "type": "Feature", "properties": { "fid": 21, "id": 21, "cluster_id": "148", "column": null, "row": "B" }, "geometry": { "type": "Point", "coordinates": [ 120.976212680750891, 14.305550193568056 ] } },
{ "type": "Feature", "properties": { "fid": 22, "id": 22, "cluster_id": "148", "column": null, "row": "B" }, "geometry": { "type": "Point", "coordinates": [ 120.976221094518465, 14.305551315403733 ] } },
{ "type": "Feature", "properties": { "fid": 23, "id": 23, "cluster_id": "148", "column": null, "row": "B" }, "geometry": { "type": "Point", "coordinates": [ 120.976229508286039, 14.305551315403733 ] } },
{ "type": "Feature", "properties": { "fid": 24, "id": 24, "cluster_id": "148", "column": null, "row": "B" }, "geometry": { "type": "Point", "coordinates": [ 120.976237361135773, 14.30555243723941 ] } },
{ "type": "Feature", "properties": { "fid": 25, "id": 25, "cluster_id": "148", "column": null, "row": "B" }, "geometry": { "type": "Point", "coordinates": [ 120.976245213985507, 14.30555243723941 ] } },
{ "type": "Feature", "properties": { "fid": 26, "id": 26, "cluster_id": "148", "column": null, "row": "B" }, "geometry": { "type": "Point", "coordinates": [ 120.976252505917401, 14.305552998157248 ] } },
{ "type": "Feature", "properties": { "fid": 27, "id": 27, "cluster_id": "148", "column": null, "row": "B" }, "geometry": { "type": "Point", "coordinates": [ 120.976262041520656, 14.30555243723941 ] } },
{ "type": "Feature", "properties": { "fid": 28, "id": 28, "cluster_id": "148", "column": null, "row": "B" }, "geometry": { "type": "Point", "coordinates": [ 120.976272138041736, 14.305554680910761 ] } },
{ "type": "Feature", "properties": { "fid": 29, "id": 29, "cluster_id": "148", "column": null, "row": "B" }, "geometry": { "type": "Point", "coordinates": [ 120.97627999089147, 14.305554680910761 ] } },
{ "type": "Feature", "properties": { "fid": 30, "id": 30, "cluster_id": "148", "column": null, "row": "B" }, "geometry": { "type": "Point", "coordinates": [ 120.976288965576884, 14.3055552418286 ] } },
{ "type": "Feature", "properties": { "fid": 31, "id": 31, "cluster_id": "148", "column": null, "row": "B" }, "geometry": { "type": "Point", "coordinates": [ 120.976298501180125, 14.305556363664277 ] } },
{ "type": "Feature", "properties": { "fid": 32, "id": 32, "cluster_id": "148", "column": null, "row": "B" }, "geometry": { "type": "Point", "coordinates": [ 120.97630859770122, 14.305557485499953 ] } },
{ "type": "Feature", "properties": { "fid": 33, "id": 33, "cluster_id": "148", "column": null, "row": "B" }, "geometry": { "type": "Point", "coordinates": [ 120.9763186942223, 14.305559729171307 ] } },
{ "type": "Feature", "properties": { "fid": 34, "id": 34, "cluster_id": "148", "column": null, "row": "B" }, "geometry": { "type": "Point", "coordinates": [ 120.976331034414741, 14.305559168253469 ] } },
{ "type": "Feature", "properties": { "fid": 35, "id": 35, "cluster_id": "148", "column": null, "row": "B" }, "geometry": { "type": "Point", "coordinates": [ 120.976356850595039, 14.305554303195818 ] } },
{ "type": "Feature", "properties": { "fid": 36, "id": 36, "cluster_id": "148", "column": null, "row": "B" }, "geometry": { "type": "Point", "coordinates": [ 120.976357411512879, 14.305545328510405 ] } }
]
}
