{
"type": "FeatureCollection",
"name": "cltr-id-195-e-row",
"crs": { "type": "name", "properties": { "name": "urn:ogc:def:crs:OGC:1.3:CRS84" } },
"features": [
{ "type": "Feature", "properties": { "fid": 1, "id": 1, "cluster_id": null, "column": null, "row": null }, "geometry": { "type": "Point", "coordinates": [ 120.976738740422348, 14.305690878656799 ] } },
{ "type": "Feature", "properties": { "fid": 2, "id": 2, "cluster_id": null, "column": null, "row": null }, "geometry": { "type": "Point", "coordinates": [ 120.976737388209713, 14.305696287507381 ] } },
{ "type": "Feature", "properties": { "fid": 3, "id": 3, "cluster_id": null, "column": null, "row": null }, "geometry": { "type": "Point", "coordinates": [ 120.976745771928108, 14.305695476179794 ] } },
{ "type": "Feature", "properties": { "fid": 4, "id": 4, "cluster_id": null, "column": null, "row": null }, "geometry": { "type": "Point", "coordinates": [ 120.976751721663746, 14.305695476179794 ] } },
{ "type": "Feature", "properties": { "fid": 5, "id": 5, "cluster_id": null, "column": null, "row": null }, "geometry": { "type": "Point", "coordinates": [ 120.976759834939628, 14.305697910162555 ] } },
{ "type": "Feature", "properties": { "fid": 6, "id": 6, "cluster_id": null, "column": null, "row": null }, "geometry": { "type": "Point", "coordinates": [ 120.976769300428145, 14.305698721490144 ] } },
{ "type": "Feature", "properties": { "fid": 7, "id": 7, "cluster_id": null, "column": null, "row": null }, "geometry": { "type": "Point", "coordinates": [ 120.976777684146541, 14.305697369277498 ] } },
{ "type": "Feature", "properties": { "fid": 8, "id": 8, "cluster_id": null, "column": null, "row": null }, "geometry": { "type": "Point", "coordinates": [ 120.976782822554597, 14.305699803260259 ] } },
{ "type": "Feature", "properties": { "fid": 9, "id": 9, "cluster_id": null, "column": null, "row": null }, "geometry": { "type": "Point", "coordinates": [ 120.976790935830465, 14.305698451047615 ] } },
{ "type": "Feature", "properties": { "fid": 10, "id": 10, "cluster_id": null, "column": null, "row": null }, "geometry": { "type": "Point", "coordinates": [ 120.976794722025872, 14.305701425915434 ] } },
{ "type": "Feature", "properties": { "fid": 11, "id": 11, "cluster_id": null, "column": null, "row": null }, "geometry": { "type": "Point", "coordinates": [ 120.976802294416686, 14.305702507685551 ] } },
{ "type": "Feature", "properties": { "fid": 12, "id": 12, "cluster_id": null, "column": null, "row": null }, "geometry": { "type": "Point", "coordinates": [ 120.976812300790272, 14.305702778128079 ] } },
{ "type": "Feature", "properties": { "fid": 13, "id": 13, "cluster_id": null, "column": null, "row": null }, "geometry": { "type": "Point", "coordinates": [ 120.97682041406614, 14.305703048570608 ] } },
{ "type": "Feature", "properties": { "fid": 14, "id": 14, "cluster_id": null, "column": null, "row": null }, "geometry": { "type": "Point", "coordinates": [ 120.976827175129372, 14.305703319013139 ] } },
{ "type": "Feature", "properties": { "fid": 15, "id": 15, "cluster_id": null, "column": null, "row": null }, "geometry": { "type": "Point", "coordinates": [ 120.976834747520186, 14.305703589455668 ] } },
{ "type": "Feature", "properties": { "fid": 16, "id": 16, "cluster_id": null, "column": null, "row": null }, "geometry": { "type": "Point", "coordinates": [ 120.976843942566177, 14.305706564323488 ] } },
{ "type": "Feature", "properties": { "fid": 17, "id": 17, "cluster_id": null, "column": null, "row": null }, "geometry": { "type": "Point", "coordinates": [ 120.976849080974233, 14.305706564323488 ] } },
{ "type": "Feature", "properties": { "fid": 18, "id": 18, "cluster_id": null, "column": null, "row": null }, "geometry": { "type": "Point", "coordinates": [ 120.976861791773089, 14.305706834766017 ] } },
{ "type": "Feature", "properties": { "fid": 19, "id": 19, "cluster_id": null, "column": null, "row": null }, "geometry": { "type": "Point", "coordinates": [ 120.976873420801851, 14.305708457421192 ] } },
{ "type": "Feature", "properties": { "fid": 20, "id": 20, "cluster_id": null, "column": null, "row": null }, "geometry": { "type": "Point", "coordinates": [ 120.976885590715654, 14.305709809633838 ] } },
{ "type": "Feature", "properties": { "fid": 21, "id": 21, "cluster_id": null, "column": null, "row": null }, "geometry": { "type": "Point", "coordinates": [ 120.976895867531766, 14.305710620961424 ] } },
{ "type": "Feature", "properties": { "fid": 22, "id": 22, "cluster_id": null, "column": null, "row": null }, "geometry": { "type": "Point", "coordinates": [ 120.976907226117987, 14.305711432289012 ] } },
{ "type": "Feature", "properties": { "fid": 23, "id": 23, "cluster_id": null, "column": null, "row": null }, "geometry": { "type": "Point", "coordinates": [ 120.976918855146735, 14.305712243616599 ] } },
{ "type": "Feature", "properties": { "fid": 24, "id": 24, "cluster_id": null, "column": null, "row": null }, "geometry": { "type": "Point", "coordinates": [ 120.9769250753249, 14.305712514059127 ] } },
{ "type": "Feature", "properties": { "fid": 25, "id": 25, "cluster_id": null, "column": null, "row": null }, "geometry": { "type": "Point", "coordinates": [ 120.976933729485836, 14.30571494804189 ] } },
{ "type": "Feature", "properties": { "fid": 26, "id": 26, "cluster_id": null, "column": null, "row": null }, "geometry": { "type": "Point", "coordinates": [ 120.97694346541688, 14.305716841139594 ] } },
{ "type": "Feature", "properties": { "fid": 27, "id": 27, "cluster_id": null, "column": null, "row": null }, "geometry": { "type": "Point", "coordinates": [ 120.976956176215751, 14.30571765246718 ] } },
{ "type": "Feature", "properties": { "fid": 28, "id": 28, "cluster_id": null, "column": null, "row": null }, "geometry": { "type": "Point", "coordinates": [ 120.976970509669798, 14.305718463794769 ] } },
{ "type": "Feature", "properties": { "fid": 29, "id": 29, "cluster_id": null, "column": null, "row": null }, "geometry": { "type": "Point", "coordinates": [ 120.976986736221548, 14.305719004679826 ] } },
{ "type": "Feature", "properties": { "fid": 30, "id": 30, "cluster_id": null, "column": null, "row": null }, "geometry": { "type": "Point", "coordinates": [ 120.97700106967558, 14.30572089777753 ] } },
{ "type": "Feature", "properties": { "fid": 31, "id": 31, "cluster_id": null, "column": null, "row": null }, "geometry": { "type": "Point", "coordinates": [ 120.977011346491693, 14.305719275122355 ] } },
{ "type": "Feature", "properties": { "fid": 32, "id": 32, "cluster_id": null, "column": null, "row": null }, "geometry": { "type": "Point", "coordinates": [ 120.977023516405495, 14.30572089777753 ] } },
{ "type": "Feature", "properties": { "fid": 33, "id": 33, "cluster_id": null, "column": null, "row": null }, "geometry": { "type": "Point", "coordinates": [ 120.977033252336554, 14.305719545564884 ] } }
]
}
