{
"type": "FeatureCollection",
"name": "cltr-id-208-a-row",
"crs": { "type": "name", "properties": { "name": "urn:ogc:def:crs:OGC:1.3:CRS84" } },
"features": [
{ "type": "Feature", "properties": { "fid": 1, "id": 1, "cluster_id": "208", "column": null, "row": "A" }, "geometry": { "type": "Point", "coordinates": [ 120.976757536178297, 14.305392039662143 ] } },
{ "type": "Feature", "properties": { "fid": 2, "id": 2, "cluster_id": "208", "column": null, "row": "A" }, "geometry": { "type": "Point", "coordinates": [ 120.976768353879478, 14.305392580547201 ] } },
{ "type": "Feature", "properties": { "fid": 3, "id": 3, "cluster_id": "208", "column": null, "row": "A" }, "geometry": { "type": "Point", "coordinates": [ 120.976778630695577, 14.305394203202376 ] } },
{ "type": "Feature", "properties": { "fid": 4, "id": 4, "cluster_id": "208", "column": null, "row": "A" }, "geometry": { "type": "Point", "coordinates": [ 120.976792693707083, 14.305395825857548 ] } },
{ "type": "Feature", "properties": { "fid": 5, "id": 5, "cluster_id": "208", "column": null, "row": "A" }, "geometry": { "type": "Point", "coordinates": [ 120.976805134063412, 14.305397448512725 ] } },
{ "type": "Feature", "properties": { "fid": 6, "id": 6, "cluster_id": "208", "column": null, "row": "A" }, "geometry": { "type": "Point", "coordinates": [ 120.976817033534715, 14.305399071167898 ] } },
{ "type": "Feature", "properties": { "fid": 7, "id": 7, "cluster_id": "208", "column": null, "row": "A" }, "geometry": { "type": "Point", "coordinates": [ 120.976830014776112, 14.305400152938015 ] } },
{ "type": "Feature", "properties": { "fid": 8, "id": 8, "cluster_id": "208", "column": null, "row": "A" }, "geometry": { "type": "Point", "coordinates": [ 120.976840832477265, 14.305400693823074 ] } },
{ "type": "Feature", "properties": { "fid": 9, "id": 9, "cluster_id": "208", "column": null, "row": "A" }, "geometry": { "type": "Point", "coordinates": [ 120.976851109293364, 14.30540123470813 ] } },
{ "type": "Feature", "properties": { "fid": 10, "id": 10, "cluster_id": "208", "column": null, "row": "A" }, "geometry": { "type": "Point", "coordinates": [ 120.976865172304883, 14.305401775593189 ] } },
{ "type": "Feature", "properties": { "fid": 11, "id": 11, "cluster_id": "208", "column": null, "row": "A" }, "geometry": { "type": "Point", "coordinates": [ 120.976875990006064, 14.305402316478247 ] } },
{ "type": "Feature", "properties": { "fid": 12, "id": 12, "cluster_id": "208", "column": null, "row": "A" }, "geometry": { "type": "Point", "coordinates": [ 120.976887348592271, 14.305403939133422 ] } },
{ "type": "Feature", "properties": { "fid": 13, "id": 13, "cluster_id": "208", "column": null, "row": "A" }, "geometry": { "type": "Point", "coordinates": [ 120.976895461868153, 14.305405020903539 ] } },
{ "type": "Feature", "properties": { "fid": 14, "id": 14, "cluster_id": "208", "column": null, "row": "A" }, "geometry": { "type": "Point", "coordinates": [ 120.976902493373899, 14.305405561788596 ] } },
{ "type": "Feature", "properties": { "fid": 15, "id": 15, "cluster_id": "208", "column": null, "row": "A" }, "geometry": { "type": "Point", "coordinates": [ 120.97691385196012, 14.305406643558713 ] } },
{ "type": "Feature", "properties": { "fid": 16, "id": 16, "cluster_id": "208", "column": null, "row": "A" }, "geometry": { "type": "Point", "coordinates": [ 120.976925751431409, 14.305407725328831 ] } },
{ "type": "Feature", "properties": { "fid": 17, "id": 17, "cluster_id": "208", "column": null, "row": "A" }, "geometry": { "type": "Point", "coordinates": [ 120.976938191787752, 14.305408807098946 ] } },
{ "type": "Feature", "properties": { "fid": 18, "id": 18, "cluster_id": "208", "column": null, "row": "A" }, "geometry": { "type": "Point", "coordinates": [ 120.976945764178552, 14.305409347984003 ] } },
{ "type": "Feature", "properties": { "fid": 19, "id": 19, "cluster_id": "208", "column": null, "row": "A" }, "geometry": { "type": "Point", "coordinates": [ 120.976955500109611, 14.30541042975412 ] } },
{ "type": "Feature", "properties": { "fid": 20, "id": 20, "cluster_id": "208", "column": null, "row": "A" }, "geometry": { "type": "Point", "coordinates": [ 120.976963613385479, 14.30541042975412 ] } },
{ "type": "Feature", "properties": { "fid": 21, "id": 21, "cluster_id": "208", "column": null, "row": "A" }, "geometry": { "type": "Point", "coordinates": [ 120.976974431086646, 14.30541097063918 ] } },
{ "type": "Feature", "properties": { "fid": 22, "id": 22, "cluster_id": "208", "column": null, "row": "A" }, "geometry": { "type": "Point", "coordinates": [ 120.976983085247568, 14.305410970639176 ] } },
{ "type": "Feature", "properties": { "fid": 23, "id": 23, "cluster_id": "208", "column": null, "row": "A" }, "geometry": { "type": "Point", "coordinates": [ 120.976992280293558, 14.305412593294355 ] } },
{ "type": "Feature", "properties": { "fid": 24, "id": 24, "cluster_id": "208", "column": null, "row": "A" }, "geometry": { "type": "Point", "coordinates": [ 120.976999311799318, 14.305412593294355 ] } },
{ "type": "Feature", "properties": { "fid": 25, "id": 25, "cluster_id": "208", "column": null, "row": "A" }, "geometry": { "type": "Point", "coordinates": [ 120.977006343305078, 14.305413134179412 ] } },
{ "type": "Feature", "properties": { "fid": 26, "id": 26, "cluster_id": "208", "column": null, "row": "A" }, "geometry": { "type": "Point", "coordinates": [ 120.977012293040715, 14.305414215949529 ] } },
{ "type": "Feature", "properties": { "fid": 27, "id": 27, "cluster_id": "208", "column": null, "row": "A" }, "geometry": { "type": "Point", "coordinates": [ 120.977019324546475, 14.305414756834587 ] } },
{ "type": "Feature", "properties": { "fid": 28, "id": 28, "cluster_id": "208", "column": null, "row": "A" }, "geometry": { "type": "Point", "coordinates": [ 120.977025815167181, 14.305415297719644 ] } },
{ "type": "Feature", "properties": { "fid": 29, "id": 29, "cluster_id": "208", "column": null, "row": "A" }, "geometry": { "type": "Point", "coordinates": [ 120.977033928443049, 14.305416379489762 ] } },
{ "type": "Feature", "properties": { "fid": 30, "id": 30, "cluster_id": "208", "column": null, "row": "A" }, "geometry": { "type": "Point", "coordinates": [ 120.977040419063741, 14.305416379489762 ] } },
{ "type": "Feature", "properties": { "fid": 31, "id": 31, "cluster_id": "208", "column": null, "row": "A" }, "geometry": { "type": "Point", "coordinates": [ 120.977048532339623, 14.305416379489762 ] } },
{ "type": "Feature", "properties": { "fid": 32, "id": 32, "cluster_id": "208", "column": null, "row": "A" }, "geometry": { "type": "Point", "coordinates": [ 120.977053400305138, 14.305416920374819 ] } },
{ "type": "Feature", "properties": { "fid": 33, "id": 33, "cluster_id": "208", "column": null, "row": "A" }, "geometry": { "type": "Point", "coordinates": [ 120.977058268270667, 14.305418002144936 ] } },
{ "type": "Feature", "properties": { "fid": 34, "id": 34, "cluster_id": "208", "column": null, "row": "A" }, "geometry": { "type": "Point", "coordinates": [ 120.977066381546535, 14.305418002144936 ] } },
{ "type": "Feature", "properties": { "fid": 35, "id": 35, "cluster_id": "208", "column": null, "row": "A" }, "geometry": { "type": "Point", "coordinates": [ 120.977072331282187, 14.305418002144936 ] } }
]
}
