{
"type": "FeatureCollection",
"name": "cltr-id-151-b-row",
"crs": { "type": "name", "properties": { "name": "urn:ogc:def:crs:OGC:1.3:CRS84" } },
"features": [
{ "type": "Feature", "properties": { "fid": 1, "id": 1, "cluster_id": "151", "column": null, "row": "B" }, "geometry": { "type": "Point", "coordinates": [ 120.976038529434803, 14.305644347455484 ] } },
{ "type": "Feature", "properties": { "fid": 2, "id": 2, "cluster_id": "151", "column": null, "row": "B" }, "geometry": { "type": "Point", "coordinates": [ 120.976039090352643, 14.305636494605748 ] } },
{ "type": "Feature", "properties": { "fid": 3, "id": 3, "cluster_id": "151", "column": null, "row": "B" }, "geometry": { "type": "Point", "coordinates": [ 120.976049400929853, 14.305632205469747 ] } },
{ "type": "Feature", "properties": { "fid": 4, "id": 4, "cluster_id": "151", "column": null, "row": "B" }, "geometry": { "type": "Point", "coordinates": [ 120.976062115067521, 14.305633327305424 ] } },
{ "type": "Feature", "properties": { "fid": 5, "id": 5, "cluster_id": "151", "column": null, "row": "B" }, "geometry": { "type": "Point", "coordinates": [ 120.976074829205189, 14.305634075195874 ] } },
{ "type": "Feature", "properties": { "fid": 6, "id": 6, "cluster_id": "151", "column": null, "row": "B" }, "geometry": { "type": "Point", "coordinates": [ 120.976087917288083, 14.305634823086326 ] } },
{ "type": "Feature", "properties": { "fid": 7, "id": 7, "cluster_id": "151", "column": null, "row": "B" }, "geometry": { "type": "Point", "coordinates": [ 120.976098387754391, 14.305635197031551 ] } },
{ "type": "Feature", "properties": { "fid": 8, "id": 8, "cluster_id": "151", "column": null, "row": "B" }, "geometry": { "type": "Point", "coordinates": [ 120.976108858220712, 14.305635944922003 ] } },
{ "type": "Feature", "properties": { "fid": 9, "id": 9, "cluster_id": "151", "column": null, "row": "B" }, "geometry": { "type": "Point", "coordinates": [ 120.976117085015673, 14.305637066757678 ] } },
{ "type": "Feature", "properties": { "fid": 10, "id": 10, "cluster_id": "151", "column": null, "row": "B" }, "geometry": { "type": "Point", "coordinates": [ 120.97612755548198, 14.305637066757678 ] } },
{ "type": "Feature", "properties": { "fid": 11, "id": 11, "cluster_id": "151", "column": null, "row": "B" }, "geometry": { "type": "Point", "coordinates": [ 120.976137652003075, 14.305637440702904 ] } },
{ "type": "Feature", "properties": { "fid": 12, "id": 12, "cluster_id": "151", "column": null, "row": "B" }, "geometry": { "type": "Point", "coordinates": [ 120.976147748524156, 14.305638936483806 ] } },
{ "type": "Feature", "properties": { "fid": 13, "id": 13, "cluster_id": "151", "column": null, "row": "B" }, "geometry": { "type": "Point", "coordinates": [ 120.976157097154797, 14.305639310429031 ] } },
{ "type": "Feature", "properties": { "fid": 14, "id": 14, "cluster_id": "151", "column": null, "row": "B" }, "geometry": { "type": "Point", "coordinates": [ 120.976167567621104, 14.305640058319481 ] } },
{ "type": "Feature", "properties": { "fid": 15, "id": 15, "cluster_id": "151", "column": null, "row": "B" }, "geometry": { "type": "Point", "coordinates": [ 120.976176542306519, 14.305640806209933 ] } },
{ "type": "Feature", "properties": { "fid": 16, "id": 16, "cluster_id": "151", "column": null, "row": "B" }, "geometry": { "type": "Point", "coordinates": [ 120.97618589093716, 14.305641180155158 ] } },
{ "type": "Feature", "properties": { "fid": 17, "id": 17, "cluster_id": "151", "column": null, "row": "B" }, "geometry": { "type": "Point", "coordinates": [ 120.976195613513013, 14.305641554100383 ] } },
{ "type": "Feature", "properties": { "fid": 18, "id": 18, "cluster_id": "151", "column": null, "row": "B" }, "geometry": { "type": "Point", "coordinates": [ 120.976204588198428, 14.30564267593606 ] } },
{ "type": "Feature", "properties": { "fid": 19, "id": 19, "cluster_id": "151", "column": null, "row": "B" }, "geometry": { "type": "Point", "coordinates": [ 120.976215058664749, 14.305643423826512 ] } },
{ "type": "Feature", "properties": { "fid": 20, "id": 20, "cluster_id": "151", "column": null, "row": "B" }, "geometry": { "type": "Point", "coordinates": [ 120.976223285459696, 14.305644545662188 ] } },
{ "type": "Feature", "properties": { "fid": 21, "id": 21, "cluster_id": "151", "column": null, "row": "B" }, "geometry": { "type": "Point", "coordinates": [ 120.97623226014511, 14.305645667497863 ] } },
{ "type": "Feature", "properties": { "fid": 22, "id": 22, "cluster_id": "151", "column": null, "row": "B" }, "geometry": { "type": "Point", "coordinates": [ 120.976241982720978, 14.30564604144309 ] } },
{ "type": "Feature", "properties": { "fid": 23, "id": 23, "cluster_id": "151", "column": null, "row": "B" }, "geometry": { "type": "Point", "coordinates": [ 120.976250583461166, 14.30564678933354 ] } },
{ "type": "Feature", "properties": { "fid": 24, "id": 24, "cluster_id": "151", "column": null, "row": "B" }, "geometry": { "type": "Point", "coordinates": [ 120.976258810256127, 14.305647537223992 ] } },
{ "type": "Feature", "properties": { "fid": 25, "id": 25, "cluster_id": "151", "column": null, "row": "B" }, "geometry": { "type": "Point", "coordinates": [ 120.976266663105861, 14.305647163278765 ] } },
{ "type": "Feature", "properties": { "fid": 26, "id": 26, "cluster_id": "151", "column": null, "row": "B" }, "geometry": { "type": "Point", "coordinates": [ 120.976274142010368, 14.305648285114442 ] } },
{ "type": "Feature", "properties": { "fid": 27, "id": 27, "cluster_id": "151", "column": null, "row": "B" }, "geometry": { "type": "Point", "coordinates": [ 120.976281620914875, 14.305648659059667 ] } },
{ "type": "Feature", "properties": { "fid": 28, "id": 28, "cluster_id": "151", "column": null, "row": "B" }, "geometry": { "type": "Point", "coordinates": [ 120.976289847709836, 14.305649033004894 ] } },
{ "type": "Feature", "properties": { "fid": 29, "id": 29, "cluster_id": "151", "column": null, "row": "B" }, "geometry": { "type": "Point", "coordinates": [ 120.97629770055957, 14.305650154840571 ] } },
{ "type": "Feature", "properties": { "fid": 30, "id": 30, "cluster_id": "151", "column": null, "row": "B" }, "geometry": { "type": "Point", "coordinates": [ 120.976304805518851, 14.305650528785796 ] } },
{ "type": "Feature", "properties": { "fid": 31, "id": 31, "cluster_id": "151", "column": null, "row": "B" }, "geometry": { "type": "Point", "coordinates": [ 120.976311910478145, 14.305651276676246 ] } },
{ "type": "Feature", "properties": { "fid": 32, "id": 32, "cluster_id": "151", "column": null, "row": "B" }, "geometry": { "type": "Point", "coordinates": [ 120.976319015437426, 14.305651650621472 ] } },
{ "type": "Feature", "properties": { "fid": 33, "id": 33, "cluster_id": "151", "column": null, "row": "B" }, "geometry": { "type": "Point", "coordinates": [ 120.976326494341933, 14.305652398511922 ] } },
{ "type": "Feature", "properties": { "fid": 34, "id": 34, "cluster_id": "151", "column": null, "row": "B" }, "geometry": { "type": "Point", "coordinates": [ 120.976332851410774, 14.305652772457147 ] } },
{ "type": "Feature", "properties": { "fid": 35, "id": 35, "cluster_id": "151", "column": null, "row": "B" }, "geometry": { "type": "Point", "coordinates": [ 120.976339956370055, 14.305653894292824 ] } },
{ "type": "Feature", "properties": { "fid": 36, "id": 36, "cluster_id": "151", "column": null, "row": "B" }, "geometry": { "type": "Point", "coordinates": [ 120.976347809219789, 14.305654268238049 ] } }
]
}
