{
"type": "FeatureCollection",
"name": "cltr-id-153-c-row",
"crs": { "type": "name", "properties": { "name": "urn:ogc:def:crs:OGC:1.3:CRS84" } },
"features": [
{ "type": "Feature", "properties": { "fid": 1, "id": 1, "cluster_id": "153", "column": null, "row": "C" }, "geometry": { "type": "Point", "coordinates": [ 120.976032323251516, 14.305772099058967 ] } },
{ "type": "Feature", "properties": { "fid": 2, "id": 2, "cluster_id": "153", "column": null, "row": "C" }, "geometry": { "type": "Point", "coordinates": [ 120.97603064049801, 14.305765368044908 ] } },
{ "type": "Feature", "properties": { "fid": 3, "id": 3, "cluster_id": "153", "column": null, "row": "C" }, "geometry": { "type": "Point", "coordinates": [ 120.976042980690451, 14.305763124373556 ] } },
{ "type": "Feature", "properties": { "fid": 4, "id": 4, "cluster_id": "153", "column": null, "row": "C" }, "geometry": { "type": "Point", "coordinates": [ 120.976053077211532, 14.305765368044908 ] } },
{ "type": "Feature", "properties": { "fid": 5, "id": 5, "cluster_id": "153", "column": null, "row": "C" }, "geometry": { "type": "Point", "coordinates": [ 120.976063734650452, 14.305765368044908 ] } },
{ "type": "Feature", "properties": { "fid": 6, "id": 6, "cluster_id": "153", "column": null, "row": "C" }, "geometry": { "type": "Point", "coordinates": [ 120.976073270253707, 14.305765928962746 ] } },
{ "type": "Feature", "properties": { "fid": 7, "id": 7, "cluster_id": "153", "column": null, "row": "C" }, "geometry": { "type": "Point", "coordinates": [ 120.976081684021281, 14.305767050798423 ] } },
{ "type": "Feature", "properties": { "fid": 8, "id": 8, "cluster_id": "153", "column": null, "row": "C" }, "geometry": { "type": "Point", "coordinates": [ 120.976090658706696, 14.305767611716261 ] } },
{ "type": "Feature", "properties": { "fid": 9, "id": 9, "cluster_id": "153", "column": null, "row": "C" }, "geometry": { "type": "Point", "coordinates": [ 120.97609963339211, 14.305769294469776 ] } },
{ "type": "Feature", "properties": { "fid": 10, "id": 10, "cluster_id": "153", "column": null, "row": "C" }, "geometry": { "type": "Point", "coordinates": [ 120.97610972991319, 14.305769855387615 ] } },
{ "type": "Feature", "properties": { "fid": 11, "id": 11, "cluster_id": "153", "column": null, "row": "C" }, "geometry": { "type": "Point", "coordinates": [ 120.976119826434285, 14.305769294469776 ] } },
{ "type": "Feature", "properties": { "fid": 12, "id": 12, "cluster_id": "153", "column": null, "row": "C" }, "geometry": { "type": "Point", "coordinates": [ 120.976127118366179, 14.30577434273032 ] } },
{ "type": "Feature", "properties": { "fid": 13, "id": 13, "cluster_id": "153", "column": null, "row": "C" }, "geometry": { "type": "Point", "coordinates": [ 120.976136653969419, 14.305772659976805 ] } },
{ "type": "Feature", "properties": { "fid": 14, "id": 14, "cluster_id": "153", "column": null, "row": "C" }, "geometry": { "type": "Point", "coordinates": [ 120.976144506819153, 14.305772659976805 ] } },
{ "type": "Feature", "properties": { "fid": 15, "id": 15, "cluster_id": "153", "column": null, "row": "C" }, "geometry": { "type": "Point", "coordinates": [ 120.976151237833221, 14.305773781812482 ] } },
{ "type": "Feature", "properties": { "fid": 16, "id": 16, "cluster_id": "153", "column": null, "row": "C" }, "geometry": { "type": "Point", "coordinates": [ 120.976160212518636, 14.305772659976805 ] } },
{ "type": "Feature", "properties": { "fid": 17, "id": 17, "cluster_id": "153", "column": null, "row": "C" }, "geometry": { "type": "Point", "coordinates": [ 120.976169187204036, 14.305775464565995 ] } },
{ "type": "Feature", "properties": { "fid": 18, "id": 18, "cluster_id": "153", "column": null, "row": "C" }, "geometry": { "type": "Point", "coordinates": [ 120.976179283725131, 14.305776586401672 ] } },
{ "type": "Feature", "properties": { "fid": 19, "id": 19, "cluster_id": "153", "column": null, "row": "C" }, "geometry": { "type": "Point", "coordinates": [ 120.976191062999732, 14.305775464565995 ] } },
{ "type": "Feature", "properties": { "fid": 20, "id": 20, "cluster_id": "153", "column": null, "row": "C" }, "geometry": { "type": "Point", "coordinates": [ 120.976196672178119, 14.305776586401672 ] } },
{ "type": "Feature", "properties": { "fid": 21, "id": 21, "cluster_id": "153", "column": null, "row": "C" }, "geometry": { "type": "Point", "coordinates": [ 120.976202842274333, 14.305778269155187 ] } },
{ "type": "Feature", "properties": { "fid": 22, "id": 22, "cluster_id": "153", "column": null, "row": "C" }, "geometry": { "type": "Point", "coordinates": [ 120.976210695124067, 14.305777708237349 ] } },
{ "type": "Feature", "properties": { "fid": 23, "id": 23, "cluster_id": "153", "column": null, "row": "C" }, "geometry": { "type": "Point", "coordinates": [ 120.976219108891641, 14.305778269155187 ] } },
{ "type": "Feature", "properties": { "fid": 24, "id": 24, "cluster_id": "153", "column": null, "row": "C" }, "geometry": { "type": "Point", "coordinates": [ 120.976225839905695, 14.305778830073026 ] } },
{ "type": "Feature", "properties": { "fid": 25, "id": 25, "cluster_id": "153", "column": null, "row": "C" }, "geometry": { "type": "Point", "coordinates": [ 120.976235936426789, 14.305779951908702 ] } },
{ "type": "Feature", "properties": { "fid": 26, "id": 26, "cluster_id": "153", "column": null, "row": "C" }, "geometry": { "type": "Point", "coordinates": [ 120.97624771570139, 14.305779951908702 ] } },
{ "type": "Feature", "properties": { "fid": 27, "id": 27, "cluster_id": "153", "column": null, "row": "C" }, "geometry": { "type": "Point", "coordinates": [ 120.976253885797604, 14.305782756497893 ] } },
{ "type": "Feature", "properties": { "fid": 28, "id": 28, "cluster_id": "153", "column": null, "row": "C" }, "geometry": { "type": "Point", "coordinates": [ 120.976261177729512, 14.305782195580054 ] } },
{ "type": "Feature", "properties": { "fid": 29, "id": 29, "cluster_id": "153", "column": null, "row": "C" }, "geometry": { "type": "Point", "coordinates": [ 120.976270152414912, 14.305781634662216 ] } },
{ "type": "Feature", "properties": { "fid": 30, "id": 30, "cluster_id": "153", "column": null, "row": "C" }, "geometry": { "type": "Point", "coordinates": [ 120.976282492607353, 14.305783878333569 ] } },
{ "type": "Feature", "properties": { "fid": 31, "id": 31, "cluster_id": "153", "column": null, "row": "C" }, "geometry": { "type": "Point", "coordinates": [ 120.976290345457087, 14.305785561087083 ] } },
{ "type": "Feature", "properties": { "fid": 32, "id": 32, "cluster_id": "153", "column": null, "row": "C" }, "geometry": { "type": "Point", "coordinates": [ 120.976299881060342, 14.305786122004921 ] } },
{ "type": "Feature", "properties": { "fid": 33, "id": 33, "cluster_id": "153", "column": null, "row": "C" }, "geometry": { "type": "Point", "coordinates": [ 120.976308855745756, 14.305783317415731 ] } },
{ "type": "Feature", "properties": { "fid": 34, "id": 34, "cluster_id": "153", "column": null, "row": "C" }, "geometry": { "type": "Point", "coordinates": [ 120.97631502584197, 14.305782756497893 ] } },
{ "type": "Feature", "properties": { "fid": 35, "id": 35, "cluster_id": "153", "column": null, "row": "C" }, "geometry": { "type": "Point", "coordinates": [ 120.976322317773878, 14.305787243840598 ] } },
{ "type": "Feature", "properties": { "fid": 36, "id": 36, "cluster_id": "153", "column": null, "row": "C" }, "geometry": { "type": "Point", "coordinates": [ 120.976331853377118, 14.305787243840598 ] } }
]
}
