{
"type": "FeatureCollection",
"name": "cltr-id-146-b-row",
"crs": { "type": "name", "properties": { "name": "urn:ogc:def:crs:OGC:1.3:CRS84" } },
"features": [
{ "type": "Feature", "properties": { "fid": 1, "id": 1, "cluster_id": "146", "column": null, "row": "B" }, "geometry": { "type": "Point", "coordinates": [ 120.976062453382028, 14.305405022990891 ] } },
{ "type": "Feature", "properties": { "fid": 2, "id": 2, "cluster_id": "146", "column": null, "row": "B" }, "geometry": { "type": "Point", "coordinates": [ 120.976070867149602, 14.305406144826566 ] } },
{ "type": "Feature", "properties": { "fid": 3, "id": 3, "cluster_id": "146", "column": null, "row": "B" }, "geometry": { "type": "Point", "coordinates": [ 120.976078719999336, 14.305406144826566 ] } },
{ "type": "Feature", "properties": { "fid": 4, "id": 4, "cluster_id": "146", "column": null, "row": "B" }, "geometry": { "type": "Point", "coordinates": [ 120.97608713376691, 14.305406705744405 ] } },
{ "type": "Feature", "properties": { "fid": 5, "id": 5, "cluster_id": "146", "column": null, "row": "B" }, "geometry": { "type": "Point", "coordinates": [ 120.976094425698804, 14.305406705744405 ] } },
{ "type": "Feature", "properties": { "fid": 6, "id": 6, "cluster_id": "146", "column": null, "row": "B" }, "geometry": { "type": "Point", "coordinates": [ 120.976101717630712, 14.305406705744405 ] } },
{ "type": "Feature", "properties": { "fid": 7, "id": 7, "cluster_id": "146", "column": null, "row": "B" }, "geometry": { "type": "Point", "coordinates": [ 120.976109009562606, 14.305408949415758 ] } },
{ "type": "Feature", "properties": { "fid": 8, "id": 8, "cluster_id": "146", "column": null, "row": "B" }, "geometry": { "type": "Point", "coordinates": [ 120.97611686241234, 14.305409510333597 ] } },
{ "type": "Feature", "properties": { "fid": 9, "id": 9, "cluster_id": "146", "column": null, "row": "B" }, "geometry": { "type": "Point", "coordinates": [ 120.976125837097754, 14.305410071251435 ] } },
{ "type": "Feature", "properties": { "fid": 10, "id": 10, "cluster_id": "146", "column": null, "row": "B" }, "geometry": { "type": "Point", "coordinates": [ 120.976133129029648, 14.305410632169274 ] } },
{ "type": "Feature", "properties": { "fid": 11, "id": 11, "cluster_id": "146", "column": null, "row": "B" }, "geometry": { "type": "Point", "coordinates": [ 120.976142103715063, 14.305413436758464 ] } },
{ "type": "Feature", "properties": { "fid": 12, "id": 12, "cluster_id": "146", "column": null, "row": "B" }, "geometry": { "type": "Point", "coordinates": [ 120.976149395646956, 14.305412314922787 ] } },
{ "type": "Feature", "properties": { "fid": 13, "id": 13, "cluster_id": "146", "column": null, "row": "B" }, "geometry": { "type": "Point", "coordinates": [ 120.97615724849669, 14.305412875840625 ] } },
{ "type": "Feature", "properties": { "fid": 14, "id": 14, "cluster_id": "146", "column": null, "row": "B" }, "geometry": { "type": "Point", "coordinates": [ 120.976167905935611, 14.305413436758464 ] } },
{ "type": "Feature", "properties": { "fid": 15, "id": 15, "cluster_id": "146", "column": null, "row": "B" }, "geometry": { "type": "Point", "coordinates": [ 120.976175758785345, 14.305414558594141 ] } },
{ "type": "Feature", "properties": { "fid": 16, "id": 16, "cluster_id": "146", "column": null, "row": "B" }, "geometry": { "type": "Point", "coordinates": [ 120.97618697714212, 14.305414558594141 ] } },
{ "type": "Feature", "properties": { "fid": 17, "id": 17, "cluster_id": "146", "column": null, "row": "B" }, "geometry": { "type": "Point", "coordinates": [ 120.976193147238334, 14.305414558594141 ] } },
{ "type": "Feature", "properties": { "fid": 18, "id": 18, "cluster_id": "146", "column": null, "row": "B" }, "geometry": { "type": "Point", "coordinates": [ 120.976201561005908, 14.305416241347654 ] } },
{ "type": "Feature", "properties": { "fid": 19, "id": 19, "cluster_id": "146", "column": null, "row": "B" }, "geometry": { "type": "Point", "coordinates": [ 120.976209974773482, 14.305416802265492 ] } },
{ "type": "Feature", "properties": { "fid": 20, "id": 20, "cluster_id": "146", "column": null, "row": "B" }, "geometry": { "type": "Point", "coordinates": [ 120.976217827623216, 14.305416802265492 ] } },
{ "type": "Feature", "properties": { "fid": 21, "id": 21, "cluster_id": "146", "column": null, "row": "B" }, "geometry": { "type": "Point", "coordinates": [ 120.97622568047295, 14.305417924101169 ] } },
{ "type": "Feature", "properties": { "fid": 22, "id": 22, "cluster_id": "146", "column": null, "row": "B" }, "geometry": { "type": "Point", "coordinates": [ 120.976234094240525, 14.305419045936846 ] } },
{ "type": "Feature", "properties": { "fid": 23, "id": 23, "cluster_id": "146", "column": null, "row": "B" }, "geometry": { "type": "Point", "coordinates": [ 120.976242508008099, 14.305419045936846 ] } },
{ "type": "Feature", "properties": { "fid": 24, "id": 24, "cluster_id": "146", "column": null, "row": "B" }, "geometry": { "type": "Point", "coordinates": [ 120.976250360857833, 14.305420167772523 ] } },
{ "type": "Feature", "properties": { "fid": 25, "id": 25, "cluster_id": "146", "column": null, "row": "B" }, "geometry": { "type": "Point", "coordinates": [ 120.976258213707567, 14.305420167772523 ] } },
{ "type": "Feature", "properties": { "fid": 26, "id": 26, "cluster_id": "146", "column": null, "row": "B" }, "geometry": { "type": "Point", "coordinates": [ 120.976265505639461, 14.305420728690361 ] } },
{ "type": "Feature", "properties": { "fid": 27, "id": 27, "cluster_id": "146", "column": null, "row": "B" }, "geometry": { "type": "Point", "coordinates": [ 120.976275041242715, 14.305420167772523 ] } },
{ "type": "Feature", "properties": { "fid": 28, "id": 28, "cluster_id": "146", "column": null, "row": "B" }, "geometry": { "type": "Point", "coordinates": [ 120.976285137763796, 14.305422411443875 ] } },
{ "type": "Feature", "properties": { "fid": 29, "id": 29, "cluster_id": "146", "column": null, "row": "B" }, "geometry": { "type": "Point", "coordinates": [ 120.97629299061353, 14.305422411443875 ] } },
{ "type": "Feature", "properties": { "fid": 30, "id": 30, "cluster_id": "146", "column": null, "row": "B" }, "geometry": { "type": "Point", "coordinates": [ 120.976301965298944, 14.305422972361713 ] } },
{ "type": "Feature", "properties": { "fid": 31, "id": 31, "cluster_id": "146", "column": null, "row": "B" }, "geometry": { "type": "Point", "coordinates": [ 120.976311500902185, 14.30542409419739 ] } },
{ "type": "Feature", "properties": { "fid": 32, "id": 32, "cluster_id": "146", "column": null, "row": "B" }, "geometry": { "type": "Point", "coordinates": [ 120.976321597423279, 14.305425216033067 ] } },
{ "type": "Feature", "properties": { "fid": 33, "id": 33, "cluster_id": "146", "column": null, "row": "B" }, "geometry": { "type": "Point", "coordinates": [ 120.97633169394436, 14.30542745970442 ] } },
{ "type": "Feature", "properties": { "fid": 34, "id": 34, "cluster_id": "146", "column": null, "row": "B" }, "geometry": { "type": "Point", "coordinates": [ 120.976344034136801, 14.305426898786582 ] } },
{ "type": "Feature", "properties": { "fid": 35, "id": 35, "cluster_id": "146", "column": null, "row": "B" }, "geometry": { "type": "Point", "coordinates": [ 120.976368320028783, 14.305422574739957 ] } },
{ "type": "Feature", "properties": { "fid": 36, "id": 36, "cluster_id": "146", "column": null, "row": "B" }, "geometry": { "type": "Point", "coordinates": [ 120.976368880946623, 14.305413600054544 ] } }
]
}
