{
"type": "FeatureCollection",
"name": "cltr-id-211-b-row",
"crs": { "type": "name", "properties": { "name": "urn:ogc:def:crs:OGC:1.3:CRS84" } },
"features": [
{ "type": "Feature", "properties": { "fid": 1, "id": 1, "cluster_id": "211", "column": null, "row": "B" }, "geometry": { "type": "Point", "coordinates": [ 120.976747800247239, 14.305489128530091 ] } },
{ "type": "Feature", "properties": { "fid": 2, "id": 2, "cluster_id": "211", "column": null, "row": "B" }, "geometry": { "type": "Point", "coordinates": [ 120.976754290867945, 14.305490210300208 ] } },
{ "type": "Feature", "properties": { "fid": 3, "id": 3, "cluster_id": "211", "column": null, "row": "B" }, "geometry": { "type": "Point", "coordinates": [ 120.97676132237369, 14.305489669415151 ] } },
{ "type": "Feature", "properties": { "fid": 4, "id": 4, "cluster_id": "211", "column": null, "row": "B" }, "geometry": { "type": "Point", "coordinates": [ 120.976768894764504, 14.305490751185266 ] } },
{ "type": "Feature", "properties": { "fid": 5, "id": 5, "cluster_id": "211", "column": null, "row": "B" }, "geometry": { "type": "Point", "coordinates": [ 120.976775926270264, 14.305491832955383 ] } },
{ "type": "Feature", "properties": { "fid": 6, "id": 6, "cluster_id": "211", "column": null, "row": "B" }, "geometry": { "type": "Point", "coordinates": [ 120.976782957776024, 14.305491832955383 ] } },
{ "type": "Feature", "properties": { "fid": 7, "id": 7, "cluster_id": "211", "column": null, "row": "B" }, "geometry": { "type": "Point", "coordinates": [ 120.976792693707068, 14.30549237384044 ] } },
{ "type": "Feature", "properties": { "fid": 8, "id": 8, "cluster_id": "211", "column": null, "row": "B" }, "geometry": { "type": "Point", "coordinates": [ 120.976801347868005, 14.30549237384044 ] } },
{ "type": "Feature", "properties": { "fid": 9, "id": 9, "cluster_id": "211", "column": null, "row": "B" }, "geometry": { "type": "Point", "coordinates": [ 120.976809461143873, 14.305493996495615 ] } },
{ "type": "Feature", "properties": { "fid": 10, "id": 10, "cluster_id": "211", "column": null, "row": "B" }, "geometry": { "type": "Point", "coordinates": [ 120.976815951764578, 14.305494537380673 ] } },
{ "type": "Feature", "properties": { "fid": 11, "id": 11, "cluster_id": "211", "column": null, "row": "B" }, "geometry": { "type": "Point", "coordinates": [ 120.976823524155392, 14.305494537380673 ] } },
{ "type": "Feature", "properties": { "fid": 12, "id": 12, "cluster_id": "211", "column": null, "row": "B" }, "geometry": { "type": "Point", "coordinates": [ 120.97683163743126, 14.30549561915079 ] } },
{ "type": "Feature", "properties": { "fid": 13, "id": 13, "cluster_id": "211", "column": null, "row": "B" }, "geometry": { "type": "Point", "coordinates": [ 120.976840832477251, 14.30549561915079 ] } },
{ "type": "Feature", "properties": { "fid": 14, "id": 14, "cluster_id": "211", "column": null, "row": "B" }, "geometry": { "type": "Point", "coordinates": [ 120.976848404868065, 14.305496700920907 ] } },
{ "type": "Feature", "properties": { "fid": 15, "id": 15, "cluster_id": "211", "column": null, "row": "B" }, "geometry": { "type": "Point", "coordinates": [ 120.976856518143947, 14.305497241805964 ] } },
{ "type": "Feature", "properties": { "fid": 16, "id": 16, "cluster_id": "211", "column": null, "row": "B" }, "geometry": { "type": "Point", "coordinates": [ 120.976864090534761, 14.305497782691022 ] } },
{ "type": "Feature", "properties": { "fid": 17, "id": 17, "cluster_id": "211", "column": null, "row": "B" }, "geometry": { "type": "Point", "coordinates": [ 120.976871662925575, 14.305498864461139 ] } },
{ "type": "Feature", "properties": { "fid": 18, "id": 18, "cluster_id": "211", "column": null, "row": "B" }, "geometry": { "type": "Point", "coordinates": [ 120.976878694431335, 14.305499405346197 ] } },
{ "type": "Feature", "properties": { "fid": 19, "id": 19, "cluster_id": "211", "column": null, "row": "B" }, "geometry": { "type": "Point", "coordinates": [ 120.976886807707203, 14.305499946231256 ] } },
{ "type": "Feature", "properties": { "fid": 20, "id": 20, "cluster_id": "211", "column": null, "row": "B" }, "geometry": { "type": "Point", "coordinates": [ 120.976903034258953, 14.305501028001371 ] } },
{ "type": "Feature", "properties": { "fid": 21, "id": 21, "cluster_id": "211", "column": null, "row": "B" }, "geometry": { "type": "Point", "coordinates": [ 120.976910065764713, 14.305502109771489 ] } },
{ "type": "Feature", "properties": { "fid": 22, "id": 22, "cluster_id": "211", "column": null, "row": "B" }, "geometry": { "type": "Point", "coordinates": [ 120.976920342580826, 14.305503732426663 ] } },
{ "type": "Feature", "properties": { "fid": 23, "id": 23, "cluster_id": "211", "column": null, "row": "B" }, "geometry": { "type": "Point", "coordinates": [ 120.976930078511842, 14.305504814196778 ] } },
{ "type": "Feature", "properties": { "fid": 24, "id": 24, "cluster_id": "211", "column": null, "row": "B" }, "geometry": { "type": "Point", "coordinates": [ 120.976942518868213, 14.30550481419678 ] } },
{ "type": "Feature", "properties": { "fid": 25, "id": 25, "cluster_id": "211", "column": null, "row": "B" }, "geometry": { "type": "Point", "coordinates": [ 120.976951173029136, 14.305506436851953 ] } },
{ "type": "Feature", "properties": { "fid": 26, "id": 26, "cluster_id": "211", "column": null, "row": "B" }, "geometry": { "type": "Point", "coordinates": [ 120.976965236040641, 14.305506436851955 ] } },
{ "type": "Feature", "properties": { "fid": 27, "id": 27, "cluster_id": "211", "column": null, "row": "B" }, "geometry": { "type": "Point", "coordinates": [ 120.976974431086632, 14.305506436851955 ] } },
{ "type": "Feature", "properties": { "fid": 28, "id": 28, "cluster_id": "211", "column": null, "row": "B" }, "geometry": { "type": "Point", "coordinates": [ 120.976986330557921, 14.30550805950713 ] } },
{ "type": "Feature", "properties": { "fid": 29, "id": 29, "cluster_id": "211", "column": null, "row": "B" }, "geometry": { "type": "Point", "coordinates": [ 120.976999852684372, 14.305510223047362 ] } },
{ "type": "Feature", "properties": { "fid": 30, "id": 30, "cluster_id": "211", "column": null, "row": "B" }, "geometry": { "type": "Point", "coordinates": [ 120.977009047730363, 14.305510223047364 ] } },
{ "type": "Feature", "properties": { "fid": 31, "id": 31, "cluster_id": "211", "column": null, "row": "B" }, "geometry": { "type": "Point", "coordinates": [ 120.977020947201623, 14.305510223047362 ] } },
{ "type": "Feature", "properties": { "fid": 32, "id": 32, "cluster_id": "211", "column": null, "row": "B" }, "geometry": { "type": "Point", "coordinates": [ 120.977032846672927, 14.305510763932419 ] } },
{ "type": "Feature", "properties": { "fid": 33, "id": 33, "cluster_id": "211", "column": null, "row": "B" }, "geometry": { "type": "Point", "coordinates": [ 120.977042041718917, 14.305511845702538 ] } },
{ "type": "Feature", "properties": { "fid": 34, "id": 34, "cluster_id": "211", "column": null, "row": "B" }, "geometry": { "type": "Point", "coordinates": [ 120.977052318535016, 14.305513468357711 ] } },
{ "type": "Feature", "properties": { "fid": 35, "id": 35, "cluster_id": "211", "column": null, "row": "B" }, "geometry": { "type": "Point", "coordinates": [ 120.9770625953511, 14.305513468357709 ] } }
]
}
