{
"type": "FeatureCollection",
"name": "cltr-id-153-b-row",
"crs": { "type": "name", "properties": { "name": "urn:ogc:def:crs:OGC:1.3:CRS84" } },
"features": [
{ "type": "Feature", "properties": { "fid": 1, "id": 1, "cluster_id": "153", "column": null, "row": "B" }, "geometry": { "type": "Point", "coordinates": [ 120.97603064049801, 14.305772099058967 ] } },
{ "type": "Feature", "properties": { "fid": 2, "id": 2, "cluster_id": "153", "column": null, "row": "B" }, "geometry": { "type": "Point", "coordinates": [ 120.976028957744489, 14.305765368044908 ] } },
{ "type": "Feature", "properties": { "fid": 3, "id": 3, "cluster_id": "153", "column": null, "row": "B" }, "geometry": { "type": "Point", "coordinates": [ 120.976044102526117, 14.30576144162004 ] } },
{ "type": "Feature", "properties": { "fid": 4, "id": 4, "cluster_id": "153", "column": null, "row": "B" }, "geometry": { "type": "Point", "coordinates": [ 120.976053638129372, 14.305763124373556 ] } },
{ "type": "Feature", "properties": { "fid": 5, "id": 5, "cluster_id": "153", "column": null, "row": "B" }, "geometry": { "type": "Point", "coordinates": [ 120.976063173732626, 14.305763685291394 ] } },
{ "type": "Feature", "properties": { "fid": 6, "id": 6, "cluster_id": "153", "column": null, "row": "B" }, "geometry": { "type": "Point", "coordinates": [ 120.976073270253707, 14.305764807127071 ] } },
{ "type": "Feature", "properties": { "fid": 7, "id": 7, "cluster_id": "153", "column": null, "row": "B" }, "geometry": { "type": "Point", "coordinates": [ 120.976082244939121, 14.305765928962746 ] } },
{ "type": "Feature", "properties": { "fid": 8, "id": 8, "cluster_id": "153", "column": null, "row": "B" }, "geometry": { "type": "Point", "coordinates": [ 120.976089536871015, 14.305765928962746 ] } },
{ "type": "Feature", "properties": { "fid": 9, "id": 9, "cluster_id": "153", "column": null, "row": "B" }, "geometry": { "type": "Point", "coordinates": [ 120.97609963339211, 14.305767050798423 ] } },
{ "type": "Feature", "properties": { "fid": 10, "id": 10, "cluster_id": "153", "column": null, "row": "B" }, "geometry": { "type": "Point", "coordinates": [ 120.976110290831031, 14.305768172634099 ] } },
{ "type": "Feature", "properties": { "fid": 11, "id": 11, "cluster_id": "153", "column": null, "row": "B" }, "geometry": { "type": "Point", "coordinates": [ 120.976119265516445, 14.305768172634099 ] } },
{ "type": "Feature", "properties": { "fid": 12, "id": 12, "cluster_id": "153", "column": null, "row": "B" }, "geometry": { "type": "Point", "coordinates": [ 120.976127118366179, 14.305770416305451 ] } },
{ "type": "Feature", "properties": { "fid": 13, "id": 13, "cluster_id": "153", "column": null, "row": "B" }, "geometry": { "type": "Point", "coordinates": [ 120.976134971215913, 14.305769855387615 ] } },
{ "type": "Feature", "properties": { "fid": 14, "id": 14, "cluster_id": "153", "column": null, "row": "B" }, "geometry": { "type": "Point", "coordinates": [ 120.976145628654834, 14.305769855387615 ] } },
{ "type": "Feature", "properties": { "fid": 15, "id": 15, "cluster_id": "153", "column": null, "row": "B" }, "geometry": { "type": "Point", "coordinates": [ 120.976151798751062, 14.305771538141128 ] } },
{ "type": "Feature", "properties": { "fid": 16, "id": 16, "cluster_id": "153", "column": null, "row": "B" }, "geometry": { "type": "Point", "coordinates": [ 120.976159651600796, 14.305770416305451 ] } },
{ "type": "Feature", "properties": { "fid": 17, "id": 17, "cluster_id": "153", "column": null, "row": "B" }, "geometry": { "type": "Point", "coordinates": [ 120.976170869957556, 14.305772099058967 ] } },
{ "type": "Feature", "properties": { "fid": 18, "id": 18, "cluster_id": "153", "column": null, "row": "B" }, "geometry": { "type": "Point", "coordinates": [ 120.976179283725131, 14.305773220894643 ] } },
{ "type": "Feature", "properties": { "fid": 19, "id": 19, "cluster_id": "153", "column": null, "row": "B" }, "geometry": { "type": "Point", "coordinates": [ 120.976191062999732, 14.30577434273032 ] } },
{ "type": "Feature", "properties": { "fid": 20, "id": 20, "cluster_id": "153", "column": null, "row": "B" }, "geometry": { "type": "Point", "coordinates": [ 120.976196672178119, 14.30577434273032 ] } },
{ "type": "Feature", "properties": { "fid": 21, "id": 21, "cluster_id": "153", "column": null, "row": "B" }, "geometry": { "type": "Point", "coordinates": [ 120.976202842274333, 14.30577434273032 ] } },
{ "type": "Feature", "properties": { "fid": 22, "id": 22, "cluster_id": "153", "column": null, "row": "B" }, "geometry": { "type": "Point", "coordinates": [ 120.976210134206227, 14.305776025483834 ] } },
{ "type": "Feature", "properties": { "fid": 23, "id": 23, "cluster_id": "153", "column": null, "row": "B" }, "geometry": { "type": "Point", "coordinates": [ 120.976219669809481, 14.305776025483834 ] } },
{ "type": "Feature", "properties": { "fid": 24, "id": 24, "cluster_id": "153", "column": null, "row": "B" }, "geometry": { "type": "Point", "coordinates": [ 120.976228083577055, 14.305776586401672 ] } },
{ "type": "Feature", "properties": { "fid": 25, "id": 25, "cluster_id": "153", "column": null, "row": "B" }, "geometry": { "type": "Point", "coordinates": [ 120.97623705826247, 14.305778269155187 ] } },
{ "type": "Feature", "properties": { "fid": 26, "id": 26, "cluster_id": "153", "column": null, "row": "B" }, "geometry": { "type": "Point", "coordinates": [ 120.97624771570139, 14.305777708237349 ] } },
{ "type": "Feature", "properties": { "fid": 27, "id": 27, "cluster_id": "153", "column": null, "row": "B" }, "geometry": { "type": "Point", "coordinates": [ 120.976254446715444, 14.305779390990864 ] } },
{ "type": "Feature", "properties": { "fid": 28, "id": 28, "cluster_id": "153", "column": null, "row": "B" }, "geometry": { "type": "Point", "coordinates": [ 120.976261177729512, 14.305779390990864 ] } },
{ "type": "Feature", "properties": { "fid": 29, "id": 29, "cluster_id": "153", "column": null, "row": "B" }, "geometry": { "type": "Point", "coordinates": [ 120.976271835168433, 14.305779951908702 ] } },
{ "type": "Feature", "properties": { "fid": 30, "id": 30, "cluster_id": "153", "column": null, "row": "B" }, "geometry": { "type": "Point", "coordinates": [ 120.976281931689527, 14.305781634662216 ] } },
{ "type": "Feature", "properties": { "fid": 31, "id": 31, "cluster_id": "153", "column": null, "row": "B" }, "geometry": { "type": "Point", "coordinates": [ 120.976290906374928, 14.305782756497893 ] } },
{ "type": "Feature", "properties": { "fid": 32, "id": 32, "cluster_id": "153", "column": null, "row": "B" }, "geometry": { "type": "Point", "coordinates": [ 120.976299881060342, 14.305782756497893 ] } },
{ "type": "Feature", "properties": { "fid": 33, "id": 33, "cluster_id": "153", "column": null, "row": "B" }, "geometry": { "type": "Point", "coordinates": [ 120.976308294827916, 14.305782195580054 ] } },
{ "type": "Feature", "properties": { "fid": 34, "id": 34, "cluster_id": "153", "column": null, "row": "B" }, "geometry": { "type": "Point", "coordinates": [ 120.97631670859549, 14.305781073744377 ] } },
{ "type": "Feature", "properties": { "fid": 35, "id": 35, "cluster_id": "153", "column": null, "row": "B" }, "geometry": { "type": "Point", "coordinates": [ 120.976323439609544, 14.305783878333569 ] } },
{ "type": "Feature", "properties": { "fid": 36, "id": 36, "cluster_id": "153", "column": null, "row": "B" }, "geometry": { "type": "Point", "coordinates": [ 120.976331853377118, 14.305785000169246 ] } }
]
}
