{
"type": "FeatureCollection",
"name": "cltr-id-168-b-row",
"crs": { "type": "name", "properties": { "name": "urn:ogc:def:crs:OGC:1.3:CRS84" } },
"features": [
{ "type": "Feature", "properties": { "fid": 1, "id": 1, "cluster_id": "168", "column": null, "row": "B" }, "geometry": { "type": "Point", "coordinates": [ 120.976029331689688, 14.305733395728126 ] } },
{ "type": "Feature", "properties": { "fid": 2, "id": 2, "cluster_id": "168", "column": null, "row": "B" }, "geometry": { "type": "Point", "coordinates": [ 120.976035688758515, 14.305733021782901 ] } },
{ "type": "Feature", "properties": { "fid": 3, "id": 3, "cluster_id": "168", "column": null, "row": "B" }, "geometry": { "type": "Point", "coordinates": [ 120.976047281060502, 14.305733769673353 ] } },
{ "type": "Feature", "properties": { "fid": 4, "id": 4, "cluster_id": "168", "column": null, "row": "B" }, "geometry": { "type": "Point", "coordinates": [ 120.976055507855463, 14.305734143618578 ] } },
{ "type": "Feature", "properties": { "fid": 5, "id": 5, "cluster_id": "168", "column": null, "row": "B" }, "geometry": { "type": "Point", "coordinates": [ 120.976063734650424, 14.305735265454254 ] } },
{ "type": "Feature", "properties": { "fid": 6, "id": 6, "cluster_id": "168", "column": null, "row": "B" }, "geometry": { "type": "Point", "coordinates": [ 120.976073457226292, 14.305735639399479 ] } },
{ "type": "Feature", "properties": { "fid": 7, "id": 7, "cluster_id": "168", "column": null, "row": "B" }, "geometry": { "type": "Point", "coordinates": [ 120.976081684021253, 14.305735639399479 ] } },
{ "type": "Feature", "properties": { "fid": 8, "id": 8, "cluster_id": "168", "column": null, "row": "B" }, "geometry": { "type": "Point", "coordinates": [ 120.97609028476144, 14.305736013344704 ] } },
{ "type": "Feature", "properties": { "fid": 9, "id": 9, "cluster_id": "168", "column": null, "row": "B" }, "geometry": { "type": "Point", "coordinates": [ 120.976100381282521, 14.305737135180381 ] } },
{ "type": "Feature", "properties": { "fid": 10, "id": 10, "cluster_id": "168", "column": null, "row": "B" }, "geometry": { "type": "Point", "coordinates": [ 120.976109355967935, 14.305737883070831 ] } },
{ "type": "Feature", "properties": { "fid": 11, "id": 11, "cluster_id": "168", "column": null, "row": "B" }, "geometry": { "type": "Point", "coordinates": [ 120.976119078543803, 14.305737883070831 ] } },
{ "type": "Feature", "properties": { "fid": 12, "id": 12, "cluster_id": "168", "column": null, "row": "B" }, "geometry": { "type": "Point", "coordinates": [ 120.976128801119657, 14.305739004906508 ] } },
{ "type": "Feature", "properties": { "fid": 13, "id": 13, "cluster_id": "168", "column": null, "row": "B" }, "geometry": { "type": "Point", "coordinates": [ 120.976138897640752, 14.305740126742185 ] } },
{ "type": "Feature", "properties": { "fid": 14, "id": 14, "cluster_id": "168", "column": null, "row": "B" }, "geometry": { "type": "Point", "coordinates": [ 120.976148620216605, 14.305740126742185 ] } },
{ "type": "Feature", "properties": { "fid": 15, "id": 15, "cluster_id": "168", "column": null, "row": "B" }, "geometry": { "type": "Point", "coordinates": [ 120.976158342792473, 14.305741622523087 ] } },
{ "type": "Feature", "properties": { "fid": 16, "id": 16, "cluster_id": "168", "column": null, "row": "B" }, "geometry": { "type": "Point", "coordinates": [ 120.976169187204007, 14.305742744358763 ] } },
{ "type": "Feature", "properties": { "fid": 17, "id": 17, "cluster_id": "168", "column": null, "row": "B" }, "geometry": { "type": "Point", "coordinates": [ 120.976178161889422, 14.305743118303988 ] } },
{ "type": "Feature", "properties": { "fid": 18, "id": 18, "cluster_id": "168", "column": null, "row": "B" }, "geometry": { "type": "Point", "coordinates": [ 120.976186014739156, 14.305743118303988 ] } },
{ "type": "Feature", "properties": { "fid": 19, "id": 19, "cluster_id": "168", "column": null, "row": "B" }, "geometry": { "type": "Point", "coordinates": [ 120.976197233095917, 14.30574386619444 ] } },
{ "type": "Feature", "properties": { "fid": 20, "id": 20, "cluster_id": "168", "column": null, "row": "B" }, "geometry": { "type": "Point", "coordinates": [ 120.976207329617012, 14.305744240139665 ] } },
{ "type": "Feature", "properties": { "fid": 21, "id": 21, "cluster_id": "168", "column": null, "row": "B" }, "geometry": { "type": "Point", "coordinates": [ 120.976216304302426, 14.305744988030115 ] } },
{ "type": "Feature", "properties": { "fid": 22, "id": 22, "cluster_id": "168", "column": null, "row": "B" }, "geometry": { "type": "Point", "coordinates": [ 120.976225278987826, 14.305746483811017 ] } },
{ "type": "Feature", "properties": { "fid": 23, "id": 23, "cluster_id": "168", "column": null, "row": "B" }, "geometry": { "type": "Point", "coordinates": [ 120.976233879728014, 14.305747605646694 ] } },
{ "type": "Feature", "properties": { "fid": 24, "id": 24, "cluster_id": "168", "column": null, "row": "B" }, "geometry": { "type": "Point", "coordinates": [ 120.976242106522974, 14.305748353537146 ] } },
{ "type": "Feature", "properties": { "fid": 25, "id": 25, "cluster_id": "168", "column": null, "row": "B" }, "geometry": { "type": "Point", "coordinates": [ 120.976250707263162, 14.305749101427596 ] } },
{ "type": "Feature", "properties": { "fid": 26, "id": 26, "cluster_id": "168", "column": null, "row": "B" }, "geometry": { "type": "Point", "coordinates": [ 120.976258934058123, 14.305750223263273 ] } },
{ "type": "Feature", "properties": { "fid": 27, "id": 27, "cluster_id": "168", "column": null, "row": "B" }, "geometry": { "type": "Point", "coordinates": [ 120.976266786907857, 14.305750597208498 ] } },
{ "type": "Feature", "properties": { "fid": 28, "id": 28, "cluster_id": "168", "column": null, "row": "B" }, "geometry": { "type": "Point", "coordinates": [ 120.976274639757591, 14.305750597208498 ] } },
{ "type": "Feature", "properties": { "fid": 29, "id": 29, "cluster_id": "168", "column": null, "row": "B" }, "geometry": { "type": "Point", "coordinates": [ 120.976282492607325, 14.305751719044174 ] } },
{ "type": "Feature", "properties": { "fid": 30, "id": 30, "cluster_id": "168", "column": null, "row": "B" }, "geometry": { "type": "Point", "coordinates": [ 120.976289597566605, 14.305752840879851 ] } },
{ "type": "Feature", "properties": { "fid": 31, "id": 31, "cluster_id": "168", "column": null, "row": "B" }, "geometry": { "type": "Point", "coordinates": [ 120.976296328580673, 14.305753588770301 ] } },
{ "type": "Feature", "properties": { "fid": 32, "id": 32, "cluster_id": "168", "column": null, "row": "B" }, "geometry": { "type": "Point", "coordinates": [ 120.976303059594727, 14.305754336660753 ] } },
{ "type": "Feature", "properties": { "fid": 33, "id": 33, "cluster_id": "168", "column": null, "row": "B" }, "geometry": { "type": "Point", "coordinates": [ 120.976310538499234, 14.305755832441655 ] } },
{ "type": "Feature", "properties": { "fid": 34, "id": 34, "cluster_id": "168", "column": null, "row": "B" }, "geometry": { "type": "Point", "coordinates": [ 120.976316895568075, 14.305755832441655 ] } }
]
}
