{
"type": "FeatureCollection",
"name": "cltr-id-205-b-row",
"crs": { "type": "name", "properties": { "name": "urn:ogc:def:crs:OGC:1.3:CRS84" } },
"features": [
{ "type": "Feature", "properties": { "fid": 1, "id": 1, "cluster_id": null, "column": null, "row": null }, "geometry": { "type": "Point", "coordinates": [ 120.976594864997068, 14.305739963975839 ] } },
{ "type": "Feature", "properties": { "fid": 2, "id": 2, "cluster_id": null, "column": null, "row": null }, "geometry": { "type": "Point", "coordinates": [ 120.976607305353411, 14.305741316188485 ] } },
{ "type": "Feature", "properties": { "fid": 3, "id": 3, "cluster_id": null, "column": null, "row": null }, "geometry": { "type": "Point", "coordinates": [ 120.976616229956875, 14.305742127516073 ] } },
{ "type": "Feature", "properties": { "fid": 4, "id": 4, "cluster_id": null, "column": null, "row": null }, "geometry": { "type": "Point", "coordinates": [ 120.976626236330446, 14.305742397958602 ] } },
{ "type": "Feature", "properties": { "fid": 5, "id": 5, "cluster_id": null, "column": null, "row": null }, "geometry": { "type": "Point", "coordinates": [ 120.976635701818964, 14.305743209286188 ] } },
{ "type": "Feature", "properties": { "fid": 6, "id": 6, "cluster_id": null, "column": null, "row": null }, "geometry": { "type": "Point", "coordinates": [ 120.976645437750008, 14.305744561498834 ] } },
{ "type": "Feature", "properties": { "fid": 7, "id": 7, "cluster_id": null, "column": null, "row": null }, "geometry": { "type": "Point", "coordinates": [ 120.976654903238526, 14.305746184154009 ] } },
{ "type": "Feature", "properties": { "fid": 8, "id": 8, "cluster_id": null, "column": null, "row": null }, "geometry": { "type": "Point", "coordinates": [ 120.976663016514408, 14.305746454596537 ] } },
{ "type": "Feature", "properties": { "fid": 9, "id": 9, "cluster_id": null, "column": null, "row": null }, "geometry": { "type": "Point", "coordinates": [ 120.976673022887979, 14.305747806809183 ] } },
{ "type": "Feature", "properties": { "fid": 10, "id": 10, "cluster_id": null, "column": null, "row": null }, "geometry": { "type": "Point", "coordinates": [ 120.97668086572132, 14.3057488885793 ] } }
]
}
