{
"type": "FeatureCollection",
"name": "cltr-id-210-a-row",
"crs": { "type": "name", "properties": { "name": "urn:ogc:def:crs:OGC:1.3:CRS84" } },
"features": [
{ "type": "Feature", "properties": { "fid": 1, "id": 1, "cluster_id": "210", "column": null, "row": "A" }, "geometry": { "type": "Point", "coordinates": [ 120.97674428449433, 14.305528613139337 ] } },
{ "type": "Feature", "properties": { "fid": 2, "id": 2, "cluster_id": "210", "column": null, "row": "A" }, "geometry": { "type": "Point", "coordinates": [ 120.976751856885144, 14.305529694909453 ] } },
{ "type": "Feature", "properties": { "fid": 3, "id": 3, "cluster_id": "210", "column": null, "row": "A" }, "geometry": { "type": "Point", "coordinates": [ 120.976762404143784, 14.30553077667957 ] } },
{ "type": "Feature", "properties": { "fid": 4, "id": 4, "cluster_id": "210", "column": null, "row": "A" }, "geometry": { "type": "Point", "coordinates": [ 120.97677159918976, 14.30553077667957 ] } },
{ "type": "Feature", "properties": { "fid": 5, "id": 5, "cluster_id": "210", "column": null, "row": "A" }, "geometry": { "type": "Point", "coordinates": [ 120.976780523793224, 14.305531858449687 ] } },
{ "type": "Feature", "properties": { "fid": 6, "id": 6, "cluster_id": "210", "column": null, "row": "A" }, "geometry": { "type": "Point", "coordinates": [ 120.976788907511633, 14.305532669777273 ] } },
{ "type": "Feature", "properties": { "fid": 7, "id": 7, "cluster_id": "210", "column": null, "row": "A" }, "geometry": { "type": "Point", "coordinates": [ 120.976797291230028, 14.305533210662333 ] } },
{ "type": "Feature", "properties": { "fid": 8, "id": 8, "cluster_id": "210", "column": null, "row": "A" }, "geometry": { "type": "Point", "coordinates": [ 120.97680540450591, 14.30553375154739 ] } },
{ "type": "Feature", "properties": { "fid": 9, "id": 9, "cluster_id": "210", "column": null, "row": "A" }, "geometry": { "type": "Point", "coordinates": [ 120.976811624684075, 14.305535103760036 ] } },
{ "type": "Feature", "properties": { "fid": 10, "id": 10, "cluster_id": "210", "column": null, "row": "A" }, "geometry": { "type": "Point", "coordinates": [ 120.976820278845011, 14.305535915087622 ] } },
{ "type": "Feature", "properties": { "fid": 11, "id": 11, "cluster_id": "210", "column": null, "row": "A" }, "geometry": { "type": "Point", "coordinates": [ 120.976828662563406, 14.305536185530151 ] } },
{ "type": "Feature", "properties": { "fid": 12, "id": 12, "cluster_id": "210", "column": null, "row": "A" }, "geometry": { "type": "Point", "coordinates": [ 120.976835694069166, 14.305537537742797 ] } },
{ "type": "Feature", "properties": { "fid": 13, "id": 13, "cluster_id": "210", "column": null, "row": "A" }, "geometry": { "type": "Point", "coordinates": [ 120.976843536902507, 14.305537267300268 ] } },
{ "type": "Feature", "properties": { "fid": 14, "id": 14, "cluster_id": "210", "column": null, "row": "A" }, "geometry": { "type": "Point", "coordinates": [ 120.976849757080686, 14.305538078627857 ] } },
{ "type": "Feature", "properties": { "fid": 15, "id": 15, "cluster_id": "210", "column": null, "row": "A" }, "geometry": { "type": "Point", "coordinates": [ 120.976856788586431, 14.305538349070385 ] } },
{ "type": "Feature", "properties": { "fid": 16, "id": 16, "cluster_id": "210", "column": null, "row": "A" }, "geometry": { "type": "Point", "coordinates": [ 120.976863820092191, 14.30553997172556 ] } },
{ "type": "Feature", "properties": { "fid": 17, "id": 17, "cluster_id": "210", "column": null, "row": "A" }, "geometry": { "type": "Point", "coordinates": [ 120.976873285580709, 14.305540783053148 ] } },
{ "type": "Feature", "properties": { "fid": 18, "id": 18, "cluster_id": "210", "column": null, "row": "A" }, "geometry": { "type": "Point", "coordinates": [ 120.976883291954294, 14.305541594380735 ] } },
{ "type": "Feature", "properties": { "fid": 19, "id": 19, "cluster_id": "210", "column": null, "row": "A" }, "geometry": { "type": "Point", "coordinates": [ 120.976892487000285, 14.305542135265794 ] } },
{ "type": "Feature", "properties": { "fid": 20, "id": 20, "cluster_id": "210", "column": null, "row": "A" }, "geometry": { "type": "Point", "coordinates": [ 120.976902763816383, 14.305544028363496 ] } },
{ "type": "Feature", "properties": { "fid": 21, "id": 21, "cluster_id": "210", "column": null, "row": "A" }, "geometry": { "type": "Point", "coordinates": [ 120.976911958862374, 14.305543217035909 ] } },
{ "type": "Feature", "properties": { "fid": 22, "id": 22, "cluster_id": "210", "column": null, "row": "A" }, "geometry": { "type": "Point", "coordinates": [ 120.976921694793418, 14.305545110133615 ] } },
{ "type": "Feature", "properties": { "fid": 23, "id": 23, "cluster_id": "210", "column": null, "row": "A" }, "geometry": { "type": "Point", "coordinates": [ 120.976932242052058, 14.305545651018669 ] } },
{ "type": "Feature", "properties": { "fid": 24, "id": 24, "cluster_id": "210", "column": null, "row": "A" }, "geometry": { "type": "Point", "coordinates": [ 120.976944141523333, 14.305547003231318 ] } },
{ "type": "Feature", "properties": { "fid": 25, "id": 25, "cluster_id": "210", "column": null, "row": "A" }, "geometry": { "type": "Point", "coordinates": [ 120.976954147896933, 14.305547273673843 ] } },
{ "type": "Feature", "properties": { "fid": 26, "id": 26, "cluster_id": "210", "column": null, "row": "A" }, "geometry": { "type": "Point", "coordinates": [ 120.976963342942909, 14.305548085001435 ] } },
{ "type": "Feature", "properties": { "fid": 27, "id": 27, "cluster_id": "210", "column": null, "row": "A" }, "geometry": { "type": "Point", "coordinates": [ 120.976972808431441, 14.305548625886491 ] } },
{ "type": "Feature", "properties": { "fid": 28, "id": 28, "cluster_id": "210", "column": null, "row": "A" }, "geometry": { "type": "Point", "coordinates": [ 120.976983085247539, 14.305549978099137 ] } },
{ "type": "Feature", "properties": { "fid": 29, "id": 29, "cluster_id": "210", "column": null, "row": "A" }, "geometry": { "type": "Point", "coordinates": [ 120.976993362063638, 14.305551059869254 ] } },
{ "type": "Feature", "properties": { "fid": 30, "id": 30, "cluster_id": "210", "column": null, "row": "A" }, "geometry": { "type": "Point", "coordinates": [ 120.977005261534913, 14.30555187119684 ] } },
{ "type": "Feature", "properties": { "fid": 31, "id": 31, "cluster_id": "210", "column": null, "row": "A" }, "geometry": { "type": "Point", "coordinates": [ 120.977014456580903, 14.305552682524429 ] } },
{ "type": "Feature", "properties": { "fid": 32, "id": 32, "cluster_id": "210", "column": null, "row": "A" }, "geometry": { "type": "Point", "coordinates": [ 120.977024462954475, 14.305553223409484 ] } },
{ "type": "Feature", "properties": { "fid": 33, "id": 33, "cluster_id": "210", "column": null, "row": "A" }, "geometry": { "type": "Point", "coordinates": [ 120.977034739770588, 14.305554034737073 ] } },
{ "type": "Feature", "properties": { "fid": 34, "id": 34, "cluster_id": "210", "column": null, "row": "A" }, "geometry": { "type": "Point", "coordinates": [ 120.977044746144159, 14.305554305179601 ] } },
{ "type": "Feature", "properties": { "fid": 35, "id": 35, "cluster_id": "210", "column": null, "row": "A" }, "geometry": { "type": "Point", "coordinates": [ 120.97705610473038, 14.305554846064659 ] } }
]
}
