{
"type": "FeatureCollection",
"name": "cltr-id-154-c-row",
"crs": { "type": "name", "properties": { "name": "urn:ogc:def:crs:OGC:1.3:CRS84" } },
"features": [
{ "type": "Feature", "properties": { "fid": 1, "id": 1, "cluster_id": "154", "column": null, "row": "C" }, "geometry": { "type": "Point", "coordinates": [ 120.976013893093864, 14.305927152775672 ] } },
{ "type": "Feature", "properties": { "fid": 2, "id": 2, "cluster_id": "154", "column": null, "row": "C" }, "geometry": { "type": "Point", "coordinates": [ 120.976022867779278, 14.305928434873588 ] } },
{ "type": "Feature", "properties": { "fid": 3, "id": 3, "cluster_id": "154", "column": null, "row": "C" }, "geometry": { "type": "Point", "coordinates": [ 120.97603056036678, 14.305930999069419 ] } },
{ "type": "Feature", "properties": { "fid": 4, "id": 4, "cluster_id": "154", "column": null, "row": "C" }, "geometry": { "type": "Point", "coordinates": [ 120.976038894003224, 14.305930999069419 ] } },
{ "type": "Feature", "properties": { "fid": 5, "id": 5, "cluster_id": "154", "column": null, "row": "C" }, "geometry": { "type": "Point", "coordinates": [ 120.976049150786551, 14.305932281167335 ] } },
{ "type": "Feature", "properties": { "fid": 6, "id": 6, "cluster_id": "154", "column": null, "row": "C" }, "geometry": { "type": "Point", "coordinates": [ 120.976058125471965, 14.305932922216293 ] } },
{ "type": "Feature", "properties": { "fid": 7, "id": 7, "cluster_id": "154", "column": null, "row": "C" }, "geometry": { "type": "Point", "coordinates": [ 120.97607671589175, 14.305935486412125 ] } },
{ "type": "Feature", "properties": { "fid": 8, "id": 8, "cluster_id": "154", "column": null, "row": "C" }, "geometry": { "type": "Point", "coordinates": [ 120.976086331626121, 14.305935486412125 ] } },
{ "type": "Feature", "properties": { "fid": 9, "id": 9, "cluster_id": "154", "column": null, "row": "C" }, "geometry": { "type": "Point", "coordinates": [ 120.976094024213609, 14.305934845363167 ] } },
{ "type": "Feature", "properties": { "fid": 10, "id": 10, "cluster_id": "154", "column": null, "row": "C" }, "geometry": { "type": "Point", "coordinates": [ 120.976100434703184, 14.305935486412125 ] } },
{ "type": "Feature", "properties": { "fid": 11, "id": 11, "cluster_id": "154", "column": null, "row": "C" }, "geometry": { "type": "Point", "coordinates": [ 120.976109409388599, 14.30593676851004 ] } },
{ "type": "Feature", "properties": { "fid": 12, "id": 12, "cluster_id": "154", "column": null, "row": "C" }, "geometry": { "type": "Point", "coordinates": [ 120.976120307220882, 14.305936127461083 ] } },
{ "type": "Feature", "properties": { "fid": 13, "id": 13, "cluster_id": "154", "column": null, "row": "C" }, "geometry": { "type": "Point", "coordinates": [ 120.976130564004208, 14.30594061480379 ] } },
{ "type": "Feature", "properties": { "fid": 14, "id": 14, "cluster_id": "154", "column": null, "row": "C" }, "geometry": { "type": "Point", "coordinates": [ 120.976138897640666, 14.305939973754832 ] } },
{ "type": "Feature", "properties": { "fid": 15, "id": 15, "cluster_id": "154", "column": null, "row": "C" }, "geometry": { "type": "Point", "coordinates": [ 120.976150436521905, 14.305939332705874 ] } },
{ "type": "Feature", "properties": { "fid": 16, "id": 16, "cluster_id": "154", "column": null, "row": "C" }, "geometry": { "type": "Point", "coordinates": [ 120.976160052256276, 14.305939332705874 ] } },
{ "type": "Feature", "properties": { "fid": 17, "id": 17, "cluster_id": "154", "column": null, "row": "C" }, "geometry": { "type": "Point", "coordinates": [ 120.976164539598983, 14.305941896901706 ] } },
{ "type": "Feature", "properties": { "fid": 18, "id": 18, "cluster_id": "154", "column": null, "row": "C" }, "geometry": { "type": "Point", "coordinates": [ 120.976176719529192, 14.30594061480379 ] } },
{ "type": "Feature", "properties": { "fid": 19, "id": 19, "cluster_id": "154", "column": null, "row": "C" }, "geometry": { "type": "Point", "coordinates": [ 120.976185053165636, 14.305942537950664 ] } },
{ "type": "Feature", "properties": { "fid": 20, "id": 20, "cluster_id": "154", "column": null, "row": "C" }, "geometry": { "type": "Point", "coordinates": [ 120.976192104704182, 14.305942537950664 ] } },
{ "type": "Feature", "properties": { "fid": 21, "id": 21, "cluster_id": "154", "column": null, "row": "C" }, "geometry": { "type": "Point", "coordinates": [ 120.976198515193758, 14.305941255852748 ] } },
{ "type": "Feature", "properties": { "fid": 22, "id": 22, "cluster_id": "154", "column": null, "row": "C" }, "geometry": { "type": "Point", "coordinates": [ 120.976202361487509, 14.305941255852748 ] } },
{ "type": "Feature", "properties": { "fid": 23, "id": 23, "cluster_id": "154", "column": null, "row": "C" }, "geometry": { "type": "Point", "coordinates": [ 120.976208771977085, 14.305941896901706 ] } },
{ "type": "Feature", "properties": { "fid": 24, "id": 24, "cluster_id": "154", "column": null, "row": "C" }, "geometry": { "type": "Point", "coordinates": [ 120.976219028760411, 14.305942537950664 ] } },
{ "type": "Feature", "properties": { "fid": 25, "id": 25, "cluster_id": "154", "column": null, "row": "C" }, "geometry": { "type": "Point", "coordinates": [ 120.976229285543738, 14.305942537950664 ] } },
{ "type": "Feature", "properties": { "fid": 26, "id": 26, "cluster_id": "154", "column": null, "row": "C" }, "geometry": { "type": "Point", "coordinates": [ 120.97623633708227, 14.305946384244411 ] } },
{ "type": "Feature", "properties": { "fid": 27, "id": 27, "cluster_id": "154", "column": null, "row": "C" }, "geometry": { "type": "Point", "coordinates": [ 120.976243388620816, 14.305946384244411 ] } },
{ "type": "Feature", "properties": { "fid": 28, "id": 28, "cluster_id": "154", "column": null, "row": "C" }, "geometry": { "type": "Point", "coordinates": [ 120.97625236330623, 14.305945743195453 ] } },
{ "type": "Feature", "properties": { "fid": 29, "id": 29, "cluster_id": "154", "column": null, "row": "C" }, "geometry": { "type": "Point", "coordinates": [ 120.976266466383294, 14.305947666342327 ] } },
{ "type": "Feature", "properties": { "fid": 30, "id": 30, "cluster_id": "154", "column": null, "row": "C" }, "geometry": { "type": "Point", "coordinates": [ 120.976276082117664, 14.305948948440243 ] } },
{ "type": "Feature", "properties": { "fid": 31, "id": 31, "cluster_id": "154", "column": null, "row": "C" }, "geometry": { "type": "Point", "coordinates": [ 120.976285056803079, 14.305951512636074 ] } },
{ "type": "Feature", "properties": { "fid": 32, "id": 32, "cluster_id": "154", "column": null, "row": "C" }, "geometry": { "type": "Point", "coordinates": [ 120.976295954635361, 14.305954076831906 ] } },
{ "type": "Feature", "properties": { "fid": 33, "id": 33, "cluster_id": "154", "column": null, "row": "C" }, "geometry": { "type": "Point", "coordinates": [ 120.976306211418688, 14.305954076831906 ] } },
{ "type": "Feature", "properties": { "fid": 34, "id": 34, "cluster_id": "154", "column": null, "row": "C" }, "geometry": { "type": "Point", "coordinates": [ 120.976314545055146, 14.305954076831906 ] } },
{ "type": "Feature", "properties": { "fid": 35, "id": 35, "cluster_id": "154", "column": null, "row": "C" }, "geometry": { "type": "Point", "coordinates": [ 120.976322878691605, 14.305948948440243 ] } },
{ "type": "Feature", "properties": { "fid": 36, "id": 36, "cluster_id": "154", "column": null, "row": "C" }, "geometry": { "type": "Point", "coordinates": [ 120.976323519740561, 14.305943178999621 ] } }
]
}
