{
"type": "FeatureCollection",
"name": "cltr-id-189-d-row",
"crs": { "type": "name", "properties": { "name": "urn:ogc:def:crs:OGC:1.3:CRS84" } },
"features": [
{ "type": "Feature", "properties": { "fid": 1, "id": 1, "cluster_id": "189", "column": null, "row": "D" }, "geometry": { "type": "Point", "coordinates": [ 120.976579990657939, 14.305816363990308 ] } },
{ "type": "Feature", "properties": { "fid": 2, "id": 2, "cluster_id": "189", "column": null, "row": "D" }, "geometry": { "type": "Point", "coordinates": [ 120.976580666764264, 14.305810819918463 ] } },
{ "type": "Feature", "properties": { "fid": 3, "id": 3, "cluster_id": "189", "column": null, "row": "D" }, "geometry": { "type": "Point", "coordinates": [ 120.976586886942428, 14.305804734961557 ] } },
{ "type": "Feature", "properties": { "fid": 4, "id": 4, "cluster_id": "189", "column": null, "row": "D" }, "geometry": { "type": "Point", "coordinates": [ 120.97659500021831, 14.305805816731674 ] } },
{ "type": "Feature", "properties": { "fid": 5, "id": 5, "cluster_id": "189", "column": null, "row": "D" }, "geometry": { "type": "Point", "coordinates": [ 120.97660203172407, 14.305806087174203 ] } },
{ "type": "Feature", "properties": { "fid": 6, "id": 6, "cluster_id": "189", "column": null, "row": "D" }, "geometry": { "type": "Point", "coordinates": [ 120.976608116680964, 14.305807304165583 ] } },
{ "type": "Feature", "properties": { "fid": 7, "id": 7, "cluster_id": "189", "column": null, "row": "D" }, "geometry": { "type": "Point", "coordinates": [ 120.976616365178103, 14.305807574608114 ] } },
{ "type": "Feature", "properties": { "fid": 8, "id": 8, "cluster_id": "189", "column": null, "row": "D" }, "geometry": { "type": "Point", "coordinates": [ 120.976622720577538, 14.305807304165583 ] } },
{ "type": "Feature", "properties": { "fid": 9, "id": 9, "cluster_id": "189", "column": null, "row": "D" }, "geometry": { "type": "Point", "coordinates": [ 120.976631915623528, 14.305809062042023 ] } },
{ "type": "Feature", "properties": { "fid": 10, "id": 10, "cluster_id": "189", "column": null, "row": "D" }, "geometry": { "type": "Point", "coordinates": [ 120.97663989367814, 14.305809197263288 ] } },
{ "type": "Feature", "properties": { "fid": 11, "id": 11, "cluster_id": "189", "column": null, "row": "D" }, "geometry": { "type": "Point", "coordinates": [ 120.976649629609184, 14.305810684697198 ] } },
{ "type": "Feature", "properties": { "fid": 12, "id": 12, "cluster_id": "189", "column": null, "row": "D" }, "geometry": { "type": "Point", "coordinates": [ 120.976660717752878, 14.305810684697198 ] } },
{ "type": "Feature", "properties": { "fid": 13, "id": 13, "cluster_id": "189", "column": null, "row": "D" }, "geometry": { "type": "Point", "coordinates": [ 120.976671129790248, 14.305811901688578 ] } },
{ "type": "Feature", "properties": { "fid": 14, "id": 14, "cluster_id": "189", "column": null, "row": "D" }, "geometry": { "type": "Point", "coordinates": [ 120.976680460057509, 14.305812442573638 ] } }
]
}
