{
    "type": "FeatureCollection",
    "name": "cltr-id-159-c-row",
    "crs": {
        "type": "name",
        "properties": { "name": "urn:ogc:def:crs:OGC:1.3:CRS84" }
    },
    "features": [
        {
            "type": "Feature",
            "properties": {
                "fid": 1,
                "id": 1,
                "cluster_id": "159",
                "column": null,
                "row": "C"
            },
            "geometry": {
                "type": "Point",
                "coordinates": [120.976376323217849, 14.305669271934821]
            }
        },
        {
            "type": "Feature",
            "properties": {
                "fid": 2,
                "id": 2,
                "cluster_id": "159",
                "column": null,
                "row": "C"
            },
            "geometry": {
                "type": "Point",
                "coordinates": [120.976377171166206, 14.305662064373786]
            }
        },
        {
            "type": "Feature",
            "properties": {
                "fid": 3,
                "id": 3,
                "cluster_id": "159",
                "column": null,
                "row": "C"
            },
            "geometry": {
                "type": "Point",
                "coordinates": [120.976380986933805, 14.305656764696554]
            }
        },
        {
            "type": "Feature",
            "properties": {
                "fid": 4,
                "id": 4,
                "cluster_id": "159",
                "column": null,
                "row": "C"
            },
            "geometry": {
                "type": "Point",
                "coordinates": [120.97639031436573, 14.305657612644911]
            }
        },
        {
            "type": "Feature",
            "properties": {
                "fid": 5,
                "id": 5,
                "cluster_id": "159",
                "column": null,
                "row": "C"
            },
            "geometry": {
                "type": "Point",
                "coordinates": [120.976400489746027, 14.305657930625545]
            }
        },
        {
            "type": "Feature",
            "properties": {
                "fid": 6,
                "id": 6,
                "cluster_id": "159",
                "column": null,
                "row": "C"
            },
            "geometry": {
                "type": "Point",
                "coordinates": [120.976412043042387, 14.305658672580357]
            }
        },
        {
            "type": "Feature",
            "properties": {
                "fid": 7,
                "id": 7,
                "cluster_id": "159",
                "column": null,
                "row": "C"
            },
            "geometry": {
                "type": "Point",
                "coordinates": [120.97642232441622, 14.30565962652226]
            }
        },
        {
            "type": "Feature",
            "properties": {
                "fid": 8,
                "id": 8,
                "cluster_id": "159",
                "column": null,
                "row": "C"
            },
            "geometry": {
                "type": "Point",
                "coordinates": [120.976430697906238, 14.305660262483528]
            }
        },
        {
            "type": "Feature",
            "properties": {
                "fid": 9,
                "id": 9,
                "cluster_id": "159",
                "column": null,
                "row": "C"
            },
            "geometry": {
                "type": "Point",
                "coordinates": [120.976439071396271, 14.30566100443834]
            }
        },
        {
            "type": "Feature",
            "properties": {
                "fid": 10,
                "id": 10,
                "cluster_id": "159",
                "column": null,
                "row": "C"
            },
            "geometry": {
                "type": "Point",
                "coordinates": [120.976448080847561, 14.305661110431885]
            }
        },
        {
            "type": "Feature",
            "properties": {
                "fid": 11,
                "id": 11,
                "cluster_id": "159",
                "column": null,
                "row": "C"
            },
            "geometry": {
                "type": "Point",
                "coordinates": [120.976455712382773, 14.305662276360875]
            }
        },
        {
            "type": "Feature",
            "properties": {
                "fid": 12,
                "id": 12,
                "cluster_id": "159",
                "column": null,
                "row": "C"
            },
            "geometry": {
                "type": "Point",
                "coordinates": [120.976463979879256, 14.305662276360875]
            }
        },
        {
            "type": "Feature",
            "properties": {
                "fid": 13,
                "id": 13,
                "cluster_id": "159",
                "column": null,
                "row": "C"
            },
            "geometry": {
                "type": "Point",
                "coordinates": [120.976473201317646, 14.305662594341509]
            }
        },
        {
            "type": "Feature",
            "properties": {
                "fid": 14,
                "id": 14,
                "cluster_id": "159",
                "column": null,
                "row": "C"
            },
            "geometry": {
                "type": "Point",
                "coordinates": [120.976480302885136, 14.305663230302777]
            }
        },
        {
            "type": "Feature",
            "properties": {
                "fid": 15,
                "id": 15,
                "cluster_id": "159",
                "column": null,
                "row": "C"
            },
            "geometry": {
                "type": "Point",
                "coordinates": [120.976489842304147, 14.3056637602705]
            }
        }
    ]
}
