{
"type": "FeatureCollection",
"name": "cltr-id-207-a-row",
"crs": { "type": "name", "properties": { "name": "urn:ogc:def:crs:OGC:1.3:CRS84" } },
"features": [
{ "type": "Feature", "properties": { "fid": 1, "id": 1, "cluster_id": "207", "column": null, "row": "A" }, "geometry": { "type": "Point", "coordinates": [ 120.976583100747007, 14.305869100283481 ] } },
{ "type": "Feature", "properties": { "fid": 2, "id": 2, "cluster_id": "207", "column": null, "row": "A" }, "geometry": { "type": "Point", "coordinates": [ 120.976591214022875, 14.305869370726009 ] } },
{ "type": "Feature", "properties": { "fid": 3, "id": 3, "cluster_id": "207", "column": null, "row": "A" }, "geometry": { "type": "Point", "coordinates": [ 120.976600679511392, 14.305869911611069 ] } },
{ "type": "Feature", "properties": { "fid": 4, "id": 4, "cluster_id": "207", "column": null, "row": "A" }, "geometry": { "type": "Point", "coordinates": [ 120.976608792787275, 14.305870182053598 ] } },
{ "type": "Feature", "properties": { "fid": 5, "id": 5, "cluster_id": "207", "column": null, "row": "A" }, "geometry": { "type": "Point", "coordinates": [ 120.97661771739071, 14.305871534266243 ] } },
{ "type": "Feature", "properties": { "fid": 6, "id": 6, "cluster_id": "207", "column": null, "row": "A" }, "geometry": { "type": "Point", "coordinates": [ 120.976628535091891, 14.305872616036359 ] } },
{ "type": "Feature", "properties": { "fid": 7, "id": 7, "cluster_id": "207", "column": null, "row": "A" }, "geometry": { "type": "Point", "coordinates": [ 120.976639623235585, 14.305873697806476 ] } },
{ "type": "Feature", "properties": { "fid": 8, "id": 8, "cluster_id": "207", "column": null, "row": "A" }, "geometry": { "type": "Point", "coordinates": [ 120.976650440936751, 14.305874238691535 ] } },
{ "type": "Feature", "properties": { "fid": 9, "id": 9, "cluster_id": "207", "column": null, "row": "A" }, "geometry": { "type": "Point", "coordinates": [ 120.976661258637918, 14.305875050019122 ] } },
{ "type": "Feature", "properties": { "fid": 10, "id": 10, "cluster_id": "207", "column": null, "row": "A" }, "geometry": { "type": "Point", "coordinates": [ 120.976671535454017, 14.305875590904179 ] } }
]
}
