{
    "type": "FeatureCollection",
    "name": "cltr-id-216-a-row",
    "crs": {
        "type": "name",
        "properties": { "name": "urn:ogc:def:crs:OGC:1.3:CRS84" }
    },
    "features": [
        {
            "type": "Feature",
            "properties": {
                "fid": 1,
                "id": 1,
                "cluster_id": "216",
                "column": null,
                "row": "A"
            },
            "geometry": {
                "type": "Point",
                "coordinates": [120.976701689795988, 14.305925893214646]
            }
        },
        {
            "type": "Feature",
            "properties": {
                "fid": 2,
                "id": 2,
                "cluster_id": "216",
                "column": null,
                "row": "A"
            },
            "geometry": {
                "type": "Point",
                "coordinates": [120.976713454046006, 14.305927515869822]
            }
        },
        {
            "type": "Feature",
            "properties": {
                "fid": 3,
                "id": 3,
                "cluster_id": "216",
                "column": null,
                "row": "A"
            },
            "geometry": {
                "type": "Point",
                "coordinates": [120.976723595640848, 14.305927110206028]
            }
        },
        {
            "type": "Feature",
            "properties": {
                "fid": 4,
                "id": 4,
                "cluster_id": "216",
                "column": null,
                "row": "A"
            },
            "geometry": {
                "type": "Point",
                "coordinates": [120.976733331571893, 14.305928732861203]
            }
        },
        {
            "type": "Feature",
            "properties": {
                "fid": 5,
                "id": 5,
                "cluster_id": "216",
                "column": null,
                "row": "A"
            },
            "geometry": {
                "type": "Point",
                "coordinates": [120.976745095821911, 14.305929949852583]
            }
        },
        {
            "type": "Feature",
            "properties": {
                "fid": 6,
                "id": 6,
                "cluster_id": "216",
                "column": null,
                "row": "A"
            },
            "geometry": {
                "type": "Point",
                "coordinates": [120.976752397770198, 14.305931572507758]
            }
        },
        {
            "type": "Feature",
            "properties": {
                "fid": 7,
                "id": 7,
                "cluster_id": "216",
                "column": null,
                "row": "A"
            },
            "geometry": {
                "type": "Point",
                "coordinates": [120.976764567684015, 14.30593278949914]
            }
        },
        {
            "type": "Feature",
            "properties": {
                "fid": 8,
                "id": 8,
                "cluster_id": "216",
                "column": null,
                "row": "A"
            },
            "geometry": {
                "type": "Point",
                "coordinates": [120.976771463968504, 14.305933600826727]
            }
        },
        {
            "type": "Feature",
            "properties": {
                "fid": 9,
                "id": 9,
                "cluster_id": "216",
                "column": null,
                "row": "A"
            },
            "geometry": {
                "type": "Point",
                "coordinates": [120.976782011227144, 14.305935629145695]
            }
        },
        {
            "type": "Feature",
            "properties": {
                "fid": 10,
                "id": 10,
                "cluster_id": "216",
                "column": null,
                "row": "A"
            },
            "geometry": {
                "type": "Point",
                "coordinates": [120.976790124503026, 14.305935223481903]
            }
        },
        {
            "type": "Feature",
            "properties": {
                "fid": 11,
                "id": 11,
                "cluster_id": "216",
                "column": null,
                "row": "A"
            },
            "geometry": {
                "type": "Point",
                "coordinates": [120.976798237778894, 14.30593725180087]
            }
        },
        {
            "type": "Feature",
            "properties": {
                "fid": 12,
                "id": 12,
                "cluster_id": "216",
                "column": null,
                "row": "A"
            },
            "geometry": {
                "type": "Point",
                "coordinates": [120.976807973709953, 14.305937657464664]
            }
        },
        {
            "type": "Feature",
            "properties": {
                "fid": 13,
                "id": 13,
                "cluster_id": "216",
                "column": null,
                "row": "A"
            },
            "geometry": {
                "type": "Point",
                "coordinates": [120.976816898313402, 14.305938468792252]
            }
        },
        {
            "type": "Feature",
            "properties": {
                "fid": 14,
                "id": 14,
                "cluster_id": "216",
                "column": null,
                "row": "A"
            },
            "geometry": {
                "type": "Point",
                "coordinates": [120.976825417253082, 14.305939280119839]
            }
        },
        {
            "type": "Feature",
            "properties": {
                "fid": 15,
                "id": 15,
                "cluster_id": "216",
                "column": null,
                "row": "A"
            },
            "geometry": {
                "type": "Point",
                "coordinates": [120.976834341856545, 14.305939280119839]
            }
        },
        {
            "type": "Feature",
            "properties": {
                "fid": 16,
                "id": 16,
                "cluster_id": "216",
                "column": null,
                "row": "A"
            },
            "geometry": {
                "type": "Point",
                "coordinates": [120.976843672123792, 14.305940497111221]
            }
        },
        {
            "type": "Feature",
            "properties": {
                "fid": 17,
                "id": 17,
                "cluster_id": "216",
                "column": null,
                "row": "A"
            },
            "geometry": {
                "type": "Point",
                "coordinates": [120.976853813718634, 14.30594252543019]
            }
        },
        {
            "type": "Feature",
            "properties": {
                "fid": 18,
                "id": 18,
                "cluster_id": "216",
                "column": null,
                "row": "A"
            },
            "geometry": {
                "type": "Point",
                "coordinates": [120.976862738322097, 14.305942119766396]
            }
        },
        {
            "type": "Feature",
            "properties": {
                "fid": 19,
                "id": 19,
                "cluster_id": "216",
                "column": null,
                "row": "A"
            },
            "geometry": {
                "type": "Point",
                "coordinates": [120.976869228942803, 14.305942931093984]
            }
        },
        {
            "type": "Feature",
            "properties": {
                "fid": 20,
                "id": 20,
                "cluster_id": "216",
                "column": null,
                "row": "A"
            },
            "geometry": {
                "type": "Point",
                "coordinates": [120.976877342218671, 14.305943742421571]
            }
        },
        {
            "type": "Feature",
            "properties": {
                "fid": 21,
                "id": 21,
                "cluster_id": "216",
                "column": null,
                "row": "A"
            },
            "geometry": {
                "type": "Point",
                "coordinates": [120.976884644166958, 14.305943742421571]
            }
        },
        {
            "type": "Feature",
            "properties": {
                "fid": 22,
                "id": 22,
                "cluster_id": "216",
                "column": null,
                "row": "A"
            },
            "geometry": {
                "type": "Point",
                "coordinates": [120.976892351779043, 14.305944959412951]
            }
        },
        {
            "type": "Feature",
            "properties": {
                "fid": 23,
                "id": 23,
                "cluster_id": "216",
                "column": null,
                "row": "A"
            },
            "geometry": {
                "type": "Point",
                "coordinates": [120.976900465054911, 14.305945770740539]
            }
        },
        {
            "type": "Feature",
            "properties": {
                "fid": 24,
                "id": 24,
                "cluster_id": "216",
                "column": null,
                "row": "A"
            },
            "geometry": {
                "type": "Point",
                "coordinates": [120.976908983994591, 14.305946176404333]
            }
        },
        {
            "type": "Feature",
            "properties": {
                "fid": 25,
                "id": 25,
                "cluster_id": "216",
                "column": null,
                "row": "A"
            },
            "geometry": {
                "type": "Point",
                "coordinates": [120.976917097270459, 14.30594698773192]
            }
        },
        {
            "type": "Feature",
            "properties": {
                "fid": 26,
                "id": 26,
                "cluster_id": "216",
                "column": null,
                "row": "A"
            },
            "geometry": {
                "type": "Point",
                "coordinates": [120.976924399218746, 14.30594698773192]
            }
        },
        {
            "type": "Feature",
            "properties": {
                "fid": 27,
                "id": 27,
                "cluster_id": "216",
                "column": null,
                "row": "A"
            },
            "geometry": {
                "type": "Point",
                "coordinates": [120.976932512494628, 14.305947799059508]
            }
        },
        {
            "type": "Feature",
            "properties": {
                "fid": 28,
                "id": 28,
                "cluster_id": "216",
                "column": null,
                "row": "A"
            },
            "geometry": {
                "type": "Point",
                "coordinates": [120.976941842761875, 14.305949421714683]
            }
        },
        {
            "type": "Feature",
            "properties": {
                "fid": 29,
                "id": 29,
                "cluster_id": "216",
                "column": null,
                "row": "A"
            },
            "geometry": {
                "type": "Point",
                "coordinates": [120.976947927718783, 14.305949421714683]
            }
        },
        {
            "type": "Feature",
            "properties": {
                "fid": 30,
                "id": 30,
                "cluster_id": "216",
                "column": null,
                "row": "A"
            },
            "geometry": {
                "type": "Point",
                "coordinates": [120.97696090896018, 14.305950233042271]
            }
        },
        {
            "type": "Feature",
            "properties": {
                "fid": 31,
                "id": 31,
                "cluster_id": "216",
                "column": null,
                "row": "A"
            },
            "geometry": {
                "type": "Point",
                "coordinates": [120.976968616572279, 14.305951450033652]
            }
        },
        {
            "type": "Feature",
            "properties": {
                "fid": 32,
                "id": 32,
                "cluster_id": "216",
                "column": null,
                "row": "A"
            },
            "geometry": {
                "type": "Point",
                "coordinates": [120.97697713551193, 14.305951450033652]
            }
        },
        {
            "type": "Feature",
            "properties": {
                "fid": 33,
                "id": 33,
                "cluster_id": "216",
                "column": null,
                "row": "A"
            },
            "geometry": {
                "type": "Point",
                "coordinates": [120.976990116753328, 14.305952261361242]
            }
        },
        {
            "type": "Feature",
            "properties": {
                "fid": 34,
                "id": 34,
                "cluster_id": "216",
                "column": null,
                "row": "A"
            },
            "geometry": {
                "type": "Point",
                "coordinates": [120.976999852684386, 14.305953884016414]
            }
        },
        {
            "type": "Feature",
            "properties": {
                "fid": 35,
                "id": 35,
                "cluster_id": "216",
                "column": null,
                "row": "A"
            },
            "geometry": {
                "type": "Point",
                "coordinates": [120.977009588615445, 14.305954289680209]
            }
        }
    ]
}
