{
"type": "FeatureCollection",
"name": "cltr-id-160-d-row",
"crs": { "type": "name", "properties": { "name": "urn:ogc:def:crs:OGC:1.3:CRS84" } },
"features": [
{ "type": "Feature", "properties": { "fid": 1, "id": 1, "cluster_id": "160", "column": null, "rows": "D" }, "geometry": { "type": "Point", "coordinates": [ 120.976382364849854, 14.3058356817999 ] } },
{ "type": "Feature", "properties": { "fid": 2, "id": 2, "cluster_id": "160", "column": null, "rows": "D" }, "geometry": { "type": "Point", "coordinates": [ 120.976393812152679, 14.305836105774079 ] } },
{ "type": "Feature", "properties": { "fid": 3, "id": 3, "cluster_id": "160", "column": null, "rows": "D" }, "geometry": { "type": "Point", "coordinates": [ 120.976404729487783, 14.305836847728891 ] } },
{ "type": "Feature", "properties": { "fid": 4, "id": 4, "cluster_id": "160", "column": null, "rows": "D" }, "geometry": { "type": "Point", "coordinates": [ 120.976416918745414, 14.305838225644971 ] } },
{ "type": "Feature", "properties": { "fid": 5, "id": 5, "cluster_id": "160", "column": null, "rows": "D" }, "geometry": { "type": "Point", "coordinates": [ 120.976425928196704, 14.305838861606238 ] } },
{ "type": "Feature", "properties": { "fid": 6, "id": 6, "cluster_id": "160", "column": null, "rows": "D" }, "geometry": { "type": "Point", "coordinates": [ 120.976434089699637, 14.305838967599783 ] } },
{ "type": "Feature", "properties": { "fid": 7, "id": 7, "cluster_id": "160", "column": null, "rows": "D" }, "geometry": { "type": "Point", "coordinates": [ 120.976442569183206, 14.305839497567506 ] } },
{ "type": "Feature", "properties": { "fid": 8, "id": 8, "cluster_id": "160", "column": null, "rows": "D" }, "geometry": { "type": "Point", "coordinates": [ 120.976449140782975, 14.305840557502954 ] } },
{ "type": "Feature", "properties": { "fid": 9, "id": 9, "cluster_id": "160", "column": null, "rows": "D" }, "geometry": { "type": "Point", "coordinates": [ 120.976458680202001, 14.305841087470677 ] } },
{ "type": "Feature", "properties": { "fid": 10, "id": 10, "cluster_id": "160", "column": null, "rows": "D" }, "geometry": { "type": "Point", "coordinates": [ 120.976466523724298, 14.305841299457766 ] } },
{ "type": "Feature", "properties": { "fid": 11, "id": 11, "cluster_id": "160", "column": null, "rows": "D" }, "geometry": { "type": "Point", "coordinates": [ 120.976475851156223, 14.305842147406123 ] } },
{ "type": "Feature", "properties": { "fid": 12, "id": 12, "cluster_id": "160", "column": null, "rows": "D" }, "geometry": { "type": "Point", "coordinates": [ 120.976483694678535, 14.305843313335114 ] } },
{ "type": "Feature", "properties": { "fid": 13, "id": 13, "cluster_id": "160", "column": null, "rows": "D" }, "geometry": { "type": "Point", "coordinates": [ 120.976491326213747, 14.305844161283471 ] } },
{ "type": "Feature", "properties": { "fid": 14, "id": 14, "cluster_id": "160", "column": null, "rows": "D" }, "geometry": { "type": "Point", "coordinates": [ 120.976494612013624, 14.305838755612694 ] } },
{ "type": "Feature", "properties": { "fid": 15, "id": 15, "cluster_id": "160", "column": null, "rows": "D" }, "geometry": { "type": "Point", "coordinates": [ 120.97649492999426, 14.305831760038748 ] } }
]
}
