{
"type": "FeatureCollection",
"name": "cltr-id-146-d-row",
"crs": { "type": "name", "properties": { "name": "urn:ogc:def:crs:OGC:1.3:CRS84" } },
"features": [
{ "type": "Feature", "properties": { "fid": 1, "id": 1, "cluster_id": "146", "column": null, "row": "D" }, "geometry": { "type": "Point", "coordinates": [ 120.976062824361009, 14.30539624315483 ] } },
{ "type": "Feature", "properties": { "fid": 2, "id": 2, "cluster_id": "146", "column": null, "row": "D" }, "geometry": { "type": "Point", "coordinates": [ 120.976071238128583, 14.305397364990505 ] } },
{ "type": "Feature", "properties": { "fid": 3, "id": 3, "cluster_id": "146", "column": null, "row": "D" }, "geometry": { "type": "Point", "coordinates": [ 120.976079090978317, 14.305397364990505 ] } },
{ "type": "Feature", "properties": { "fid": 4, "id": 4, "cluster_id": "146", "column": null, "row": "D" }, "geometry": { "type": "Point", "coordinates": [ 120.976087504745891, 14.305397925908343 ] } },
{ "type": "Feature", "properties": { "fid": 5, "id": 5, "cluster_id": "146", "column": null, "row": "D" }, "geometry": { "type": "Point", "coordinates": [ 120.976094796677785, 14.305397925908343 ] } },
{ "type": "Feature", "properties": { "fid": 6, "id": 6, "cluster_id": "146", "column": null, "row": "D" }, "geometry": { "type": "Point", "coordinates": [ 120.976102088609693, 14.305397925908343 ] } },
{ "type": "Feature", "properties": { "fid": 7, "id": 7, "cluster_id": "146", "column": null, "row": "D" }, "geometry": { "type": "Point", "coordinates": [ 120.976109380541587, 14.305400169579697 ] } },
{ "type": "Feature", "properties": { "fid": 8, "id": 8, "cluster_id": "146", "column": null, "row": "D" }, "geometry": { "type": "Point", "coordinates": [ 120.976117233391321, 14.305400730497535 ] } },
{ "type": "Feature", "properties": { "fid": 9, "id": 9, "cluster_id": "146", "column": null, "row": "D" }, "geometry": { "type": "Point", "coordinates": [ 120.976126208076735, 14.305401291415373 ] } },
{ "type": "Feature", "properties": { "fid": 10, "id": 10, "cluster_id": "146", "column": null, "row": "D" }, "geometry": { "type": "Point", "coordinates": [ 120.976133500008629, 14.305401852333212 ] } },
{ "type": "Feature", "properties": { "fid": 11, "id": 11, "cluster_id": "146", "column": null, "row": "D" }, "geometry": { "type": "Point", "coordinates": [ 120.976142474694043, 14.305404656922402 ] } },
{ "type": "Feature", "properties": { "fid": 12, "id": 12, "cluster_id": "146", "column": null, "row": "D" }, "geometry": { "type": "Point", "coordinates": [ 120.976149766625937, 14.305403535086725 ] } },
{ "type": "Feature", "properties": { "fid": 13, "id": 13, "cluster_id": "146", "column": null, "row": "D" }, "geometry": { "type": "Point", "coordinates": [ 120.976157619475671, 14.305404096004564 ] } },
{ "type": "Feature", "properties": { "fid": 14, "id": 14, "cluster_id": "146", "column": null, "row": "D" }, "geometry": { "type": "Point", "coordinates": [ 120.976168276914592, 14.305404656922402 ] } },
{ "type": "Feature", "properties": { "fid": 15, "id": 15, "cluster_id": "146", "column": null, "row": "D" }, "geometry": { "type": "Point", "coordinates": [ 120.976176129764326, 14.305405778758079 ] } },
{ "type": "Feature", "properties": { "fid": 16, "id": 16, "cluster_id": "146", "column": null, "row": "D" }, "geometry": { "type": "Point", "coordinates": [ 120.976187348121101, 14.305405778758079 ] } },
{ "type": "Feature", "properties": { "fid": 17, "id": 17, "cluster_id": "146", "column": null, "row": "D" }, "geometry": { "type": "Point", "coordinates": [ 120.976193518217315, 14.305405778758079 ] } },
{ "type": "Feature", "properties": { "fid": 18, "id": 18, "cluster_id": "146", "column": null, "row": "D" }, "geometry": { "type": "Point", "coordinates": [ 120.976201931984889, 14.305407461511592 ] } },
{ "type": "Feature", "properties": { "fid": 19, "id": 19, "cluster_id": "146", "column": null, "row": "D" }, "geometry": { "type": "Point", "coordinates": [ 120.976210345752463, 14.305408022429431 ] } },
{ "type": "Feature", "properties": { "fid": 20, "id": 20, "cluster_id": "146", "column": null, "row": "D" }, "geometry": { "type": "Point", "coordinates": [ 120.976218198602197, 14.305408022429431 ] } },
{ "type": "Feature", "properties": { "fid": 21, "id": 21, "cluster_id": "146", "column": null, "row": "D" }, "geometry": { "type": "Point", "coordinates": [ 120.976226051451931, 14.305409144265107 ] } },
{ "type": "Feature", "properties": { "fid": 22, "id": 22, "cluster_id": "146", "column": null, "row": "D" }, "geometry": { "type": "Point", "coordinates": [ 120.976234465219505, 14.305410266100784 ] } },
{ "type": "Feature", "properties": { "fid": 23, "id": 23, "cluster_id": "146", "column": null, "row": "D" }, "geometry": { "type": "Point", "coordinates": [ 120.97624287898708, 14.305410266100784 ] } },
{ "type": "Feature", "properties": { "fid": 24, "id": 24, "cluster_id": "146", "column": null, "row": "D" }, "geometry": { "type": "Point", "coordinates": [ 120.976250731836814, 14.305411387936461 ] } },
{ "type": "Feature", "properties": { "fid": 25, "id": 25, "cluster_id": "146", "column": null, "row": "D" }, "geometry": { "type": "Point", "coordinates": [ 120.976258584686548, 14.305411387936461 ] } },
{ "type": "Feature", "properties": { "fid": 26, "id": 26, "cluster_id": "146", "column": null, "row": "D" }, "geometry": { "type": "Point", "coordinates": [ 120.976265876618442, 14.305411948854299 ] } },
{ "type": "Feature", "properties": { "fid": 27, "id": 27, "cluster_id": "146", "column": null, "row": "D" }, "geometry": { "type": "Point", "coordinates": [ 120.976275412221696, 14.305411387936461 ] } },
{ "type": "Feature", "properties": { "fid": 28, "id": 28, "cluster_id": "146", "column": null, "row": "D" }, "geometry": { "type": "Point", "coordinates": [ 120.976285508742777, 14.305413631607813 ] } },
{ "type": "Feature", "properties": { "fid": 29, "id": 29, "cluster_id": "146", "column": null, "row": "D" }, "geometry": { "type": "Point", "coordinates": [ 120.976293361592511, 14.305413631607813 ] } },
{ "type": "Feature", "properties": { "fid": 30, "id": 30, "cluster_id": "146", "column": null, "row": "D" }, "geometry": { "type": "Point", "coordinates": [ 120.976302336277925, 14.305414192525651 ] } },
{ "type": "Feature", "properties": { "fid": 31, "id": 31, "cluster_id": "146", "column": null, "row": "D" }, "geometry": { "type": "Point", "coordinates": [ 120.976311871881165, 14.305415314361328 ] } },
{ "type": "Feature", "properties": { "fid": 32, "id": 32, "cluster_id": "146", "column": null, "row": "D" }, "geometry": { "type": "Point", "coordinates": [ 120.97632196840226, 14.305416436197005 ] } },
{ "type": "Feature", "properties": { "fid": 33, "id": 33, "cluster_id": "146", "column": null, "row": "D" }, "geometry": { "type": "Point", "coordinates": [ 120.976332064923341, 14.305418679868358 ] } },
{ "type": "Feature", "properties": { "fid": 34, "id": 34, "cluster_id": "146", "column": null, "row": "D" }, "geometry": { "type": "Point", "coordinates": [ 120.976344405115782, 14.30541811895052 ] } },
{ "type": "Feature", "properties": { "fid": 35, "id": 35, "cluster_id": "146", "column": null, "row": "D" }, "geometry": { "type": "Point", "coordinates": [ 120.976360282150679, 14.305422203760969 ] } },
{ "type": "Feature", "properties": { "fid": 36, "id": 36, "cluster_id": "146", "column": null, "row": "D" }, "geometry": { "type": "Point", "coordinates": [ 120.97636084306852, 14.305413229075556 ] } }
]
}
