{
"type": "FeatureCollection",
"name": "cltr-id-152-d-row",
"crs": { "type": "name", "properties": { "name": "urn:ogc:def:crs:OGC:1.3:CRS84" } },
"features": [
{ "type": "Feature", "properties": { "fid": 1, "id": 1, "cluster_id": "152", "column": null, "row": "D" }, "geometry": { "type": "Point", "coordinates": [ 120.97602951866233, 14.305792292101142 ] } },
{ "type": "Feature", "properties": { "fid": 2, "id": 2, "cluster_id": "152", "column": null, "row": "D" }, "geometry": { "type": "Point", "coordinates": [ 120.976039054265584, 14.305792292101142 ] } },
{ "type": "Feature", "properties": { "fid": 3, "id": 3, "cluster_id": "152", "column": null, "row": "D" }, "geometry": { "type": "Point", "coordinates": [ 120.976045785279638, 14.305793413936819 ] } },
{ "type": "Feature", "properties": { "fid": 4, "id": 4, "cluster_id": "152", "column": null, "row": "D" }, "geometry": { "type": "Point", "coordinates": [ 120.976053638129386, 14.305793974854657 ] } },
{ "type": "Feature", "properties": { "fid": 5, "id": 5, "cluster_id": "152", "column": null, "row": "D" }, "geometry": { "type": "Point", "coordinates": [ 120.97606036914344, 14.305793413936819 ] } },
{ "type": "Feature", "properties": { "fid": 6, "id": 6, "cluster_id": "152", "column": null, "row": "D" }, "geometry": { "type": "Point", "coordinates": [ 120.97607046566452, 14.305793974854657 ] } },
{ "type": "Feature", "properties": { "fid": 7, "id": 7, "cluster_id": "152", "column": null, "row": "D" }, "geometry": { "type": "Point", "coordinates": [ 120.976077757596428, 14.305795657608172 ] } },
{ "type": "Feature", "properties": { "fid": 8, "id": 8, "cluster_id": "152", "column": null, "row": "D" }, "geometry": { "type": "Point", "coordinates": [ 120.976086171363988, 14.305797901279524 ] } },
{ "type": "Feature", "properties": { "fid": 9, "id": 9, "cluster_id": "152", "column": null, "row": "D" }, "geometry": { "type": "Point", "coordinates": [ 120.976092341460216, 14.305797901279524 ] } },
{ "type": "Feature", "properties": { "fid": 10, "id": 10, "cluster_id": "152", "column": null, "row": "D" }, "geometry": { "type": "Point", "coordinates": [ 120.97609963339211, 14.305799023115201 ] } },
{ "type": "Feature", "properties": { "fid": 11, "id": 11, "cluster_id": "152", "column": null, "row": "D" }, "geometry": { "type": "Point", "coordinates": [ 120.976106925324004, 14.305804632293583 ] } },
{ "type": "Feature", "properties": { "fid": 12, "id": 12, "cluster_id": "152", "column": null, "row": "D" }, "geometry": { "type": "Point", "coordinates": [ 120.976118143680779, 14.305800144950878 ] } },
{ "type": "Feature", "properties": { "fid": 13, "id": 13, "cluster_id": "152", "column": null, "row": "D" }, "geometry": { "type": "Point", "coordinates": [ 120.976127679284019, 14.305800705868716 ] } },
{ "type": "Feature", "properties": { "fid": 14, "id": 14, "cluster_id": "152", "column": null, "row": "D" }, "geometry": { "type": "Point", "coordinates": [ 120.976136653969434, 14.305802949540068 ] } },
{ "type": "Feature", "properties": { "fid": 15, "id": 15, "cluster_id": "152", "column": null, "row": "D" }, "geometry": { "type": "Point", "coordinates": [ 120.976144506819168, 14.30580575412926 ] } },
{ "type": "Feature", "properties": { "fid": 16, "id": 16, "cluster_id": "152", "column": null, "row": "D" }, "geometry": { "type": "Point", "coordinates": [ 120.976154042422422, 14.305803510457906 ] } },
{ "type": "Feature", "properties": { "fid": 17, "id": 17, "cluster_id": "152", "column": null, "row": "D" }, "geometry": { "type": "Point", "coordinates": [ 120.976161895272156, 14.305801827704391 ] } },
{ "type": "Feature", "properties": { "fid": 18, "id": 18, "cluster_id": "152", "column": null, "row": "D" }, "geometry": { "type": "Point", "coordinates": [ 120.97617030903973, 14.305807436882773 ] } },
{ "type": "Feature", "properties": { "fid": 19, "id": 19, "cluster_id": "152", "column": null, "row": "D" }, "geometry": { "type": "Point", "coordinates": [ 120.976179844642971, 14.305806315047096 ] } },
{ "type": "Feature", "properties": { "fid": 20, "id": 20, "cluster_id": "152", "column": null, "row": "D" }, "geometry": { "type": "Point", "coordinates": [ 120.976187697492705, 14.305806875964935 ] } },
{ "type": "Feature", "properties": { "fid": 21, "id": 21, "cluster_id": "152", "column": null, "row": "D" }, "geometry": { "type": "Point", "coordinates": [ 120.976194989424613, 14.30580855871845 ] } },
{ "type": "Feature", "properties": { "fid": 22, "id": 22, "cluster_id": "152", "column": null, "row": "D" }, "geometry": { "type": "Point", "coordinates": [ 120.976203403192187, 14.305809680554127 ] } },
{ "type": "Feature", "properties": { "fid": 23, "id": 23, "cluster_id": "152", "column": null, "row": "D" }, "geometry": { "type": "Point", "coordinates": [ 120.976211256041921, 14.305807436882773 ] } },
{ "type": "Feature", "properties": { "fid": 24, "id": 24, "cluster_id": "152", "column": null, "row": "D" }, "geometry": { "type": "Point", "coordinates": [ 120.976218547973815, 14.30580855871845 ] } },
{ "type": "Feature", "properties": { "fid": 25, "id": 25, "cluster_id": "152", "column": null, "row": "D" }, "geometry": { "type": "Point", "coordinates": [ 120.976226961741389, 14.305807997800612 ] } },
{ "type": "Feature", "properties": { "fid": 26, "id": 26, "cluster_id": "152", "column": null, "row": "D" }, "geometry": { "type": "Point", "coordinates": [ 120.976233692755443, 14.305809680554127 ] } },
{ "type": "Feature", "properties": { "fid": 27, "id": 27, "cluster_id": "152", "column": null, "row": "D" }, "geometry": { "type": "Point", "coordinates": [ 120.976242106523017, 14.305809680554127 ] } },
{ "type": "Feature", "properties": { "fid": 28, "id": 28, "cluster_id": "152", "column": null, "row": "D" }, "geometry": { "type": "Point", "coordinates": [ 120.976252763961938, 14.30581136330764 ] } },
{ "type": "Feature", "properties": { "fid": 29, "id": 29, "cluster_id": "152", "column": null, "row": "D" }, "geometry": { "type": "Point", "coordinates": [ 120.976261738647352, 14.305810802389804 ] } },
{ "type": "Feature", "properties": { "fid": 30, "id": 30, "cluster_id": "152", "column": null, "row": "D" }, "geometry": { "type": "Point", "coordinates": [ 120.976271835168447, 14.305814728814671 ] } },
{ "type": "Feature", "properties": { "fid": 31, "id": 31, "cluster_id": "152", "column": null, "row": "D" }, "geometry": { "type": "Point", "coordinates": [ 120.976280248936021, 14.305815850650347 ] } },
{ "type": "Feature", "properties": { "fid": 32, "id": 32, "cluster_id": "152", "column": null, "row": "D" }, "geometry": { "type": "Point", "coordinates": [ 120.976290345457102, 14.305817533403861 ] } },
{ "type": "Feature", "properties": { "fid": 33, "id": 33, "cluster_id": "152", "column": null, "row": "D" }, "geometry": { "type": "Point", "coordinates": [ 120.976299881060356, 14.305818655239538 ] } },
{ "type": "Feature", "properties": { "fid": 34, "id": 34, "cluster_id": "152", "column": null, "row": "D" }, "geometry": { "type": "Point", "coordinates": [ 120.976311660334957, 14.305817533403861 ] } },
{ "type": "Feature", "properties": { "fid": 35, "id": 35, "cluster_id": "152", "column": null, "row": "D" }, "geometry": { "type": "Point", "coordinates": [ 120.976331853377133, 14.305821459828728 ] } },
{ "type": "Feature", "properties": { "fid": 36, "id": 36, "cluster_id": "152", "column": null, "row": "D" }, "geometry": { "type": "Point", "coordinates": [ 120.976333536130639, 14.305813606978994 ] } }
]
}
