{
    "type": "FeatureCollection",
    "name": "cltr-id-178-b-row",
    "crs": {
        "type": "name",
        "properties": { "name": "urn:ogc:def:crs:OGC:1.3:CRS84" }
    },
    "features": [
        {
            "type": "Feature",
            "properties": {
                "id": 1,
                "cluster_id": "178",
                "column": null,
                "row": "B"
            },
            "geometry": {
                "type": "Point",
                "coordinates": [120.976372295463108, 14.305762016286376]
            }
        },
        {
            "type": "Feature",
            "properties": {
                "id": 2,
                "cluster_id": "178",
                "column": null,
                "row": "B"
            },
            "geometry": {
                "type": "Point",
                "coordinates": [120.976383212798197, 14.305762440260555]
            }
        },
        {
            "type": "Feature",
            "properties": {
                "id": 3,
                "cluster_id": "178",
                "column": null,
                "row": "B"
            },
            "geometry": {
                "type": "Point",
                "coordinates": [120.976394554107486, 14.305763076221822]
            }
        },
        {
            "type": "Feature",
            "properties": {
                "id": 4,
                "cluster_id": "178",
                "column": null,
                "row": "B"
            },
            "geometry": {
                "type": "Point",
                "coordinates": [120.976403669552312, 14.305763606189545]
            }
        },
        {
            "type": "Feature",
            "properties": {
                "id": 5,
                "cluster_id": "178",
                "column": null,
                "row": "B"
            },
            "geometry": {
                "type": "Point",
                "coordinates": [120.976412890990701, 14.305763924170179]
            }
        },
        {
            "type": "Feature",
            "properties": {
                "id": 6,
                "cluster_id": "178",
                "column": null,
                "row": "B"
            },
            "geometry": {
                "type": "Point",
                "coordinates": [120.976422218422627, 14.305764560131447]
            }
        },
        {
            "type": "Feature",
            "properties": {
                "id": 7,
                "cluster_id": "178",
                "column": null,
                "row": "B"
            },
            "geometry": {
                "type": "Point",
                "coordinates": [120.976432287809374, 14.305765196092716]
            }
        },
        {
            "type": "Feature",
            "properties": {
                "id": 8,
                "cluster_id": "178",
                "column": null,
                "row": "B"
            },
            "geometry": {
                "type": "Point",
                "coordinates": [120.976440343318757, 14.305765726060439]
            }
        },
        {
            "type": "Feature",
            "properties": {
                "id": 9,
                "cluster_id": "178",
                "column": null,
                "row": "B"
            },
            "geometry": {
                "type": "Point",
                "coordinates": [120.976448928795875, 14.305766150034618]
            }
        },
        {
            "type": "Feature",
            "properties": {
                "id": 10,
                "cluster_id": "178",
                "column": null,
                "row": "B"
            },
            "geometry": {
                "type": "Point",
                "coordinates": [120.976456984305273, 14.305766680002341]
            }
        },
        {
            "type": "Feature",
            "properties": {
                "id": 11,
                "cluster_id": "178",
                "column": null,
                "row": "B"
            },
            "geometry": {
                "type": "Point",
                "coordinates": [120.97646482782757, 14.305766785995885]
            }
        },
        {
            "type": "Feature",
            "properties": {
                "id": 12,
                "cluster_id": "178",
                "column": null,
                "row": "B"
            },
            "geometry": {
                "type": "Point",
                "coordinates": [120.976471929395061, 14.305767951924876]
            }
        },
        {
            "type": "Feature",
            "properties": {
                "id": 13,
                "cluster_id": "178",
                "column": null,
                "row": "B"
            },
            "geometry": {
                "type": "Point",
                "coordinates": [120.97647860698838, 14.30576826990551]
            }
        }
    ]
}
