{
"type": "FeatureCollection",
"name": "cltr-id-185-c-row",
"crs": { "type": "name", "properties": { "name": "urn:ogc:def:crs:OGC:1.3:CRS84" } },
"features": [
{ "type": "Feature", "properties": { "fid": 1, "id": 1, "cluster_id": "185", "column": null, "row": "C" }, "geometry": { "type": "Point", "coordinates": [ 120.976612387419152, 14.305556310961709 ] } },
{ "type": "Feature", "properties": { "fid": 2, "id": 2, "cluster_id": "185", "column": null, "row": "C" }, "geometry": { "type": "Point", "coordinates": [ 120.97661346918926, 14.305550090783539 ] } },
{ "type": "Feature", "properties": { "fid": 3, "id": 3, "cluster_id": "185", "column": null, "row": "C" }, "geometry": { "type": "Point", "coordinates": [ 120.976618607597317, 14.305544411490427 ] } },
{ "type": "Feature", "properties": { "fid": 4, "id": 4, "cluster_id": "185", "column": null, "row": "C" }, "geometry": { "type": "Point", "coordinates": [ 120.976628343528361, 14.305545222818015 ] } },
{ "type": "Feature", "properties": { "fid": 5, "id": 5, "cluster_id": "185", "column": null, "row": "C" }, "geometry": { "type": "Point", "coordinates": [ 120.976636997689297, 14.305545222818015 ] } },
{ "type": "Feature", "properties": { "fid": 6, "id": 6, "cluster_id": "185", "column": null, "row": "C" }, "geometry": { "type": "Point", "coordinates": [ 120.976644299637584, 14.305545763703073 ] } },
{ "type": "Feature", "properties": { "fid": 7, "id": 7, "cluster_id": "185", "column": null, "row": "C" }, "geometry": { "type": "Point", "coordinates": [ 120.976652142470925, 14.305546304588132 ] } },
{ "type": "Feature", "properties": { "fid": 8, "id": 8, "cluster_id": "185", "column": null, "row": "C" }, "geometry": { "type": "Point", "coordinates": [ 120.976659714861739, 14.305547386358247 ] } },
{ "type": "Feature", "properties": { "fid": 9, "id": 9, "cluster_id": "185", "column": null, "row": "C" }, "geometry": { "type": "Point", "coordinates": [ 120.976669991677852, 14.305547656800776 ] } },
{ "type": "Feature", "properties": { "fid": 10, "id": 10, "cluster_id": "185", "column": null, "row": "C" }, "geometry": { "type": "Point", "coordinates": [ 120.976677834511193, 14.305548468128364 ] } },
{ "type": "Feature", "properties": { "fid": 11, "id": 11, "cluster_id": "185", "column": null, "row": "C" }, "geometry": { "type": "Point", "coordinates": [ 120.97668513645948, 14.305548468128364 ] } },
{ "type": "Feature", "properties": { "fid": 12, "id": 12, "cluster_id": "185", "column": null, "row": "C" }, "geometry": { "type": "Point", "coordinates": [ 120.976694061062943, 14.305549549898481 ] } },
{ "type": "Feature", "properties": { "fid": 13, "id": 13, "cluster_id": "185", "column": null, "row": "C" }, "geometry": { "type": "Point", "coordinates": [ 120.976702715223865, 14.305550631668597 ] } },
{ "type": "Feature", "properties": { "fid": 14, "id": 14, "cluster_id": "185", "column": null, "row": "C" }, "geometry": { "type": "Point", "coordinates": [ 120.976708664959503, 14.305550631668597 ] } }
]
}
