{
"type": "FeatureCollection",
"name": "cltr-id-184-c-row",
"crs": { "type": "name", "properties": { "name": "urn:ogc:def:crs:OGC:1.3:CRS84" } },
"features": [
{ "type": "Feature", "properties": { "fid": 1, "id": 1, "cluster_id": "184", "column": null, "row": "C" }, "geometry": { "type": "Point", "coordinates": [ 120.976613198746733, 14.305578757691624 ] } },
{ "type": "Feature", "properties": { "fid": 2, "id": 2, "cluster_id": "184", "column": null, "row": "C" }, "geometry": { "type": "Point", "coordinates": [ 120.976621582465143, 14.305580380346798 ] } },
{ "type": "Feature", "properties": { "fid": 3, "id": 3, "cluster_id": "184", "column": null, "row": "C" }, "geometry": { "type": "Point", "coordinates": [ 120.976630507068592, 14.305580650789327 ] } },
{ "type": "Feature", "properties": { "fid": 4, "id": 4, "cluster_id": "184", "column": null, "row": "C" }, "geometry": { "type": "Point", "coordinates": [ 120.976638890787001, 14.305581462116916 ] } },
{ "type": "Feature", "properties": { "fid": 5, "id": 5, "cluster_id": "184", "column": null, "row": "C" }, "geometry": { "type": "Point", "coordinates": [ 120.976648897160572, 14.305582814329561 ] } },
{ "type": "Feature", "properties": { "fid": 6, "id": 6, "cluster_id": "184", "column": null, "row": "C" }, "geometry": { "type": "Point", "coordinates": [ 120.976658633091617, 14.305584707427265 ] } },
{ "type": "Feature", "properties": { "fid": 7, "id": 7, "cluster_id": "184", "column": null, "row": "C" }, "geometry": { "type": "Point", "coordinates": [ 120.976665664597377, 14.305585248312322 ] } },
{ "type": "Feature", "properties": { "fid": 8, "id": 8, "cluster_id": "184", "column": null, "row": "C" }, "geometry": { "type": "Point", "coordinates": [ 120.97667242566061, 14.305585518754851 ] } },
{ "type": "Feature", "properties": { "fid": 9, "id": 9, "cluster_id": "184", "column": null, "row": "C" }, "geometry": { "type": "Point", "coordinates": [ 120.976679186723842, 14.305586059639911 ] } },
{ "type": "Feature", "properties": { "fid": 10, "id": 10, "cluster_id": "184", "column": null, "row": "C" }, "geometry": { "type": "Point", "coordinates": [ 120.976685947787061, 14.305586600524968 ] } },
{ "type": "Feature", "properties": { "fid": 11, "id": 11, "cluster_id": "184", "column": null, "row": "C" }, "geometry": { "type": "Point", "coordinates": [ 120.976690274867536, 14.305587141410026 ] } },
{ "type": "Feature", "properties": { "fid": 12, "id": 12, "cluster_id": "184", "column": null, "row": "C" }, "geometry": { "type": "Point", "coordinates": [ 120.976697306373282, 14.305587411852555 ] } },
{ "type": "Feature", "properties": { "fid": 13, "id": 13, "cluster_id": "184", "column": null, "row": "C" }, "geometry": { "type": "Point", "coordinates": [ 120.976707042304341, 14.305584977869794 ] } },
{ "type": "Feature", "properties": { "fid": 14, "id": 14, "cluster_id": "184", "column": null, "row": "C" }, "geometry": { "type": "Point", "coordinates": [ 120.976710017172152, 14.305577675921509 ] } }
]
}
