{
"type": "FeatureCollection",
"name": "cltr-id-191-a-row",
"crs": { "type": "name", "properties": { "name": "urn:ogc:def:crs:OGC:1.3:CRS84" } },
"features": [
{ "type": "Feature", "properties": { "fid": 1, "id": 1, "cluster_id": "191", "column": null, "row": "A" }, "geometry": { "type": "Point", "coordinates": [ 120.97677808981048, 14.305432335598978 ] } },
{ "type": "Feature", "properties": { "fid": 2, "id": 2, "cluster_id": "191", "column": null, "row": "A" }, "geometry": { "type": "Point", "coordinates": [ 120.976778630695534, 14.305424763208164 ] } },
{ "type": "Feature", "properties": { "fid": 3, "id": 3, "cluster_id": "191", "column": null, "row": "A" }, "geometry": { "type": "Point", "coordinates": [ 120.97678998928177, 14.30541664993229 ] } },
{ "type": "Feature", "properties": { "fid": 4, "id": 4, "cluster_id": "191", "column": null, "row": "A" }, "geometry": { "type": "Point", "coordinates": [ 120.976800806982922, 14.30541664993229 ] } },
{ "type": "Feature", "properties": { "fid": 5, "id": 5, "cluster_id": "191", "column": null, "row": "A" }, "geometry": { "type": "Point", "coordinates": [ 120.976811083799035, 14.305417190817348 ] } },
{ "type": "Feature", "properties": { "fid": 6, "id": 6, "cluster_id": "191", "column": null, "row": "A" }, "geometry": { "type": "Point", "coordinates": [ 120.976821901500202, 14.305417731702407 ] } },
{ "type": "Feature", "properties": { "fid": 7, "id": 7, "cluster_id": "191", "column": null, "row": "A" }, "geometry": { "type": "Point", "coordinates": [ 120.976831096546192, 14.305419354357582 ] } },
{ "type": "Feature", "properties": { "fid": 8, "id": 8, "cluster_id": "191", "column": null, "row": "A" }, "geometry": { "type": "Point", "coordinates": [ 120.976839750707114, 14.305419354357582 ] } },
{ "type": "Feature", "properties": { "fid": 9, "id": 9, "cluster_id": "191", "column": null, "row": "A" }, "geometry": { "type": "Point", "coordinates": [ 120.976850568408281, 14.305420977012757 ] } },
{ "type": "Feature", "properties": { "fid": 10, "id": 10, "cluster_id": "191", "column": null, "row": "A" }, "geometry": { "type": "Point", "coordinates": [ 120.976857599914041, 14.305423140552989 ] } },
{ "type": "Feature", "properties": { "fid": 11, "id": 11, "cluster_id": "191", "column": null, "row": "A" }, "geometry": { "type": "Point", "coordinates": [ 120.97686787673014, 14.305423681438047 ] } },
{ "type": "Feature", "properties": { "fid": 12, "id": 12, "cluster_id": "191", "column": null, "row": "A" }, "geometry": { "type": "Point", "coordinates": [ 120.976878694431306, 14.305424763208165 ] } },
{ "type": "Feature", "properties": { "fid": 13, "id": 13, "cluster_id": "191", "column": null, "row": "A" }, "geometry": { "type": "Point", "coordinates": [ 120.976888971247419, 14.305424763208164 ] } },
{ "type": "Feature", "properties": { "fid": 14, "id": 14, "cluster_id": "191", "column": null, "row": "A" }, "geometry": { "type": "Point", "coordinates": [ 120.976897625408341, 14.305425844978281 ] } },
{ "type": "Feature", "properties": { "fid": 15, "id": 15, "cluster_id": "191", "column": null, "row": "A" }, "geometry": { "type": "Point", "coordinates": [ 120.976908443109508, 14.305426926748396 ] } },
{ "type": "Feature", "properties": { "fid": 16, "id": 16, "cluster_id": "191", "column": null, "row": "A" }, "geometry": { "type": "Point", "coordinates": [ 120.97691655638539, 14.305428549403571 ] } },
{ "type": "Feature", "properties": { "fid": 17, "id": 17, "cluster_id": "191", "column": null, "row": "A" }, "geometry": { "type": "Point", "coordinates": [ 120.976924669661258, 14.305430172058745 ] } },
{ "type": "Feature", "properties": { "fid": 18, "id": 18, "cluster_id": "191", "column": null, "row": "A" }, "geometry": { "type": "Point", "coordinates": [ 120.976934946477371, 14.305430712943803 ] } },
{ "type": "Feature", "properties": { "fid": 19, "id": 19, "cluster_id": "191", "column": null, "row": "A" }, "geometry": { "type": "Point", "coordinates": [ 120.976944141523347, 14.30543179471392 ] } },
{ "type": "Feature", "properties": { "fid": 20, "id": 20, "cluster_id": "191", "column": null, "row": "A" }, "geometry": { "type": "Point", "coordinates": [ 120.97695441833946, 14.30543179471392 ] } },
{ "type": "Feature", "properties": { "fid": 21, "id": 21, "cluster_id": "191", "column": null, "row": "A" }, "geometry": { "type": "Point", "coordinates": [ 120.976964695155573, 14.305432876484037 ] } },
{ "type": "Feature", "properties": { "fid": 22, "id": 22, "cluster_id": "191", "column": null, "row": "A" }, "geometry": { "type": "Point", "coordinates": [ 120.976974431086617, 14.305432335598978 ] } },
{ "type": "Feature", "properties": { "fid": 23, "id": 23, "cluster_id": "191", "column": null, "row": "A" }, "geometry": { "type": "Point", "coordinates": [ 120.976985248787784, 14.305434499139212 ] } },
{ "type": "Feature", "properties": { "fid": 24, "id": 24, "cluster_id": "191", "column": null, "row": "A" }, "geometry": { "type": "Point", "coordinates": [ 120.976994443833775, 14.305435040024269 ] } },
{ "type": "Feature", "properties": { "fid": 25, "id": 25, "cluster_id": "191", "column": null, "row": "A" }, "geometry": { "type": "Point", "coordinates": [ 120.977003638879751, 14.305436662679444 ] } },
{ "type": "Feature", "properties": { "fid": 26, "id": 26, "cluster_id": "191", "column": null, "row": "A" }, "geometry": { "type": "Point", "coordinates": [ 120.97701553835104, 14.305436662679444 ] } },
{ "type": "Feature", "properties": { "fid": 27, "id": 27, "cluster_id": "191", "column": null, "row": "A" }, "geometry": { "type": "Point", "coordinates": [ 120.977023651626908, 14.305438285334619 ] } },
{ "type": "Feature", "properties": { "fid": 28, "id": 28, "cluster_id": "191", "column": null, "row": "A" }, "geometry": { "type": "Point", "coordinates": [ 120.977034469328075, 14.305439367104736 ] } },
{ "type": "Feature", "properties": { "fid": 29, "id": 29, "cluster_id": "191", "column": null, "row": "A" }, "geometry": { "type": "Point", "coordinates": [ 120.977044205259119, 14.305439367104736 ] } },
{ "type": "Feature", "properties": { "fid": 30, "id": 30, "cluster_id": "191", "column": null, "row": "A" }, "geometry": { "type": "Point", "coordinates": [ 120.977052318535002, 14.30544098975991 ] } },
{ "type": "Feature", "properties": { "fid": 31, "id": 31, "cluster_id": "191", "column": null, "row": "A" }, "geometry": { "type": "Point", "coordinates": [ 120.9770625953511, 14.305442071530026 ] } },
{ "type": "Feature", "properties": { "fid": 32, "id": 32, "cluster_id": "191", "column": null, "row": "A" }, "geometry": { "type": "Point", "coordinates": [ 120.977072331282145, 14.305443153300143 ] } },
{ "type": "Feature", "properties": { "fid": 33, "id": 33, "cluster_id": "191", "column": null, "row": "A" }, "geometry": { "type": "Point", "coordinates": [ 120.977080985443081, 14.3054436941852 ] } },
{ "type": "Feature", "properties": { "fid": 34, "id": 34, "cluster_id": "191", "column": null, "row": "A" }, "geometry": { "type": "Point", "coordinates": [ 120.977088557833895, 14.305444775955317 ] } },
{ "type": "Feature", "properties": { "fid": 35, "id": 35, "cluster_id": "191", "column": null, "row": "A" }, "geometry": { "type": "Point", "coordinates": [ 120.977095048454601, 14.305445857725434 ] } },
{ "type": "Feature", "properties": { "fid": 36, "id": 36, "cluster_id": "191", "column": null, "row": "A" }, "geometry": { "type": "Point", "coordinates": [ 120.977102620845415, 14.305446398610494 ] } }
]
}
