{
"type": "FeatureCollection",
"name": "cltr-id-163-a-row",
"crs": { "type": "name", "properties": { "name": "urn:ogc:def:crs:OGC:1.3:CRS84" } },
"features": [
{ "type": "Feature", "properties": { "fid": 1, "id": 1, "cluster_id": "163", "column": null, "row": "A" }, "geometry": { "type": "Point", "coordinates": [ 120.976065308149145, 14.305294185421952 ] } },
{ "type": "Feature", "properties": { "fid": 2, "id": 2, "cluster_id": "163", "column": null, "row": "A" }, "geometry": { "type": "Point", "coordinates": [ 120.976075778615453, 14.305294933312402 ] } },
{ "type": "Feature", "properties": { "fid": 3, "id": 3, "cluster_id": "163", "column": null, "row": "A" }, "geometry": { "type": "Point", "coordinates": [ 120.976087744862667, 14.305296429093303 ] } },
{ "type": "Feature", "properties": { "fid": 4, "id": 4, "cluster_id": "163", "column": null, "row": "A" }, "geometry": { "type": "Point", "coordinates": [ 120.976099337164655, 14.30529755092898 ] } },
{ "type": "Feature", "properties": { "fid": 5, "id": 5, "cluster_id": "163", "column": null, "row": "A" }, "geometry": { "type": "Point", "coordinates": [ 120.976109807630976, 14.305297924874205 ] } },
{ "type": "Feature", "properties": { "fid": 6, "id": 6, "cluster_id": "163", "column": null, "row": "A" }, "geometry": { "type": "Point", "coordinates": [ 120.97611953020683, 14.305298672764657 ] } },
{ "type": "Feature", "properties": { "fid": 7, "id": 7, "cluster_id": "163", "column": null, "row": "A" }, "geometry": { "type": "Point", "coordinates": [ 120.976130000673152, 14.305299046709882 ] } },
{ "type": "Feature", "properties": { "fid": 8, "id": 8, "cluster_id": "163", "column": null, "row": "A" }, "geometry": { "type": "Point", "coordinates": [ 120.976138975358552, 14.305299794600334 ] } },
{ "type": "Feature", "properties": { "fid": 9, "id": 9, "cluster_id": "163", "column": null, "row": "A" }, "geometry": { "type": "Point", "coordinates": [ 120.976147202153513, 14.305300542490784 ] } },
{ "type": "Feature", "properties": { "fid": 10, "id": 10, "cluster_id": "163", "column": null, "row": "A" }, "geometry": { "type": "Point", "coordinates": [ 120.976156550784154, 14.305301290381236 ] } },
{ "type": "Feature", "properties": { "fid": 11, "id": 11, "cluster_id": "163", "column": null, "row": "A" }, "geometry": { "type": "Point", "coordinates": [ 120.976165151524341, 14.305302786162137 ] } },
{ "type": "Feature", "properties": { "fid": 12, "id": 12, "cluster_id": "163", "column": null, "row": "A" }, "geometry": { "type": "Point", "coordinates": [ 120.976174126209756, 14.305303160107362 ] } },
{ "type": "Feature", "properties": { "fid": 13, "id": 13, "cluster_id": "163", "column": null, "row": "A" }, "geometry": { "type": "Point", "coordinates": [ 120.976184596676063, 14.305303534052587 ] } },
{ "type": "Feature", "properties": { "fid": 14, "id": 14, "cluster_id": "163", "column": null, "row": "A" }, "geometry": { "type": "Point", "coordinates": [ 120.976193571361478, 14.305303534052587 ] } },
{ "type": "Feature", "properties": { "fid": 15, "id": 15, "cluster_id": "163", "column": null, "row": "A" }, "geometry": { "type": "Point", "coordinates": [ 120.976201050265985, 14.305303907997812 ] } },
{ "type": "Feature", "properties": { "fid": 16, "id": 16, "cluster_id": "163", "column": null, "row": "A" }, "geometry": { "type": "Point", "coordinates": [ 120.976209651006172, 14.305304281943039 ] } },
{ "type": "Feature", "properties": { "fid": 17, "id": 17, "cluster_id": "163", "column": null, "row": "A" }, "geometry": { "type": "Point", "coordinates": [ 120.976217503855906, 14.305305777723941 ] } },
{ "type": "Feature", "properties": { "fid": 18, "id": 18, "cluster_id": "163", "column": null, "row": "A" }, "geometry": { "type": "Point", "coordinates": [ 120.976226104596094, 14.305306525614391 ] } },
{ "type": "Feature", "properties": { "fid": 19, "id": 19, "cluster_id": "163", "column": null, "row": "A" }, "geometry": { "type": "Point", "coordinates": [ 120.976234705336282, 14.305306525614391 ] } },
{ "type": "Feature", "properties": { "fid": 20, "id": 20, "cluster_id": "163", "column": null, "row": "A" }, "geometry": { "type": "Point", "coordinates": [ 120.976241436350335, 14.305307647450068 ] } },
{ "type": "Feature", "properties": { "fid": 21, "id": 21, "cluster_id": "163", "column": null, "row": "A" }, "geometry": { "type": "Point", "coordinates": [ 120.976248915254843, 14.30530839534052 ] } },
{ "type": "Feature", "properties": { "fid": 22, "id": 22, "cluster_id": "163", "column": null, "row": "A" }, "geometry": { "type": "Point", "coordinates": [ 120.976259385721164, 14.305308769285745 ] } },
{ "type": "Feature", "properties": { "fid": 23, "id": 23, "cluster_id": "163", "column": null, "row": "A" }, "geometry": { "type": "Point", "coordinates": [ 120.976267238570898, 14.305310265066646 ] } },
{ "type": "Feature", "properties": { "fid": 24, "id": 24, "cluster_id": "163", "column": null, "row": "A" }, "geometry": { "type": "Point", "coordinates": [ 120.976275091420632, 14.305311012957098 ] } },
{ "type": "Feature", "properties": { "fid": 25, "id": 25, "cluster_id": "163", "column": null, "row": "A" }, "geometry": { "type": "Point", "coordinates": [ 120.976282944270366, 14.305311760847548 ] } },
{ "type": "Feature", "properties": { "fid": 26, "id": 26, "cluster_id": "163", "column": null, "row": "A" }, "geometry": { "type": "Point", "coordinates": [ 120.9762907971201, 14.305312882683225 ] } },
{ "type": "Feature", "properties": { "fid": 27, "id": 27, "cluster_id": "163", "column": null, "row": "A" }, "geometry": { "type": "Point", "coordinates": [ 120.976300145750741, 14.305314004518902 ] } },
{ "type": "Feature", "properties": { "fid": 28, "id": 28, "cluster_id": "163", "column": null, "row": "A" }, "geometry": { "type": "Point", "coordinates": [ 120.976308746490929, 14.3053155002998 ] } },
{ "type": "Feature", "properties": { "fid": 29, "id": 29, "cluster_id": "163", "column": null, "row": "A" }, "geometry": { "type": "Point", "coordinates": [ 120.976319590902463, 14.305315500299804 ] } },
{ "type": "Feature", "properties": { "fid": 30, "id": 30, "cluster_id": "163", "column": null, "row": "A" }, "geometry": { "type": "Point", "coordinates": [ 120.976327443752197, 14.305315500299804 ] } },
{ "type": "Feature", "properties": { "fid": 31, "id": 31, "cluster_id": "163", "column": null, "row": "A" }, "geometry": { "type": "Point", "coordinates": [ 120.976336418437612, 14.305316622135479 ] } },
{ "type": "Feature", "properties": { "fid": 32, "id": 32, "cluster_id": "163", "column": null, "row": "A" }, "geometry": { "type": "Point", "coordinates": [ 120.976343149451665, 14.30531737002593 ] } },
{ "type": "Feature", "properties": { "fid": 33, "id": 33, "cluster_id": "163", "column": null, "row": "A" }, "geometry": { "type": "Point", "coordinates": [ 120.976349880465733, 14.305318491861607 ] } },
{ "type": "Feature", "properties": { "fid": 34, "id": 34, "cluster_id": "163", "column": null, "row": "A" }, "geometry": { "type": "Point", "coordinates": [ 120.97635735937024, 14.305318117916382 ] } }
]
}
