{
"type": "FeatureCollection",
"name": "cltr-id-196-a-row",
"crs": { "type": "name", "properties": { "name": "urn:ogc:def:crs:OGC:1.3:CRS84" } },
"features": [
{ "type": "Feature", "properties": { "fid": 1, "id": 1, "cluster_id": "196", "column": null, "row": "A" }, "geometry": { "type": "Point", "coordinates": [ 120.976705543602094, 14.305861392671432 ] } },
{ "type": "Feature", "properties": { "fid": 2, "id": 2, "cluster_id": "196", "column": null, "row": "A" }, "geometry": { "type": "Point", "coordinates": [ 120.976711831390887, 14.305862203999022 ] } },
{ "type": "Feature", "properties": { "fid": 3, "id": 3, "cluster_id": "196", "column": null, "row": "A" }, "geometry": { "type": "Point", "coordinates": [ 120.976720147498668, 14.305863218158505 ] } },
{ "type": "Feature", "properties": { "fid": 4, "id": 4, "cluster_id": "196", "column": null, "row": "A" }, "geometry": { "type": "Point", "coordinates": [ 120.976731911748686, 14.305864029486093 ] } },
{ "type": "Feature", "properties": { "fid": 5, "id": 5, "cluster_id": "196", "column": null, "row": "A" }, "geometry": { "type": "Point", "coordinates": [ 120.976741242015947, 14.305865246477474 ] } },
{ "type": "Feature", "properties": { "fid": 6, "id": 6, "cluster_id": "196", "column": null, "row": "A" }, "geometry": { "type": "Point", "coordinates": [ 120.976750166619411, 14.305865854973167 ] } },
{ "type": "Feature", "properties": { "fid": 7, "id": 7, "cluster_id": "196", "column": null, "row": "A" }, "geometry": { "type": "Point", "coordinates": [ 120.976760713878036, 14.30586686913265 ] } },
{ "type": "Feature", "properties": { "fid": 8, "id": 8, "cluster_id": "196", "column": null, "row": "A" }, "geometry": { "type": "Point", "coordinates": [ 120.976768827153919, 14.305867274796443 ] } },
{ "type": "Feature", "properties": { "fid": 9, "id": 9, "cluster_id": "196", "column": null, "row": "A" }, "geometry": { "type": "Point", "coordinates": [ 120.976776737597888, 14.305868288955926 ] } },
{ "type": "Feature", "properties": { "fid": 10, "id": 10, "cluster_id": "196", "column": null, "row": "A" }, "geometry": { "type": "Point", "coordinates": [ 120.976784242378073, 14.305868491787825 ] } },
{ "type": "Feature", "properties": { "fid": 11, "id": 11, "cluster_id": "196", "column": null, "row": "A" }, "geometry": { "type": "Point", "coordinates": [ 120.976792355653956, 14.305869708779205 ] } },
{ "type": "Feature", "properties": { "fid": 12, "id": 12, "cluster_id": "196", "column": null, "row": "A" }, "geometry": { "type": "Point", "coordinates": [ 120.976799251938445, 14.305869708779205 ] } },
{ "type": "Feature", "properties": { "fid": 13, "id": 13, "cluster_id": "196", "column": null, "row": "A" }, "geometry": { "type": "Point", "coordinates": [ 120.976806148222934, 14.305870925770586 ] } },
{ "type": "Feature", "properties": { "fid": 14, "id": 14, "cluster_id": "196", "column": null, "row": "A" }, "geometry": { "type": "Point", "coordinates": [ 120.97681263884364, 14.305870925770586 ] } },
{ "type": "Feature", "properties": { "fid": 15, "id": 15, "cluster_id": "196", "column": null, "row": "A" }, "geometry": { "type": "Point", "coordinates": [ 120.976820346455725, 14.305872142761968 ] } },
{ "type": "Feature", "properties": { "fid": 16, "id": 16, "cluster_id": "196", "column": null, "row": "A" }, "geometry": { "type": "Point", "coordinates": [ 120.976827648404011, 14.305873359753349 ] } },
{ "type": "Feature", "properties": { "fid": 17, "id": 17, "cluster_id": "196", "column": null, "row": "A" }, "geometry": { "type": "Point", "coordinates": [ 120.976835356016082, 14.305873359753349 ] } },
{ "type": "Feature", "properties": { "fid": 18, "id": 18, "cluster_id": "196", "column": null, "row": "A" }, "geometry": { "type": "Point", "coordinates": [ 120.976843469291964, 14.305874982408524 ] } },
{ "type": "Feature", "properties": { "fid": 19, "id": 19, "cluster_id": "196", "column": null, "row": "A" }, "geometry": { "type": "Point", "coordinates": [ 120.976854827878185, 14.305875793736112 ] } },
{ "type": "Feature", "properties": { "fid": 20, "id": 20, "cluster_id": "196", "column": null, "row": "A" }, "geometry": { "type": "Point", "coordinates": [ 120.976862129826486, 14.305876605063698 ] } },
{ "type": "Feature", "properties": { "fid": 21, "id": 21, "cluster_id": "196", "column": null, "row": "A" }, "geometry": { "type": "Point", "coordinates": [ 120.976872677085126, 14.305878024886979 ] } },
{ "type": "Feature", "properties": { "fid": 22, "id": 22, "cluster_id": "196", "column": null, "row": "A" }, "geometry": { "type": "Point", "coordinates": [ 120.976883021511853, 14.305878836214562 ] } },
{ "type": "Feature", "properties": { "fid": 23, "id": 23, "cluster_id": "196", "column": null, "row": "A" }, "geometry": { "type": "Point", "coordinates": [ 120.976892148947201, 14.305879444710259 ] } },
{ "type": "Feature", "properties": { "fid": 24, "id": 24, "cluster_id": "196", "column": null, "row": "A" }, "geometry": { "type": "Point", "coordinates": [ 120.976901073550664, 14.305880661701636 ] } },
{ "type": "Feature", "properties": { "fid": 25, "id": 25, "cluster_id": "196", "column": null, "row": "A" }, "geometry": { "type": "Point", "coordinates": [ 120.976909998154142, 14.305881878693018 ] } },
{ "type": "Feature", "properties": { "fid": 26, "id": 26, "cluster_id": "196", "column": null, "row": "A" }, "geometry": { "type": "Point", "coordinates": [ 120.976919328421388, 14.305883095684399 ] } },
{ "type": "Feature", "properties": { "fid": 27, "id": 27, "cluster_id": "196", "column": null, "row": "A" }, "geometry": { "type": "Point", "coordinates": [ 120.976929064352447, 14.305883907011985 ] } },
{ "type": "Feature", "properties": { "fid": 28, "id": 28, "cluster_id": "196", "column": null, "row": "A" }, "geometry": { "type": "Point", "coordinates": [ 120.976940422938654, 14.305884718339575 ] } },
{ "type": "Feature", "properties": { "fid": 29, "id": 29, "cluster_id": "196", "column": null, "row": "A" }, "geometry": { "type": "Point", "coordinates": [ 120.976950564533524, 14.30588552966716 ] } },
{ "type": "Feature", "properties": { "fid": 30, "id": 30, "cluster_id": "196", "column": null, "row": "A" }, "geometry": { "type": "Point", "coordinates": [ 120.97696314011111, 14.305886746658542 ] } },
{ "type": "Feature", "properties": { "fid": 31, "id": 31, "cluster_id": "196", "column": null, "row": "A" }, "geometry": { "type": "Point", "coordinates": [ 120.976972470378371, 14.305887963649925 ] } },
{ "type": "Feature", "properties": { "fid": 32, "id": 32, "cluster_id": "196", "column": null, "row": "A" }, "geometry": { "type": "Point", "coordinates": [ 120.976986465779248, 14.305888977809406 ] } },
{ "type": "Feature", "properties": { "fid": 33, "id": 33, "cluster_id": "196", "column": null, "row": "A" }, "geometry": { "type": "Point", "coordinates": [ 120.976997824365483, 14.305889991968895 ] } },
{ "type": "Feature", "properties": { "fid": 34, "id": 34, "cluster_id": "196", "column": null, "row": "A" }, "geometry": { "type": "Point", "coordinates": [ 120.977008574455994, 14.305881067365428 ] } },
{ "type": "Feature", "properties": { "fid": 35, "id": 35, "cluster_id": "196", "column": null, "row": "A" }, "geometry": { "type": "Point", "coordinates": [ 120.977007154632744, 14.305877822055081 ] } }
]
}
