{
"type": "FeatureCollection",
"name": "cltr-id-147-d-row",
"crs": { "type": "name", "properties": { "name": "urn:ogc:def:crs:OGC:1.3:CRS84" } },
"features": [
{ "type": "Feature", "properties": { "fid": 1, "id": 1, "cluster_id": "147", "column": null, "row": "D" }, "geometry": { "type": "Point", "coordinates": [ 120.976062084198858, 14.305374288268185 ] } },
{ "type": "Feature", "properties": { "fid": 2, "id": 2, "cluster_id": "147", "column": null, "row": "D" }, "geometry": { "type": "Point", "coordinates": [ 120.976062150478043, 14.305367424695751 ] } },
{ "type": "Feature", "properties": { "fid": 3, "id": 3, "cluster_id": "147", "column": null, "row": "D" }, "geometry": { "type": "Point", "coordinates": [ 120.976067336207478, 14.305369597177416 ] } },
{ "type": "Feature", "properties": { "fid": 4, "id": 4, "cluster_id": "147", "column": null, "row": "D" }, "geometry": { "type": "Point", "coordinates": [ 120.976080050345146, 14.305370719013093 ] } },
{ "type": "Feature", "properties": { "fid": 5, "id": 5, "cluster_id": "147", "column": null, "row": "D" }, "geometry": { "type": "Point", "coordinates": [ 120.976092764482814, 14.305371466903543 ] } },
{ "type": "Feature", "properties": { "fid": 6, "id": 6, "cluster_id": "147", "column": null, "row": "D" }, "geometry": { "type": "Point", "coordinates": [ 120.976105852565709, 14.305372214793994 ] } },
{ "type": "Feature", "properties": { "fid": 7, "id": 7, "cluster_id": "147", "column": null, "row": "D" }, "geometry": { "type": "Point", "coordinates": [ 120.976116323032016, 14.305372588739219 ] } },
{ "type": "Feature", "properties": { "fid": 8, "id": 8, "cluster_id": "147", "column": null, "row": "D" }, "geometry": { "type": "Point", "coordinates": [ 120.976126793498338, 14.305373336629671 ] } },
{ "type": "Feature", "properties": { "fid": 9, "id": 9, "cluster_id": "147", "column": null, "row": "D" }, "geometry": { "type": "Point", "coordinates": [ 120.976135020293299, 14.305374458465346 ] } },
{ "type": "Feature", "properties": { "fid": 10, "id": 10, "cluster_id": "147", "column": null, "row": "D" }, "geometry": { "type": "Point", "coordinates": [ 120.976145490759606, 14.305374458465346 ] } },
{ "type": "Feature", "properties": { "fid": 11, "id": 11, "cluster_id": "147", "column": null, "row": "D" }, "geometry": { "type": "Point", "coordinates": [ 120.976155587280701, 14.305374832410573 ] } },
{ "type": "Feature", "properties": { "fid": 12, "id": 12, "cluster_id": "147", "column": null, "row": "D" }, "geometry": { "type": "Point", "coordinates": [ 120.976165683801781, 14.305376328191475 ] } },
{ "type": "Feature", "properties": { "fid": 13, "id": 13, "cluster_id": "147", "column": null, "row": "D" }, "geometry": { "type": "Point", "coordinates": [ 120.976175032432423, 14.3053767021367 ] } },
{ "type": "Feature", "properties": { "fid": 14, "id": 14, "cluster_id": "147", "column": null, "row": "D" }, "geometry": { "type": "Point", "coordinates": [ 120.97618550289873, 14.30537745002715 ] } },
{ "type": "Feature", "properties": { "fid": 15, "id": 15, "cluster_id": "147", "column": null, "row": "D" }, "geometry": { "type": "Point", "coordinates": [ 120.976194477584144, 14.305378197917602 ] } },
{ "type": "Feature", "properties": { "fid": 16, "id": 16, "cluster_id": "147", "column": null, "row": "D" }, "geometry": { "type": "Point", "coordinates": [ 120.976203826214785, 14.305378571862827 ] } },
{ "type": "Feature", "properties": { "fid": 17, "id": 17, "cluster_id": "147", "column": null, "row": "D" }, "geometry": { "type": "Point", "coordinates": [ 120.976213548790639, 14.305378945808052 ] } },
{ "type": "Feature", "properties": { "fid": 18, "id": 18, "cluster_id": "147", "column": null, "row": "D" }, "geometry": { "type": "Point", "coordinates": [ 120.976222523476054, 14.305380067643728 ] } },
{ "type": "Feature", "properties": { "fid": 19, "id": 19, "cluster_id": "147", "column": null, "row": "D" }, "geometry": { "type": "Point", "coordinates": [ 120.976232993942375, 14.30538081553418 ] } },
{ "type": "Feature", "properties": { "fid": 20, "id": 20, "cluster_id": "147", "column": null, "row": "D" }, "geometry": { "type": "Point", "coordinates": [ 120.976241220737322, 14.305381937369857 ] } },
{ "type": "Feature", "properties": { "fid": 21, "id": 21, "cluster_id": "147", "column": null, "row": "D" }, "geometry": { "type": "Point", "coordinates": [ 120.976250195422736, 14.305383059205532 ] } },
{ "type": "Feature", "properties": { "fid": 22, "id": 22, "cluster_id": "147", "column": null, "row": "D" }, "geometry": { "type": "Point", "coordinates": [ 120.976259917998604, 14.305383433150759 ] } },
{ "type": "Feature", "properties": { "fid": 23, "id": 23, "cluster_id": "147", "column": null, "row": "D" }, "geometry": { "type": "Point", "coordinates": [ 120.976268518738792, 14.305384181041209 ] } },
{ "type": "Feature", "properties": { "fid": 24, "id": 24, "cluster_id": "147", "column": null, "row": "D" }, "geometry": { "type": "Point", "coordinates": [ 120.976276745533752, 14.305384928931661 ] } },
{ "type": "Feature", "properties": { "fid": 25, "id": 25, "cluster_id": "147", "column": null, "row": "D" }, "geometry": { "type": "Point", "coordinates": [ 120.976284598383486, 14.305384554986434 ] } },
{ "type": "Feature", "properties": { "fid": 26, "id": 26, "cluster_id": "147", "column": null, "row": "D" }, "geometry": { "type": "Point", "coordinates": [ 120.976292077287994, 14.305385676822111 ] } },
{ "type": "Feature", "properties": { "fid": 27, "id": 27, "cluster_id": "147", "column": null, "row": "D" }, "geometry": { "type": "Point", "coordinates": [ 120.976299556192501, 14.305386050767336 ] } },
{ "type": "Feature", "properties": { "fid": 28, "id": 28, "cluster_id": "147", "column": null, "row": "D" }, "geometry": { "type": "Point", "coordinates": [ 120.976307782987462, 14.305386424712562 ] } },
{ "type": "Feature", "properties": { "fid": 29, "id": 29, "cluster_id": "147", "column": null, "row": "D" }, "geometry": { "type": "Point", "coordinates": [ 120.976315635837196, 14.305387546548239 ] } },
{ "type": "Feature", "properties": { "fid": 30, "id": 30, "cluster_id": "147", "column": null, "row": "D" }, "geometry": { "type": "Point", "coordinates": [ 120.976322740796476, 14.305387920493464 ] } },
{ "type": "Feature", "properties": { "fid": 31, "id": 31, "cluster_id": "147", "column": null, "row": "D" }, "geometry": { "type": "Point", "coordinates": [ 120.976329845755771, 14.305388668383914 ] } },
{ "type": "Feature", "properties": { "fid": 32, "id": 32, "cluster_id": "147", "column": null, "row": "D" }, "geometry": { "type": "Point", "coordinates": [ 120.976336950715051, 14.305389042329141 ] } },
{ "type": "Feature", "properties": { "fid": 33, "id": 33, "cluster_id": "147", "column": null, "row": "D" }, "geometry": { "type": "Point", "coordinates": [ 120.976344429619559, 14.305389790219591 ] } },
{ "type": "Feature", "properties": { "fid": 34, "id": 34, "cluster_id": "147", "column": null, "row": "D" }, "geometry": { "type": "Point", "coordinates": [ 120.9763507866884, 14.305390164164816 ] } },
{ "type": "Feature", "properties": { "fid": 35, "id": 35, "cluster_id": "147", "column": null, "row": "D" }, "geometry": { "type": "Point", "coordinates": [ 120.97635789164768, 14.305391286000493 ] } },
{ "type": "Feature", "properties": { "fid": 36, "id": 36, "cluster_id": "147", "column": null, "row": "D" }, "geometry": { "type": "Point", "coordinates": [ 120.976365744497414, 14.305391659945718 ] } }
]
}
