{
"type": "FeatureCollection",
"name": "cltr-id-184-e-row",
"crs": { "type": "name", "properties": { "name": "urn:ogc:def:crs:OGC:1.3:CRS84" } },
"features": [
{ "type": "Feature", "properties": { "fid": 1, "id": 1, "cluster_id": "184", "column": null, "row": "E" }, "geometry": { "type": "Point", "coordinates": [ 120.976612657861679, 14.305574701053688 ] } },
{ "type": "Feature", "properties": { "fid": 2, "id": 2, "cluster_id": "184", "column": null, "row": "E" }, "geometry": { "type": "Point", "coordinates": [ 120.976621582465143, 14.305577135036449 ] } },
{ "type": "Feature", "properties": { "fid": 3, "id": 3, "cluster_id": "184", "column": null, "row": "E" }, "geometry": { "type": "Point", "coordinates": [ 120.976631859281241, 14.30557686459392 ] } },
{ "type": "Feature", "properties": { "fid": 4, "id": 4, "cluster_id": "184", "column": null, "row": "E" }, "geometry": { "type": "Point", "coordinates": [ 120.976639972557109, 14.305577405478978 ] } },
{ "type": "Feature", "properties": { "fid": 5, "id": 5, "cluster_id": "184", "column": null, "row": "E" }, "geometry": { "type": "Point", "coordinates": [ 120.976649708488168, 14.305579298576683 ] } },
{ "type": "Feature", "properties": { "fid": 6, "id": 6, "cluster_id": "184", "column": null, "row": "E" }, "geometry": { "type": "Point", "coordinates": [ 120.976659173976685, 14.305581191674387 ] } },
{ "type": "Feature", "properties": { "fid": 7, "id": 7, "cluster_id": "184", "column": null, "row": "E" }, "geometry": { "type": "Point", "coordinates": [ 120.976666475924972, 14.305581732559444 ] } },
{ "type": "Feature", "properties": { "fid": 8, "id": 8, "cluster_id": "184", "column": null, "row": "E" }, "geometry": { "type": "Point", "coordinates": [ 120.976672155218083, 14.305582003001973 ] } },
{ "type": "Feature", "properties": { "fid": 9, "id": 9, "cluster_id": "184", "column": null, "row": "E" }, "geometry": { "type": "Point", "coordinates": [ 120.976679727608897, 14.305582814329561 ] } },
{ "type": "Feature", "properties": { "fid": 10, "id": 10, "cluster_id": "184", "column": null, "row": "E" }, "geometry": { "type": "Point", "coordinates": [ 120.976686488672115, 14.305583625657148 ] } },
{ "type": "Feature", "properties": { "fid": 11, "id": 11, "cluster_id": "184", "column": null, "row": "E" }, "geometry": { "type": "Point", "coordinates": [ 120.976691356637645, 14.305583625657148 ] } },
{ "type": "Feature", "properties": { "fid": 12, "id": 12, "cluster_id": "184", "column": null, "row": "E" }, "geometry": { "type": "Point", "coordinates": [ 120.976697306373282, 14.305584166542205 ] } },
{ "type": "Feature", "properties": { "fid": 13, "id": 13, "cluster_id": "184", "column": null, "row": "E" }, "geometry": { "type": "Point", "coordinates": [ 120.976705149206637, 14.305584166542205 ] } },
{ "type": "Feature", "properties": { "fid": 14, "id": 14, "cluster_id": "184", "column": null, "row": "E" }, "geometry": { "type": "Point", "coordinates": [ 120.976707042304341, 14.305576053266334 ] } }
]
}
