{
"type": "FeatureCollection",
"name": "cltr-id-148-e-row",
"crs": { "type": "name", "properties": { "name": "urn:ogc:def:crs:OGC:1.3:CRS84" } },
"features": [
{ "type": "Feature", "properties": { "fid": 1, "id": 1, "cluster_id": "148", "column": null, "row": "E" }, "geometry": { "type": "Point", "coordinates": [ 120.976049453659954, 14.305528110727808 ] } },
{ "type": "Feature", "properties": { "fid": 2, "id": 2, "cluster_id": "148", "column": null, "row": "E" }, "geometry": { "type": "Point", "coordinates": [ 120.976057867427528, 14.305529232563483 ] } },
{ "type": "Feature", "properties": { "fid": 3, "id": 3, "cluster_id": "148", "column": null, "row": "E" }, "geometry": { "type": "Point", "coordinates": [ 120.976065720277262, 14.305529232563483 ] } },
{ "type": "Feature", "properties": { "fid": 4, "id": 4, "cluster_id": "148", "column": null, "row": "E" }, "geometry": { "type": "Point", "coordinates": [ 120.976074134044836, 14.305529793481321 ] } },
{ "type": "Feature", "properties": { "fid": 5, "id": 5, "cluster_id": "148", "column": null, "row": "E" }, "geometry": { "type": "Point", "coordinates": [ 120.97608142597673, 14.305529793481321 ] } },
{ "type": "Feature", "properties": { "fid": 6, "id": 6, "cluster_id": "148", "column": null, "row": "E" }, "geometry": { "type": "Point", "coordinates": [ 120.976088717908638, 14.305529793481321 ] } },
{ "type": "Feature", "properties": { "fid": 7, "id": 7, "cluster_id": "148", "column": null, "row": "E" }, "geometry": { "type": "Point", "coordinates": [ 120.976096009840532, 14.305532037152675 ] } },
{ "type": "Feature", "properties": { "fid": 8, "id": 8, "cluster_id": "148", "column": null, "row": "E" }, "geometry": { "type": "Point", "coordinates": [ 120.976103862690266, 14.305532598070513 ] } },
{ "type": "Feature", "properties": { "fid": 9, "id": 9, "cluster_id": "148", "column": null, "row": "E" }, "geometry": { "type": "Point", "coordinates": [ 120.97611283737568, 14.305533158988352 ] } },
{ "type": "Feature", "properties": { "fid": 10, "id": 10, "cluster_id": "148", "column": null, "row": "E" }, "geometry": { "type": "Point", "coordinates": [ 120.976120129307574, 14.30553371990619 ] } },
{ "type": "Feature", "properties": { "fid": 11, "id": 11, "cluster_id": "148", "column": null, "row": "E" }, "geometry": { "type": "Point", "coordinates": [ 120.976129103992989, 14.30553652449538 ] } },
{ "type": "Feature", "properties": { "fid": 12, "id": 12, "cluster_id": "148", "column": null, "row": "E" }, "geometry": { "type": "Point", "coordinates": [ 120.976136395924883, 14.305535402659704 ] } },
{ "type": "Feature", "properties": { "fid": 13, "id": 13, "cluster_id": "148", "column": null, "row": "E" }, "geometry": { "type": "Point", "coordinates": [ 120.976144248774617, 14.305535963577542 ] } },
{ "type": "Feature", "properties": { "fid": 14, "id": 14, "cluster_id": "148", "column": null, "row": "E" }, "geometry": { "type": "Point", "coordinates": [ 120.976154906213537, 14.30553652449538 ] } },
{ "type": "Feature", "properties": { "fid": 15, "id": 15, "cluster_id": "148", "column": null, "row": "E" }, "geometry": { "type": "Point", "coordinates": [ 120.976162759063271, 14.305537646331057 ] } },
{ "type": "Feature", "properties": { "fid": 16, "id": 16, "cluster_id": "148", "column": null, "row": "E" }, "geometry": { "type": "Point", "coordinates": [ 120.976173977420046, 14.305537646331057 ] } },
{ "type": "Feature", "properties": { "fid": 17, "id": 17, "cluster_id": "148", "column": null, "row": "E" }, "geometry": { "type": "Point", "coordinates": [ 120.97618014751626, 14.305537646331057 ] } },
{ "type": "Feature", "properties": { "fid": 18, "id": 18, "cluster_id": "148", "column": null, "row": "E" }, "geometry": { "type": "Point", "coordinates": [ 120.976188561283834, 14.305539329084571 ] } },
{ "type": "Feature", "properties": { "fid": 19, "id": 19, "cluster_id": "148", "column": null, "row": "E" }, "geometry": { "type": "Point", "coordinates": [ 120.976196975051408, 14.305539890002409 ] } },
{ "type": "Feature", "properties": { "fid": 20, "id": 20, "cluster_id": "148", "column": null, "row": "E" }, "geometry": { "type": "Point", "coordinates": [ 120.976204827901142, 14.305539890002409 ] } },
{ "type": "Feature", "properties": { "fid": 21, "id": 21, "cluster_id": "148", "column": null, "row": "E" }, "geometry": { "type": "Point", "coordinates": [ 120.976212680750876, 14.305541011838086 ] } },
{ "type": "Feature", "properties": { "fid": 22, "id": 22, "cluster_id": "148", "column": null, "row": "E" }, "geometry": { "type": "Point", "coordinates": [ 120.976221094518451, 14.305542133673763 ] } },
{ "type": "Feature", "properties": { "fid": 23, "id": 23, "cluster_id": "148", "column": null, "row": "E" }, "geometry": { "type": "Point", "coordinates": [ 120.976229508286025, 14.305542133673763 ] } },
{ "type": "Feature", "properties": { "fid": 24, "id": 24, "cluster_id": "148", "column": null, "row": "E" }, "geometry": { "type": "Point", "coordinates": [ 120.976237361135759, 14.30554325550944 ] } },
{ "type": "Feature", "properties": { "fid": 25, "id": 25, "cluster_id": "148", "column": null, "row": "E" }, "geometry": { "type": "Point", "coordinates": [ 120.976245213985493, 14.30554325550944 ] } },
{ "type": "Feature", "properties": { "fid": 26, "id": 26, "cluster_id": "148", "column": null, "row": "E" }, "geometry": { "type": "Point", "coordinates": [ 120.976252505917387, 14.305543816427278 ] } },
{ "type": "Feature", "properties": { "fid": 27, "id": 27, "cluster_id": "148", "column": null, "row": "E" }, "geometry": { "type": "Point", "coordinates": [ 120.976262041520641, 14.30554325550944 ] } },
{ "type": "Feature", "properties": { "fid": 28, "id": 28, "cluster_id": "148", "column": null, "row": "E" }, "geometry": { "type": "Point", "coordinates": [ 120.976272138041722, 14.305545499180791 ] } },
{ "type": "Feature", "properties": { "fid": 29, "id": 29, "cluster_id": "148", "column": null, "row": "E" }, "geometry": { "type": "Point", "coordinates": [ 120.976279990891456, 14.305545499180791 ] } },
{ "type": "Feature", "properties": { "fid": 30, "id": 30, "cluster_id": "148", "column": null, "row": "E" }, "geometry": { "type": "Point", "coordinates": [ 120.97628896557687, 14.30554606009863 ] } },
{ "type": "Feature", "properties": { "fid": 31, "id": 31, "cluster_id": "148", "column": null, "row": "E" }, "geometry": { "type": "Point", "coordinates": [ 120.976298501180111, 14.305547181934307 ] } },
{ "type": "Feature", "properties": { "fid": 32, "id": 32, "cluster_id": "148", "column": null, "row": "E" }, "geometry": { "type": "Point", "coordinates": [ 120.976308597701205, 14.305548303769983 ] } },
{ "type": "Feature", "properties": { "fid": 33, "id": 33, "cluster_id": "148", "column": null, "row": "E" }, "geometry": { "type": "Point", "coordinates": [ 120.976318694222286, 14.305550547441337 ] } },
{ "type": "Feature", "properties": { "fid": 34, "id": 34, "cluster_id": "148", "column": null, "row": "E" }, "geometry": { "type": "Point", "coordinates": [ 120.976331034414727, 14.305549986523499 ] } },
{ "type": "Feature", "properties": { "fid": 35, "id": 35, "cluster_id": "148", "column": null, "row": "E" }, "geometry": { "type": "Point", "coordinates": [ 120.976347251513701, 14.305554303195814 ] } },
{ "type": "Feature", "properties": { "fid": 36, "id": 36, "cluster_id": "148", "column": null, "row": "E" }, "geometry": { "type": "Point", "coordinates": [ 120.976347812431541, 14.305545328510402 ] } }
]
}
