{
    "type": "FeatureCollection",
    "name": "cltr-id-158-e-row",
    "crs": {
        "type": "name",
        "properties": { "name": "urn:ogc:def:crs:OGC:1.3:CRS84" }
    },
    "features": [
        {
            "type": "Feature",
            "properties": {
                "fid": 1,
                "id": 1,
                "cluster_id": "158",
                "column": null,
                "row": "E"
            },
            "geometry": {
                "type": "Point",
                "coordinates": [120.976377701133899, 14.305698950127315]
            }
        },
        {
            "type": "Feature",
            "properties": {
                "fid": 2,
                "id": 2,
                "cluster_id": "158",
                "column": null,
                "row": "E"
            },
            "geometry": {
                "type": "Point",
                "coordinates": [120.976387240552924, 14.305699162114404]
            }
        },
        {
            "type": "Feature",
            "properties": {
                "fid": 3,
                "id": 3,
                "cluster_id": "158",
                "column": null,
                "row": "E"
            },
            "geometry": {
                "type": "Point",
                "coordinates": [120.976398899842835, 14.305698738140226]
            }
        },
        {
            "type": "Feature",
            "properties": {
                "fid": 4,
                "id": 4,
                "cluster_id": "158",
                "column": null,
                "row": "E"
            },
            "geometry": {
                "type": "Point",
                "coordinates": [120.97640822727476, 14.305699798075672]
            }
        },
        {
            "type": "Feature",
            "properties": {
                "fid": 5,
                "id": 5,
                "cluster_id": "158",
                "column": null,
                "row": "E"
            },
            "geometry": {
                "type": "Point",
                "coordinates": [120.976415434835786, 14.305701493972387]
            }
        },
        {
            "type": "Feature",
            "properties": {
                "fid": 6,
                "id": 6,
                "cluster_id": "158",
                "column": null,
                "row": "E"
            },
            "geometry": {
                "type": "Point",
                "coordinates": [120.976424550280626, 14.305702129933655]
            }
        },
        {
            "type": "Feature",
            "properties": {
                "fid": 7,
                "id": 7,
                "cluster_id": "158",
                "column": null,
                "row": "E"
            },
            "geometry": {
                "type": "Point",
                "coordinates": [120.976431969828752, 14.305702977882012]
            }
        },
        {
            "type": "Feature",
            "properties": {
                "fid": 8,
                "id": 8,
                "cluster_id": "158",
                "column": null,
                "row": "E"
            },
            "geometry": {
                "type": "Point",
                "coordinates": [120.976443417131577, 14.305702553907834]
            }
        },
        {
            "type": "Feature",
            "properties": {
                "fid": 9,
                "id": 9,
                "cluster_id": "158",
                "column": null,
                "row": "E"
            },
            "geometry": {
                "type": "Point",
                "coordinates": [120.976451472640974, 14.305703825830369]
            }
        },
        {
            "type": "Feature",
            "properties": {
                "fid": 10,
                "id": 10,
                "cluster_id": "158",
                "column": null,
                "row": "E"
            },
            "geometry": {
                "type": "Point",
                "coordinates": [120.976460588085814, 14.305704249804547]
            }
        },
        {
            "type": "Feature",
            "properties": {
                "fid": 11,
                "id": 11,
                "cluster_id": "158",
                "column": null,
                "row": "E"
            },
            "geometry": {
                "type": "Point",
                "coordinates": [120.97646779564684, 14.305705309739993]
            }
        },
        {
            "type": "Feature",
            "properties": {
                "fid": 12,
                "id": 12,
                "cluster_id": "158",
                "column": null,
                "row": "E"
            },
            "geometry": {
                "type": "Point",
                "coordinates": [120.976476063143323, 14.305706369675439]
            }
        },
        {
            "type": "Feature",
            "properties": {
                "fid": 13,
                "id": 13,
                "cluster_id": "158",
                "column": null,
                "row": "E"
            },
            "geometry": {
                "type": "Point",
                "coordinates": [120.976485178588163, 14.305706581662529]
            }
        },
        {
            "type": "Feature",
            "properties": {
                "fid": 14,
                "id": 14,
                "cluster_id": "158",
                "column": null,
                "row": "E"
            },
            "geometry": {
                "type": "Point",
                "coordinates": [120.976487510446148, 14.305702341920744]
            }
        },
        {
            "type": "Feature",
            "properties": {
                "fid": 15,
                "id": 15,
                "cluster_id": "158",
                "column": null,
                "row": "E"
            },
            "geometry": {
                "type": "Point",
                "coordinates": [120.976487298459062, 14.305694286411351]
            }
        }
    ]
}
