{
"type": "FeatureCollection",
"name": "cltr-id-199-b-row",
"crs": { "type": "name", "properties": { "name": "urn:ogc:def:crs:OGC:1.3:CRS84" } },
"features": [
{ "type": "Feature", "properties": { "fid": 1, "id": 1, "cluster_id": "199", "column": null, "row": "B" }, "geometry": { "type": "Point", "coordinates": [ 120.976637132910611, 14.305341038708548 ] } },
{ "type": "Feature", "properties": { "fid": 2, "id": 2, "cluster_id": "199", "column": null, "row": "B" }, "geometry": { "type": "Point", "coordinates": [ 120.976646598399128, 14.305341309151077 ] } },
{ "type": "Feature", "properties": { "fid": 3, "id": 3, "cluster_id": "199", "column": null, "row": "B" }, "geometry": { "type": "Point", "coordinates": [ 120.976659038755457, 14.305342390921194 ] } },
{ "type": "Feature", "properties": { "fid": 4, "id": 4, "cluster_id": "199", "column": null, "row": "B" }, "geometry": { "type": "Point", "coordinates": [ 120.976667963358921, 14.305343472691309 ] } },
{ "type": "Feature", "properties": { "fid": 5, "id": 5, "cluster_id": "199", "column": null, "row": "B" }, "geometry": { "type": "Point", "coordinates": [ 120.976676076634803, 14.305344013576368 ] } },
{ "type": "Feature", "properties": { "fid": 6, "id": 6, "cluster_id": "199", "column": null, "row": "B" }, "geometry": { "type": "Point", "coordinates": [ 120.976684730795725, 14.305345095346484 ] } },
{ "type": "Feature", "properties": { "fid": 7, "id": 7, "cluster_id": "199", "column": null, "row": "B" }, "geometry": { "type": "Point", "coordinates": [ 120.976692573629066, 14.305345636231543 ] } },
{ "type": "Feature", "properties": { "fid": 8, "id": 8, "cluster_id": "199", "column": null, "row": "B" }, "geometry": { "type": "Point", "coordinates": [ 120.976700416462421, 14.305345636231543 ] } },
{ "type": "Feature", "properties": { "fid": 9, "id": 9, "cluster_id": "199", "column": null, "row": "B" }, "geometry": { "type": "Point", "coordinates": [ 120.976708259295762, 14.305346988444189 ] } },
{ "type": "Feature", "properties": { "fid": 10, "id": 10, "cluster_id": "199", "column": null, "row": "B" }, "geometry": { "type": "Point", "coordinates": [ 120.976717183899225, 14.305346988444189 ] } }
]
}
