{
"type": "FeatureCollection",
"name": "cltr-id-186-e-row",
"crs": { "type": "name", "properties": { "name": "urn:ogc:def:crs:OGC:1.3:CRS84" } },
"features": [
{ "type": "Feature", "properties": { "fid": 1, "id": 1, "cluster_id": "186", "column": null, "row": "E" }, "geometry": { "type": "Point", "coordinates": [ 120.976582424640739, 14.305710080076373 ] } },
{ "type": "Feature", "properties": { "fid": 2, "id": 2, "cluster_id": "186", "column": null, "row": "E" }, "geometry": { "type": "Point", "coordinates": [ 120.976587022163741, 14.305710485740168 ] } },
{ "type": "Feature", "properties": { "fid": 3, "id": 3, "cluster_id": "186", "column": null, "row": "E" }, "geometry": { "type": "Point", "coordinates": [ 120.976591619686729, 14.305711026625225 ] } },
{ "type": "Feature", "properties": { "fid": 4, "id": 4, "cluster_id": "186", "column": null, "row": "E" }, "geometry": { "type": "Point", "coordinates": [ 120.976597163758584, 14.305711432289019 ] } },
{ "type": "Feature", "properties": { "fid": 5, "id": 5, "cluster_id": "186", "column": null, "row": "E" }, "geometry": { "type": "Point", "coordinates": [ 120.97660094995399, 14.305711702731548 ] } },
{ "type": "Feature", "properties": { "fid": 6, "id": 6, "cluster_id": "186", "column": null, "row": "E" }, "geometry": { "type": "Point", "coordinates": [ 120.976604736149397, 14.305711837952813 ] } },
{ "type": "Feature", "properties": { "fid": 7, "id": 7, "cluster_id": "186", "column": null, "row": "E" }, "geometry": { "type": "Point", "coordinates": [ 120.976608251902277, 14.305712108395342 ] } },
{ "type": "Feature", "properties": { "fid": 8, "id": 8, "cluster_id": "186", "column": null, "row": "E" }, "geometry": { "type": "Point", "coordinates": [ 120.976611091548833, 14.305712108395342 ] } },
{ "type": "Feature", "properties": { "fid": 9, "id": 9, "cluster_id": "186", "column": null, "row": "E" }, "geometry": { "type": "Point", "coordinates": [ 120.976615148186767, 14.305713325386723 ] } },
{ "type": "Feature", "properties": { "fid": 10, "id": 10, "cluster_id": "186", "column": null, "row": "E" }, "geometry": { "type": "Point", "coordinates": [ 120.976618663939647, 14.305712784501665 ] } },
{ "type": "Feature", "properties": { "fid": 11, "id": 11, "cluster_id": "186", "column": null, "row": "E" }, "geometry": { "type": "Point", "coordinates": [ 120.976622179692527, 14.305714542378103 ] } },
{ "type": "Feature", "properties": { "fid": 12, "id": 12, "cluster_id": "186", "column": null, "row": "E" }, "geometry": { "type": "Point", "coordinates": [ 120.976624884117811, 14.305714677599369 ] } },
{ "type": "Feature", "properties": { "fid": 13, "id": 13, "cluster_id": "186", "column": null, "row": "E" }, "geometry": { "type": "Point", "coordinates": [ 120.97662826464942, 14.305714812820632 ] } },
{ "type": "Feature", "properties": { "fid": 14, "id": 14, "cluster_id": "186", "column": null, "row": "E" }, "geometry": { "type": "Point", "coordinates": [ 120.976630698632192, 14.305715083263161 ] } },
{ "type": "Feature", "properties": { "fid": 15, "id": 15, "cluster_id": "186", "column": null, "row": "E" }, "geometry": { "type": "Point", "coordinates": [ 120.976634349606329, 14.305715353705692 ] } },
{ "type": "Feature", "properties": { "fid": 16, "id": 16, "cluster_id": "186", "column": null, "row": "E" }, "geometry": { "type": "Point", "coordinates": [ 120.976637730137938, 14.305716029812015 ] } },
{ "type": "Feature", "properties": { "fid": 17, "id": 17, "cluster_id": "186", "column": null, "row": "E" }, "geometry": { "type": "Point", "coordinates": [ 120.976640705005764, 14.305716029812015 ] } },
{ "type": "Feature", "properties": { "fid": 18, "id": 18, "cluster_id": "186", "column": null, "row": "E" }, "geometry": { "type": "Point", "coordinates": [ 120.976644626422441, 14.305716300254543 ] } },
{ "type": "Feature", "properties": { "fid": 19, "id": 19, "cluster_id": "186", "column": null, "row": "E" }, "geometry": { "type": "Point", "coordinates": [ 120.976648547839105, 14.305716300254543 ] } },
{ "type": "Feature", "properties": { "fid": 20, "id": 20, "cluster_id": "186", "column": null, "row": "E" }, "geometry": { "type": "Point", "coordinates": [ 120.976651928370728, 14.305716570697072 ] } },
{ "type": "Feature", "properties": { "fid": 21, "id": 21, "cluster_id": "186", "column": null, "row": "E" }, "geometry": { "type": "Point", "coordinates": [ 120.976655173681067, 14.30571711158213 ] } },
{ "type": "Feature", "properties": { "fid": 22, "id": 22, "cluster_id": "186", "column": null, "row": "E" }, "geometry": { "type": "Point", "coordinates": [ 120.976657337221297, 14.305716976360866 ] } },
{ "type": "Feature", "properties": { "fid": 23, "id": 23, "cluster_id": "186", "column": null, "row": "E" }, "geometry": { "type": "Point", "coordinates": [ 120.976660176867867, 14.305717246803395 ] } },
{ "type": "Feature", "properties": { "fid": 24, "id": 24, "cluster_id": "186", "column": null, "row": "E" }, "geometry": { "type": "Point", "coordinates": [ 120.976663016514422, 14.305718058130982 ] } },
{ "type": "Feature", "properties": { "fid": 25, "id": 25, "cluster_id": "186", "column": null, "row": "E" }, "geometry": { "type": "Point", "coordinates": [ 120.976665720939707, 14.305717787688453 ] } },
{ "type": "Feature", "properties": { "fid": 26, "id": 26, "cluster_id": "186", "column": null, "row": "E" }, "geometry": { "type": "Point", "coordinates": [ 120.976667749258681, 14.305718058130982 ] } },
{ "type": "Feature", "properties": { "fid": 27, "id": 27, "cluster_id": "186", "column": null, "row": "E" }, "geometry": { "type": "Point", "coordinates": [ 120.976670048020168, 14.305717922909718 ] } },
{ "type": "Feature", "properties": { "fid": 28, "id": 28, "cluster_id": "186", "column": null, "row": "E" }, "geometry": { "type": "Point", "coordinates": [ 120.97667248200294, 14.305718463794776 ] } },
{ "type": "Feature", "properties": { "fid": 29, "id": 29, "cluster_id": "186", "column": null, "row": "E" }, "geometry": { "type": "Point", "coordinates": [ 120.976674780764426, 14.305718734237304 ] } },
{ "type": "Feature", "properties": { "fid": 30, "id": 30, "cluster_id": "186", "column": null, "row": "E" }, "geometry": { "type": "Point", "coordinates": [ 120.976676944304671, 14.305719004679833 ] } },
{ "type": "Feature", "properties": { "fid": 31, "id": 31, "cluster_id": "186", "column": null, "row": "E" }, "geometry": { "type": "Point", "coordinates": [ 120.976678296517306, 14.305718734237304 ] } },
{ "type": "Feature", "properties": { "fid": 32, "id": 32, "cluster_id": "186", "column": null, "row": "E" }, "geometry": { "type": "Point", "coordinates": [ 120.976681000942605, 14.305719410343627 ] } },
{ "type": "Feature", "properties": { "fid": 33, "id": 33, "cluster_id": "186", "column": null, "row": "E" }, "geometry": { "type": "Point", "coordinates": [ 120.976682488376511, 14.305719816007421 ] } },
{ "type": "Feature", "properties": { "fid": 34, "id": 34, "cluster_id": "186", "column": null, "row": "E" }, "geometry": { "type": "Point", "coordinates": [ 120.976684922359269, 14.305716300254543 ] } },
{ "type": "Feature", "properties": { "fid": 35, "id": 35, "cluster_id": "186", "column": null, "row": "E" }, "geometry": { "type": "Point", "coordinates": [ 120.976685057580539, 14.3057126492804 ] } }
]
}
