{
"type": "FeatureCollection",
"name": "cltr-id-177-b-row",
"crs": { "type": "name", "properties": { "name": "urn:ogc:def:crs:OGC:1.3:CRS84" } },
"features": [
{ "type": "Feature", "properties": { "fid": 1, "id": 1, "cluster_id": "177", "column": null, "row": "B" }, "geometry": { "type": "Point", "coordinates": [ 120.976384802701361, 14.30560429789195 ] } },
{ "type": "Feature", "properties": { "fid": 2, "id": 2, "cluster_id": "177", "column": null, "row": "B" }, "geometry": { "type": "Point", "coordinates": [ 120.976396673978371, 14.305604509879041 ] } },
{ "type": "Feature", "properties": { "fid": 3, "id": 3, "cluster_id": "177", "column": null, "row": "B" }, "geometry": { "type": "Point", "coordinates": [ 120.976407273332825, 14.305605569814487 ] } },
{ "type": "Feature", "properties": { "fid": 4, "id": 4, "cluster_id": "177", "column": null, "row": "B" }, "geometry": { "type": "Point", "coordinates": [ 120.976415540829308, 14.305606841737022 ] } },
{ "type": "Feature", "properties": { "fid": 5, "id": 5, "cluster_id": "177", "column": null, "row": "B" }, "geometry": { "type": "Point", "coordinates": [ 120.976423808325791, 14.305607053724112 ] } },
{ "type": "Feature", "properties": { "fid": 6, "id": 6, "cluster_id": "177", "column": null, "row": "B" }, "geometry": { "type": "Point", "coordinates": [ 120.976431227873917, 14.305607901672467 ] } },
{ "type": "Feature", "properties": { "fid": 7, "id": 7, "cluster_id": "177", "column": null, "row": "B" }, "geometry": { "type": "Point", "coordinates": [ 120.976440131331671, 14.305608961607915 ] } },
{ "type": "Feature", "properties": { "fid": 8, "id": 8, "cluster_id": "177", "column": null, "row": "B" }, "geometry": { "type": "Point", "coordinates": [ 120.97644861081524, 14.305609597569184 ] } },
{ "type": "Feature", "properties": { "fid": 9, "id": 9, "cluster_id": "177", "column": null, "row": "B" }, "geometry": { "type": "Point", "coordinates": [ 120.976456242350451, 14.305610445517541 ] } },
{ "type": "Feature", "properties": { "fid": 10, "id": 10, "cluster_id": "177", "column": null, "row": "B" }, "geometry": { "type": "Point", "coordinates": [ 120.976464297859835, 14.305611293465898 ] } },
{ "type": "Feature", "properties": { "fid": 11, "id": 11, "cluster_id": "177", "column": null, "row": "B" }, "geometry": { "type": "Point", "coordinates": [ 120.976472777343403, 14.305612141414255 ] } },
{ "type": "Feature", "properties": { "fid": 12, "id": 12, "cluster_id": "177", "column": null, "row": "B" }, "geometry": { "type": "Point", "coordinates": [ 120.976480408878629, 14.305612141414255 ] } },
{ "type": "Feature", "properties": { "fid": 13, "id": 13, "cluster_id": "177", "column": null, "row": "B" }, "geometry": { "type": "Point", "coordinates": [ 120.976489312336369, 14.305612989362611 ] } }
]
}
