{
"type": "FeatureCollection",
"name": "cltr-id-202-b-row",
"crs": { "type": "name", "properties": { "name": "urn:ogc:def:crs:OGC:1.3:CRS84" } },
"features": [
{ "type": "Feature", "properties": { "fid": 1, "id": 1, "cluster_id": "202", "column": null, "row": "B" }, "geometry": { "type": "Point", "coordinates": [ 120.976607519453651, 14.305648396642866 ] } },
{ "type": "Feature", "properties": { "fid": 2, "id": 2, "cluster_id": "202", "column": null, "row": "B" }, "geometry": { "type": "Point", "coordinates": [ 120.976615227065736, 14.305648802306658 ] } },
{ "type": "Feature", "properties": { "fid": 3, "id": 3, "cluster_id": "202", "column": null, "row": "B" }, "geometry": { "type": "Point", "coordinates": [ 120.976624827775524, 14.30564974885551 ] } },
{ "type": "Feature", "properties": { "fid": 4, "id": 4, "cluster_id": "202", "column": null, "row": "B" }, "geometry": { "type": "Point", "coordinates": [ 120.976634428485298, 14.305650560183098 ] } },
{ "type": "Feature", "properties": { "fid": 5, "id": 5, "cluster_id": "202", "column": null, "row": "B" }, "geometry": { "type": "Point", "coordinates": [ 120.976644434858883, 14.305650830625627 ] } },
{ "type": "Feature", "properties": { "fid": 6, "id": 6, "cluster_id": "202", "column": null, "row": "B" }, "geometry": { "type": "Point", "coordinates": [ 120.976652953798549, 14.305651641953215 ] } },
{ "type": "Feature", "properties": { "fid": 7, "id": 7, "cluster_id": "202", "column": null, "row": "B" }, "geometry": { "type": "Point", "coordinates": [ 120.976660390968092, 14.305652047617007 ] } },
{ "type": "Feature", "properties": { "fid": 8, "id": 8, "cluster_id": "202", "column": null, "row": "B" }, "geometry": { "type": "Point", "coordinates": [ 120.976668639465231, 14.305652858944596 ] } },
{ "type": "Feature", "properties": { "fid": 9, "id": 9, "cluster_id": "202", "column": null, "row": "B" }, "geometry": { "type": "Point", "coordinates": [ 120.976677834511221, 14.30565326460839 ] } },
{ "type": "Feature", "properties": { "fid": 10, "id": 10, "cluster_id": "202", "column": null, "row": "B" }, "geometry": { "type": "Point", "coordinates": [ 120.976687029557212, 14.305653940714711 ] } }
]
}
