{
"type": "FeatureCollection",
"name": "cltr-id-152-c-row",
"crs": { "type": "name", "properties": { "name": "urn:ogc:def:crs:OGC:1.3:CRS84" } },
"features": [
{ "type": "Feature", "properties": { "fid": 1, "id": 1, "cluster_id": "152", "column": null, "row": "C" }, "geometry": { "type": "Point", "coordinates": [ 120.97602951866233, 14.305795657608172 ] } },
{ "type": "Feature", "properties": { "fid": 2, "id": 2, "cluster_id": "152", "column": null, "row": "C" }, "geometry": { "type": "Point", "coordinates": [ 120.976038493347744, 14.305795657608172 ] } },
{ "type": "Feature", "properties": { "fid": 3, "id": 3, "cluster_id": "152", "column": null, "row": "C" }, "geometry": { "type": "Point", "coordinates": [ 120.976044663443972, 14.305797340361686 ] } },
{ "type": "Feature", "properties": { "fid": 4, "id": 4, "cluster_id": "152", "column": null, "row": "C" }, "geometry": { "type": "Point", "coordinates": [ 120.976053077211546, 14.305799584033039 ] } },
{ "type": "Feature", "properties": { "fid": 5, "id": 5, "cluster_id": "152", "column": null, "row": "C" }, "geometry": { "type": "Point", "coordinates": [ 120.976059247307759, 14.305798462197362 ] } },
{ "type": "Feature", "properties": { "fid": 6, "id": 6, "cluster_id": "152", "column": null, "row": "C" }, "geometry": { "type": "Point", "coordinates": [ 120.976068782911014, 14.305798462197362 ] } },
{ "type": "Feature", "properties": { "fid": 7, "id": 7, "cluster_id": "152", "column": null, "row": "C" }, "geometry": { "type": "Point", "coordinates": [ 120.976076074842908, 14.305800144950878 ] } },
{ "type": "Feature", "properties": { "fid": 8, "id": 8, "cluster_id": "152", "column": null, "row": "C" }, "geometry": { "type": "Point", "coordinates": [ 120.976083927692642, 14.305802388622229 ] } },
{ "type": "Feature", "properties": { "fid": 9, "id": 9, "cluster_id": "152", "column": null, "row": "C" }, "geometry": { "type": "Point", "coordinates": [ 120.976090658706696, 14.305803510457906 ] } },
{ "type": "Feature", "properties": { "fid": 10, "id": 10, "cluster_id": "152", "column": null, "row": "C" }, "geometry": { "type": "Point", "coordinates": [ 120.97609963339211, 14.305803510457906 ] } },
{ "type": "Feature", "properties": { "fid": 11, "id": 11, "cluster_id": "152", "column": null, "row": "C" }, "geometry": { "type": "Point", "coordinates": [ 120.976106364406164, 14.305807997800612 ] } },
{ "type": "Feature", "properties": { "fid": 12, "id": 12, "cluster_id": "152", "column": null, "row": "C" }, "geometry": { "type": "Point", "coordinates": [ 120.976117582762939, 14.305804632293583 ] } },
{ "type": "Feature", "properties": { "fid": 13, "id": 13, "cluster_id": "152", "column": null, "row": "C" }, "geometry": { "type": "Point", "coordinates": [ 120.976124874694833, 14.305806875964935 ] } },
{ "type": "Feature", "properties": { "fid": 14, "id": 14, "cluster_id": "152", "column": null, "row": "C" }, "geometry": { "type": "Point", "coordinates": [ 120.976135532133753, 14.305806875964935 ] } },
{ "type": "Feature", "properties": { "fid": 15, "id": 15, "cluster_id": "152", "column": null, "row": "C" }, "geometry": { "type": "Point", "coordinates": [ 120.976142263147821, 14.305810241471965 ] } },
{ "type": "Feature", "properties": { "fid": 16, "id": 16, "cluster_id": "152", "column": null, "row": "C" }, "geometry": { "type": "Point", "coordinates": [ 120.976154042422422, 14.30580855871845 ] } },
{ "type": "Feature", "properties": { "fid": 17, "id": 17, "cluster_id": "152", "column": null, "row": "C" }, "geometry": { "type": "Point", "coordinates": [ 120.976159651600796, 14.305806875964935 ] } },
{ "type": "Feature", "properties": { "fid": 18, "id": 18, "cluster_id": "152", "column": null, "row": "C" }, "geometry": { "type": "Point", "coordinates": [ 120.97616862628621, 14.305811924225479 ] } },
{ "type": "Feature", "properties": { "fid": 19, "id": 19, "cluster_id": "152", "column": null, "row": "C" }, "geometry": { "type": "Point", "coordinates": [ 120.976177600971624, 14.30581136330764 ] } },
{ "type": "Feature", "properties": { "fid": 20, "id": 20, "cluster_id": "152", "column": null, "row": "C" }, "geometry": { "type": "Point", "coordinates": [ 120.976186014739199, 14.30581136330764 ] } },
{ "type": "Feature", "properties": { "fid": 21, "id": 21, "cluster_id": "152", "column": null, "row": "C" }, "geometry": { "type": "Point", "coordinates": [ 120.976194428506773, 14.305813046061155 ] } },
{ "type": "Feature", "properties": { "fid": 22, "id": 22, "cluster_id": "152", "column": null, "row": "C" }, "geometry": { "type": "Point", "coordinates": [ 120.976201720438667, 14.305814728814671 ] } },
{ "type": "Feature", "properties": { "fid": 23, "id": 23, "cluster_id": "152", "column": null, "row": "C" }, "geometry": { "type": "Point", "coordinates": [ 120.976210695124081, 14.305812485143317 ] } },
{ "type": "Feature", "properties": { "fid": 24, "id": 24, "cluster_id": "152", "column": null, "row": "C" }, "geometry": { "type": "Point", "coordinates": [ 120.976217426138135, 14.305814728814671 ] } },
{ "type": "Feature", "properties": { "fid": 25, "id": 25, "cluster_id": "152", "column": null, "row": "C" }, "geometry": { "type": "Point", "coordinates": [ 120.976225278987869, 14.305813046061155 ] } },
{ "type": "Feature", "properties": { "fid": 26, "id": 26, "cluster_id": "152", "column": null, "row": "C" }, "geometry": { "type": "Point", "coordinates": [ 120.976232570919763, 14.305814728814671 ] } },
{ "type": "Feature", "properties": { "fid": 27, "id": 27, "cluster_id": "152", "column": null, "row": "C" }, "geometry": { "type": "Point", "coordinates": [ 120.976243228358697, 14.305813606978994 ] } },
{ "type": "Feature", "properties": { "fid": 28, "id": 28, "cluster_id": "152", "column": null, "row": "C" }, "geometry": { "type": "Point", "coordinates": [ 120.976252203044098, 14.305816972486022 ] } },
{ "type": "Feature", "properties": { "fid": 29, "id": 29, "cluster_id": "152", "column": null, "row": "C" }, "geometry": { "type": "Point", "coordinates": [ 120.976260616811672, 14.305814167896832 ] } },
{ "type": "Feature", "properties": { "fid": 30, "id": 30, "cluster_id": "152", "column": null, "row": "C" }, "geometry": { "type": "Point", "coordinates": [ 120.976269030579246, 14.305816972486022 ] } },
{ "type": "Feature", "properties": { "fid": 31, "id": 31, "cluster_id": "152", "column": null, "row": "C" }, "geometry": { "type": "Point", "coordinates": [ 120.976279127100341, 14.305817533403861 ] } },
{ "type": "Feature", "properties": { "fid": 32, "id": 32, "cluster_id": "152", "column": null, "row": "C" }, "geometry": { "type": "Point", "coordinates": [ 120.976289223621421, 14.305820898910891 ] } },
{ "type": "Feature", "properties": { "fid": 33, "id": 33, "cluster_id": "152", "column": null, "row": "C" }, "geometry": { "type": "Point", "coordinates": [ 120.976299881060356, 14.305821459828728 ] } },
{ "type": "Feature", "properties": { "fid": 34, "id": 34, "cluster_id": "152", "column": null, "row": "C" }, "geometry": { "type": "Point", "coordinates": [ 120.976311099417117, 14.305820337993053 ] } },
{ "type": "Feature", "properties": { "fid": 35, "id": 35, "cluster_id": "152", "column": null, "row": "C" }, "geometry": { "type": "Point", "coordinates": [ 120.976332975212799, 14.305822581664405 ] } },
{ "type": "Feature", "properties": { "fid": 36, "id": 36, "cluster_id": "152", "column": null, "row": "C" }, "geometry": { "type": "Point", "coordinates": [ 120.976335779802, 14.305815289732509 ] } }
]
}
