{
"type": "FeatureCollection",
"name": "cltr-id-157-c-row",
"crs": { "type": "name", "properties": { "name": "urn:ogc:def:crs:OGC:1.3:CRS84" } },
"features": [
{ "type": "Feature", "properties": { "fid": 1, "id": 1, "cluster_id": "157", "column": null, "rows": "C" }, "geometry": { "type": "Point", "coordinates": [ 120.97640547144259, 14.305535402087935 ] } },
{ "type": "Feature", "properties": { "fid": 2, "id": 2, "cluster_id": "157", "column": null, "rows": "C" }, "geometry": { "type": "Point", "coordinates": [ 120.976406425384496, 14.305527452572086 ] } },
{ "type": "Feature", "properties": { "fid": 3, "id": 3, "cluster_id": "157", "column": null, "rows": "C" }, "geometry": { "type": "Point", "coordinates": [ 120.976412255029459, 14.305522364881943 ] } },
{ "type": "Feature", "properties": { "fid": 4, "id": 4, "cluster_id": "157", "column": null, "rows": "C" }, "geometry": { "type": "Point", "coordinates": [ 120.976419250603399, 14.305523000843213 ] } },
{ "type": "Feature", "properties": { "fid": 5, "id": 5, "cluster_id": "157", "column": null, "rows": "C" }, "geometry": { "type": "Point", "coordinates": [ 120.97642635217089, 14.305522894849668 ] } },
{ "type": "Feature", "properties": { "fid": 6, "id": 6, "cluster_id": "157", "column": null, "rows": "C" }, "geometry": { "type": "Point", "coordinates": [ 120.97643546761573, 14.305523848791569 ] } },
{ "type": "Feature", "properties": { "fid": 7, "id": 7, "cluster_id": "157", "column": null, "rows": "C" }, "geometry": { "type": "Point", "coordinates": [ 120.976444371073484, 14.305524166772203 ] } },
{ "type": "Feature", "properties": { "fid": 8, "id": 8, "cluster_id": "157", "column": null, "rows": "C" }, "geometry": { "type": "Point", "coordinates": [ 120.976454440460216, 14.305525120714105 ] } },
{ "type": "Feature", "properties": { "fid": 9, "id": 9, "cluster_id": "157", "column": null, "rows": "C" }, "geometry": { "type": "Point", "coordinates": [ 120.976461330040621, 14.305525968662462 ] } },
{ "type": "Feature", "properties": { "fid": 10, "id": 10, "cluster_id": "157", "column": null, "rows": "C" }, "geometry": { "type": "Point", "coordinates": [ 120.976469597537104, 14.305525756675372 ] } },
{ "type": "Feature", "properties": { "fid": 11, "id": 11, "cluster_id": "157", "column": null, "rows": "C" }, "geometry": { "type": "Point", "coordinates": [ 120.976479030962579, 14.305526816610818 ] } },
{ "type": "Feature", "properties": { "fid": 12, "id": 12, "cluster_id": "157", "column": null, "rows": "C" }, "geometry": { "type": "Point", "coordinates": [ 120.976489418329948, 14.305527558565631 ] } },
{ "type": "Feature", "properties": { "fid": 13, "id": 13, "cluster_id": "157", "column": null, "rows": "C" }, "geometry": { "type": "Point", "coordinates": [ 120.976499275729608, 14.305527982539809 ] } },
{ "type": "Feature", "properties": { "fid": 14, "id": 14, "cluster_id": "157", "column": null, "rows": "C" }, "geometry": { "type": "Point", "coordinates": [ 120.976508603161534, 14.305528300520443 ] } },
{ "type": "Feature", "properties": { "fid": 15, "id": 15, "cluster_id": "157", "column": null, "rows": "C" }, "geometry": { "type": "Point", "coordinates": [ 120.976517294632188, 14.305528512507532 ] } }
]
}
