{
"type": "FeatureCollection",
"name": "cltr-id-191-d-row",
"crs": { "type": "name", "properties": { "name": "urn:ogc:def:crs:OGC:1.3:CRS84" } },
"features": [
{ "type": "Feature", "properties": { "fid": 1, "id": 1, "cluster_id": "191", "column": null, "row": "D" }, "geometry": { "type": "Point", "coordinates": [ 120.9767845804312, 14.305433417369096 ] } },
{ "type": "Feature", "properties": { "fid": 2, "id": 2, "cluster_id": "191", "column": null, "row": "D" }, "geometry": { "type": "Point", "coordinates": [ 120.976784039546146, 14.305424222323108 ] } },
{ "type": "Feature", "properties": { "fid": 3, "id": 3, "cluster_id": "191", "column": null, "row": "D" }, "geometry": { "type": "Point", "coordinates": [ 120.976792423264541, 14.305422058782874 ] } },
{ "type": "Feature", "properties": { "fid": 4, "id": 4, "cluster_id": "191", "column": null, "row": "D" }, "geometry": { "type": "Point", "coordinates": [ 120.976802159195586, 14.305421788340345 ] } },
{ "type": "Feature", "properties": { "fid": 5, "id": 5, "cluster_id": "191", "column": null, "row": "D" }, "geometry": { "type": "Point", "coordinates": [ 120.976810542913995, 14.305421517897816 ] } },
{ "type": "Feature", "properties": { "fid": 6, "id": 6, "cluster_id": "191", "column": null, "row": "D" }, "geometry": { "type": "Point", "coordinates": [ 120.976821360615162, 14.305421517897816 ] } },
{ "type": "Feature", "properties": { "fid": 7, "id": 7, "cluster_id": "191", "column": null, "row": "D" }, "geometry": { "type": "Point", "coordinates": [ 120.976830826103679, 14.305424492765637 ] } },
{ "type": "Feature", "properties": { "fid": 8, "id": 8, "cluster_id": "191", "column": null, "row": "D" }, "geometry": { "type": "Point", "coordinates": [ 120.97683866893702, 14.305424222323108 ] } },
{ "type": "Feature", "properties": { "fid": 9, "id": 9, "cluster_id": "191", "column": null, "row": "D" }, "geometry": { "type": "Point", "coordinates": [ 120.976849486638187, 14.305425033650694 ] } },
{ "type": "Feature", "properties": { "fid": 10, "id": 10, "cluster_id": "191", "column": null, "row": "D" }, "geometry": { "type": "Point", "coordinates": [ 120.976858411241651, 14.30542638586334 ] } },
{ "type": "Feature", "properties": { "fid": 11, "id": 11, "cluster_id": "191", "column": null, "row": "D" }, "geometry": { "type": "Point", "coordinates": [ 120.976867606287641, 14.30542638586334 ] } },
{ "type": "Feature", "properties": { "fid": 12, "id": 12, "cluster_id": "191", "column": null, "row": "D" }, "geometry": { "type": "Point", "coordinates": [ 120.976878423988794, 14.305428819846101 ] } },
{ "type": "Feature", "properties": { "fid": 13, "id": 13, "cluster_id": "191", "column": null, "row": "D" }, "geometry": { "type": "Point", "coordinates": [ 120.976888971247433, 14.305430442501276 ] } },
{ "type": "Feature", "properties": { "fid": 14, "id": 14, "cluster_id": "191", "column": null, "row": "D" }, "geometry": { "type": "Point", "coordinates": [ 120.97689762540837, 14.305430172058747 ] } },
{ "type": "Feature", "properties": { "fid": 15, "id": 15, "cluster_id": "191", "column": null, "row": "D" }, "geometry": { "type": "Point", "coordinates": [ 120.976907631781941, 14.305432876484039 ] } },
{ "type": "Feature", "properties": { "fid": 16, "id": 16, "cluster_id": "191", "column": null, "row": "D" }, "geometry": { "type": "Point", "coordinates": [ 120.976917367712986, 14.305434228696685 ] } },
{ "type": "Feature", "properties": { "fid": 17, "id": 17, "cluster_id": "191", "column": null, "row": "D" }, "geometry": { "type": "Point", "coordinates": [ 120.976926562758976, 14.3054353104668 ] } },
{ "type": "Feature", "properties": { "fid": 18, "id": 18, "cluster_id": "191", "column": null, "row": "D" }, "geometry": { "type": "Point", "coordinates": [ 120.976935216919912, 14.305434769581742 ] } },
{ "type": "Feature", "properties": { "fid": 19, "id": 19, "cluster_id": "191", "column": null, "row": "D" }, "geometry": { "type": "Point", "coordinates": [ 120.976944411965903, 14.305436662679446 ] } },
{ "type": "Feature", "properties": { "fid": 20, "id": 20, "cluster_id": "191", "column": null, "row": "D" }, "geometry": { "type": "Point", "coordinates": [ 120.976954959224543, 14.305436392236917 ] } },
{ "type": "Feature", "properties": { "fid": 21, "id": 21, "cluster_id": "191", "column": null, "row": "D" }, "geometry": { "type": "Point", "coordinates": [ 120.976964965598114, 14.305439096662209 ] } },
{ "type": "Feature", "properties": { "fid": 22, "id": 22, "cluster_id": "191", "column": null, "row": "D" }, "geometry": { "type": "Point", "coordinates": [ 120.976973890201577, 14.305438014892092 ] } },
{ "type": "Feature", "properties": { "fid": 23, "id": 23, "cluster_id": "191", "column": null, "row": "D" }, "geometry": { "type": "Point", "coordinates": [ 120.976985519230325, 14.305439096662209 ] } },
{ "type": "Feature", "properties": { "fid": 24, "id": 24, "cluster_id": "191", "column": null, "row": "D" }, "geometry": { "type": "Point", "coordinates": [ 120.976995796046438, 14.305439096662209 ] } },
{ "type": "Feature", "properties": { "fid": 25, "id": 25, "cluster_id": "191", "column": null, "row": "D" }, "geometry": { "type": "Point", "coordinates": [ 120.977001745782076, 14.30544153064497 ] } },
{ "type": "Feature", "properties": { "fid": 26, "id": 26, "cluster_id": "191", "column": null, "row": "D" }, "geometry": { "type": "Point", "coordinates": [ 120.977015538351054, 14.305441801087499 ] } },
{ "type": "Feature", "properties": { "fid": 27, "id": 27, "cluster_id": "191", "column": null, "row": "D" }, "geometry": { "type": "Point", "coordinates": [ 120.977023651626922, 14.305442612415085 ] } },
{ "type": "Feature", "properties": { "fid": 28, "id": 28, "cluster_id": "191", "column": null, "row": "D" }, "geometry": { "type": "Point", "coordinates": [ 120.977032305787858, 14.305444775955319 ] } },
{ "type": "Feature", "properties": { "fid": 29, "id": 29, "cluster_id": "191", "column": null, "row": "D" }, "geometry": { "type": "Point", "coordinates": [ 120.977042582603971, 14.305444235070262 ] } },
{ "type": "Feature", "properties": { "fid": 30, "id": 30, "cluster_id": "191", "column": null, "row": "D" }, "geometry": { "type": "Point", "coordinates": [ 120.977052048092489, 14.305445857725436 ] } },
{ "type": "Feature", "properties": { "fid": 31, "id": 31, "cluster_id": "191", "column": null, "row": "D" }, "geometry": { "type": "Point", "coordinates": [ 120.97706205446606, 14.305445316840377 ] } },
{ "type": "Feature", "properties": { "fid": 32, "id": 32, "cluster_id": "191", "column": null, "row": "D" }, "geometry": { "type": "Point", "coordinates": [ 120.977070979069524, 14.305446669053023 ] } },
{ "type": "Feature", "properties": { "fid": 33, "id": 33, "cluster_id": "191", "column": null, "row": "D" }, "geometry": { "type": "Point", "coordinates": [ 120.977079092345392, 14.305448562150726 ] } },
{ "type": "Feature", "properties": { "fid": 34, "id": 34, "cluster_id": "191", "column": null, "row": "D" }, "geometry": { "type": "Point", "coordinates": [ 120.977087476063801, 14.305449643920843 ] } },
{ "type": "Feature", "properties": { "fid": 35, "id": 35, "cluster_id": "191", "column": null, "row": "D" }, "geometry": { "type": "Point", "coordinates": [ 120.977094237127019, 14.305451266576018 ] } },
{ "type": "Feature", "properties": { "fid": 36, "id": 36, "cluster_id": "191", "column": null, "row": "D" }, "geometry": { "type": "Point", "coordinates": [ 120.977101268632765, 14.305451537018548 ] } }
]
}
