{
"type": "FeatureCollection",
"name": "cltr-id-169-a-row",
"crs": { "type": "name", "properties": { "name": "urn:ogc:def:crs:OGC:1.3:CRS84" } },
"features": [
{ "type": "Feature", "properties": { "fid": 1, "id": 1, "cluster_id": "169", "column": null, "row": "A" }, "geometry": { "type": "Point", "coordinates": [ 120.976036062703741, 14.305698992767383 ] } },
{ "type": "Feature", "properties": { "fid": 2, "id": 2, "cluster_id": "169", "column": null, "row": "A" }, "geometry": { "type": "Point", "coordinates": [ 120.976044663443929, 14.305700114603059 ] } },
{ "type": "Feature", "properties": { "fid": 3, "id": 3, "cluster_id": "169", "column": null, "row": "A" }, "geometry": { "type": "Point", "coordinates": [ 120.97605401207457, 14.305700862493511 ] } },
{ "type": "Feature", "properties": { "fid": 4, "id": 4, "cluster_id": "169", "column": null, "row": "A" }, "geometry": { "type": "Point", "coordinates": [ 120.976062612814758, 14.305701610383961 ] } },
{ "type": "Feature", "properties": { "fid": 5, "id": 5, "cluster_id": "169", "column": null, "row": "A" }, "geometry": { "type": "Point", "coordinates": [ 120.976071213554931, 14.305702732219638 ] } },
{ "type": "Feature", "properties": { "fid": 6, "id": 6, "cluster_id": "169", "column": null, "row": "A" }, "geometry": { "type": "Point", "coordinates": [ 120.97608205796648, 14.305702732219638 ] } },
{ "type": "Feature", "properties": { "fid": 7, "id": 7, "cluster_id": "169", "column": null, "row": "A" }, "geometry": { "type": "Point", "coordinates": [ 120.976091780542333, 14.305703854055315 ] } },
{ "type": "Feature", "properties": { "fid": 8, "id": 8, "cluster_id": "169", "column": null, "row": "A" }, "geometry": { "type": "Point", "coordinates": [ 120.976100381282521, 14.30570497589099 ] } },
{ "type": "Feature", "properties": { "fid": 9, "id": 9, "cluster_id": "169", "column": null, "row": "A" }, "geometry": { "type": "Point", "coordinates": [ 120.976111599639282, 14.305705349836217 ] } },
{ "type": "Feature", "properties": { "fid": 10, "id": 10, "cluster_id": "169", "column": null, "row": "A" }, "geometry": { "type": "Point", "coordinates": [ 120.976122070105603, 14.305706471671892 ] } },
{ "type": "Feature", "properties": { "fid": 11, "id": 11, "cluster_id": "169", "column": null, "row": "A" }, "geometry": { "type": "Point", "coordinates": [ 120.976130670845791, 14.305706471671892 ] } },
{ "type": "Feature", "properties": { "fid": 12, "id": 12, "cluster_id": "169", "column": null, "row": "A" }, "geometry": { "type": "Point", "coordinates": [ 120.976140393421645, 14.305707219562343 ] } },
{ "type": "Feature", "properties": { "fid": 13, "id": 13, "cluster_id": "169", "column": null, "row": "A" }, "geometry": { "type": "Point", "coordinates": [ 120.976148246271379, 14.305707593507568 ] } },
{ "type": "Feature", "properties": { "fid": 14, "id": 14, "cluster_id": "169", "column": null, "row": "A" }, "geometry": { "type": "Point", "coordinates": [ 120.976156847011566, 14.305707967452793 ] } },
{ "type": "Feature", "properties": { "fid": 15, "id": 15, "cluster_id": "169", "column": null, "row": "A" }, "geometry": { "type": "Point", "coordinates": [ 120.976166195642207, 14.30570834139802 ] } },
{ "type": "Feature", "properties": { "fid": 16, "id": 16, "cluster_id": "169", "column": null, "row": "A" }, "geometry": { "type": "Point", "coordinates": [ 120.976174422437168, 14.305709837178922 ] } },
{ "type": "Feature", "properties": { "fid": 17, "id": 17, "cluster_id": "169", "column": null, "row": "A" }, "geometry": { "type": "Point", "coordinates": [ 120.976183771067809, 14.305709463233697 ] } },
{ "type": "Feature", "properties": { "fid": 18, "id": 18, "cluster_id": "169", "column": null, "row": "A" }, "geometry": { "type": "Point", "coordinates": [ 120.97619386758889, 14.305710585069372 ] } },
{ "type": "Feature", "properties": { "fid": 19, "id": 19, "cluster_id": "169", "column": null, "row": "A" }, "geometry": { "type": "Point", "coordinates": [ 120.976202842274304, 14.305712080850274 ] } },
{ "type": "Feature", "properties": { "fid": 20, "id": 20, "cluster_id": "169", "column": null, "row": "A" }, "geometry": { "type": "Point", "coordinates": [ 120.976212564850172, 14.305712080850274 ] } },
{ "type": "Feature", "properties": { "fid": 21, "id": 21, "cluster_id": "169", "column": null, "row": "A" }, "geometry": { "type": "Point", "coordinates": [ 120.976221913480799, 14.305713202685951 ] } },
{ "type": "Feature", "properties": { "fid": 22, "id": 22, "cluster_id": "169", "column": null, "row": "A" }, "geometry": { "type": "Point", "coordinates": [ 120.976230888166214, 14.305713202685951 ] } },
{ "type": "Feature", "properties": { "fid": 23, "id": 23, "cluster_id": "169", "column": null, "row": "A" }, "geometry": { "type": "Point", "coordinates": [ 120.976239488906401, 14.305715072412077 ] } },
{ "type": "Feature", "properties": { "fid": 24, "id": 24, "cluster_id": "169", "column": null, "row": "A" }, "geometry": { "type": "Point", "coordinates": [ 120.976248089646589, 14.305715072412077 ] } },
{ "type": "Feature", "properties": { "fid": 25, "id": 25, "cluster_id": "169", "column": null, "row": "A" }, "geometry": { "type": "Point", "coordinates": [ 120.976256690386776, 14.305715072412077 ] } },
{ "type": "Feature", "properties": { "fid": 26, "id": 26, "cluster_id": "169", "column": null, "row": "A" }, "geometry": { "type": "Point", "coordinates": [ 120.976263795346057, 14.305716568192979 ] } },
{ "type": "Feature", "properties": { "fid": 27, "id": 27, "cluster_id": "169", "column": null, "row": "A" }, "geometry": { "type": "Point", "coordinates": [ 120.976271648195791, 14.305716942138206 ] } },
{ "type": "Feature", "properties": { "fid": 28, "id": 28, "cluster_id": "169", "column": null, "row": "A" }, "geometry": { "type": "Point", "coordinates": [ 120.976279874990752, 14.305716568192979 ] } },
{ "type": "Feature", "properties": { "fid": 29, "id": 29, "cluster_id": "169", "column": null, "row": "A" }, "geometry": { "type": "Point", "coordinates": [ 120.976289223621393, 14.305718063973883 ] } },
{ "type": "Feature", "properties": { "fid": 30, "id": 30, "cluster_id": "169", "column": null, "row": "A" }, "geometry": { "type": "Point", "coordinates": [ 120.976295954635447, 14.305718063973883 ] } },
{ "type": "Feature", "properties": { "fid": 31, "id": 31, "cluster_id": "169", "column": null, "row": "A" }, "geometry": { "type": "Point", "coordinates": [ 120.976303807485181, 14.305719185809558 ] } },
{ "type": "Feature", "properties": { "fid": 32, "id": 32, "cluster_id": "169", "column": null, "row": "A" }, "geometry": { "type": "Point", "coordinates": [ 120.976312034280141, 14.305719559754785 ] } },
{ "type": "Feature", "properties": { "fid": 33, "id": 33, "cluster_id": "169", "column": null, "row": "A" }, "geometry": { "type": "Point", "coordinates": [ 120.976319887129875, 14.305720307645235 ] } },
{ "type": "Feature", "properties": { "fid": 34, "id": 34, "cluster_id": "169", "column": null, "row": "A" }, "geometry": { "type": "Point", "coordinates": [ 120.976328113924836, 14.305720307645235 ] } }
]
}
