{
"type": "FeatureCollection",
"name": "cltr-id-204-b-row",
"crs": { "type": "name", "properties": { "name": "urn:ogc:def:crs:OGC:1.3:CRS84" } },
"features": [
{ "type": "Feature", "properties": { "fid": 1, "id": 1, "cluster_id": "204", "column": null, "row": "B" }, "geometry": { "type": "Point", "coordinates": [ 120.976590267474094, 14.305774039734509 ] } },
{ "type": "Feature", "properties": { "fid": 2, "id": 2, "cluster_id": "204", "column": null, "row": "B" }, "geometry": { "type": "Point", "coordinates": [ 120.976599192077558, 14.305774580619566 ] } },
{ "type": "Feature", "properties": { "fid": 3, "id": 3, "cluster_id": "204", "column": null, "row": "B" }, "geometry": { "type": "Point", "coordinates": [ 120.976606223583318, 14.305775121504626 ] } },
{ "type": "Feature", "properties": { "fid": 4, "id": 4, "cluster_id": "204", "column": null, "row": "B" }, "geometry": { "type": "Point", "coordinates": [ 120.976614336859186, 14.30577647371727 ] } },
{ "type": "Feature", "properties": { "fid": 5, "id": 5, "cluster_id": "204", "column": null, "row": "B" }, "geometry": { "type": "Point", "coordinates": [ 120.976623531905176, 14.305777285044858 ] } },
{ "type": "Feature", "properties": { "fid": 6, "id": 6, "cluster_id": "204", "column": null, "row": "B" }, "geometry": { "type": "Point", "coordinates": [ 120.976635972261519, 14.305777825929916 ] } },
{ "type": "Feature", "properties": { "fid": 7, "id": 7, "cluster_id": "204", "column": null, "row": "B" }, "geometry": { "type": "Point", "coordinates": [ 120.976646249077618, 14.305778366814973 ] } },
{ "type": "Feature", "properties": { "fid": 8, "id": 8, "cluster_id": "204", "column": null, "row": "B" }, "geometry": { "type": "Point", "coordinates": [ 120.976655444123608, 14.305779989470148 ] } },
{ "type": "Feature", "properties": { "fid": 9, "id": 9, "cluster_id": "204", "column": null, "row": "B" }, "geometry": { "type": "Point", "coordinates": [ 120.976667073152356, 14.305780530355207 ] } },
{ "type": "Feature", "properties": { "fid": 10, "id": 10, "cluster_id": "204", "column": null, "row": "B" }, "geometry": { "type": "Point", "coordinates": [ 120.976677620410996, 14.305781341682794 ] } }
]
}
