{
"type": "FeatureCollection",
"name": "cltr-id-218-a-row",
"crs": { "type": "name", "properties": { "name": "urn:ogc:def:crs:OGC:1.3:CRS84" } },
"features": [
{ "type": "Feature", "properties": { "id": 1, "cluster_id": "218", "column": null, "row": "a" }, "geometry": { "type": "Point", "coordinates": [ 120.975861259666459, 14.304785444685503 ] } },
{ "type": "Feature", "properties": { "id": 2, "cluster_id": "218", "column": null, "row": "a" }, "geometry": { "type": "Point", "coordinates": [ 120.975859777763333, 14.304786661597975 ] } },
{ "type": "Feature", "properties": { "id": 3, "cluster_id": "218", "column": null, "row": "a" }, "geometry": { "type": "Point", "coordinates": [ 120.975858446562228, 14.304788194907671 ] } },
{ "type": "Feature", "properties": { "id": 4, "cluster_id": "218", "column": null, "row": "a" }, "geometry": { "type": "Point", "coordinates": [ 120.975856989776119, 14.304789752555617 ] } },
{ "type": "Feature", "properties": { "id": 5, "cluster_id": "218", "column": null, "row": "a" }, "geometry": { "type": "Point", "coordinates": [ 120.975855683692046, 14.304791164174055 ] } },
{ "type": "Feature", "properties": { "id": 6, "cluster_id": "218", "column": null, "row": "a" }, "geometry": { "type": "Point", "coordinates": [ 120.975853975735916, 14.30479301388096 ] } },
{ "type": "Feature", "properties": { "id": 7, "cluster_id": "218", "column": null, "row": "a" }, "geometry": { "type": "Point", "coordinates": [ 120.975852167311814, 14.304795106970333 ] } },
{ "type": "Feature", "properties": { "id": 8, "cluster_id": "218", "column": null, "row": "a" }, "geometry": { "type": "Point", "coordinates": [ 120.975850760759727, 14.304796664618227 ] } },
{ "type": "Feature", "properties": { "id": 9, "cluster_id": "218", "column": null, "row": "a" }, "geometry": { "type": "Point", "coordinates": [ 120.975849303973618, 14.304798222266111 ] } },
{ "type": "Feature", "properties": { "id": 10, "cluster_id": "218", "column": null, "row": "a" }, "geometry": { "type": "Point", "coordinates": [ 120.975848349527553, 14.304799536531503 ] } }
]
}
