{
    "type": "FeatureCollection",
    "name": "cltr-id-212-b-row",
    "crs": {
        "type": "name",
        "properties": { "name": "urn:ogc:def:crs:OGC:1.3:CRS84" }
    },
    "features": [
        {
            "type": "Feature",
            "properties": {
                "fid": 1,
                "id": 1,
                "cluster_id": 212,
                "column": null,
                "row": "B"
            },
            "geometry": {
                "type": "Point",
                "coordinates": [120.976728463606293, 14.305652746260201]
            }
        },
        {
            "type": "Feature",
            "properties": {
                "fid": 2,
                "id": 2,
                "cluster_id": 212,
                "column": null,
                "row": "B"
            },
            "geometry": {
                "type": "Point",
                "coordinates": [120.976738740422405, 14.30565328714526]
            }
        },
        {
            "type": "Feature",
            "properties": {
                "fid": 3,
                "id": 3,
                "cluster_id": 212,
                "column": null,
                "row": "B"
            },
            "geometry": {
                "type": "Point",
                "coordinates": [120.976746853698273, 14.305654909800435]
            }
        },
        {
            "type": "Feature",
            "properties": {
                "fid": 4,
                "id": 4,
                "cluster_id": 212,
                "column": null,
                "row": "B"
            },
            "geometry": {
                "type": "Point",
                "coordinates": [120.976754426089087, 14.305656532455609]
            }
        },
        {
            "type": "Feature",
            "properties": {
                "fid": 5,
                "id": 5,
                "cluster_id": 212,
                "column": null,
                "row": "B"
            },
            "geometry": {
                "type": "Point",
                "coordinates": [120.976764162020132, 14.305655450685492]
            }
        },
        {
            "type": "Feature",
            "properties": {
                "fid": 6,
                "id": 6,
                "cluster_id": 212,
                "column": null,
                "row": "B"
            },
            "geometry": {
                "type": "Point",
                "coordinates": [120.976775520606353, 14.305656532455609]
            }
        },
        {
            "type": "Feature",
            "properties": {
                "fid": 7,
                "id": 7,
                "cluster_id": 212,
                "column": null,
                "row": "B"
            },
            "geometry": {
                "type": "Point",
                "coordinates": [120.976786338307519, 14.305658695995842]
            }
        },
        {
            "type": "Feature",
            "properties": {
                "fid": 8,
                "id": 8,
                "cluster_id": 212,
                "column": null,
                "row": "B"
            },
            "geometry": {
                "type": "Point",
                "coordinates": [120.97679769689374, 14.305659777765957]
            }
        },
        {
            "type": "Feature",
            "properties": {
                "fid": 9,
                "id": 9,
                "cluster_id": 212,
                "column": null,
                "row": "B"
            },
            "geometry": {
                "type": "Point",
                "coordinates": [120.976806891939731, 14.305658695995842]
            }
        },
        {
            "type": "Feature",
            "properties": {
                "fid": 10,
                "id": 10,
                "cluster_id": 212,
                "column": null,
                "row": "B"
            },
            "geometry": {
                "type": "Point",
                "coordinates": [120.976819332296074, 14.305660859536074]
            }
        },
        {
            "type": "Feature",
            "properties": {
                "fid": 11,
                "id": 11,
                "cluster_id": 212,
                "column": null,
                "row": "B"
            },
            "geometry": {
                "type": "Point",
                "coordinates": [120.976829068227119, 14.305661400421132]
            }
        },
        {
            "type": "Feature",
            "properties": {
                "fid": 12,
                "id": 12,
                "cluster_id": 212,
                "column": null,
                "row": "B"
            },
            "geometry": {
                "type": "Point",
                "coordinates": [120.97684259035357, 14.305663563961366]
            }
        },
        {
            "type": "Feature",
            "properties": {
                "fid": 13,
                "id": 13,
                "cluster_id": 212,
                "column": null,
                "row": "B"
            },
            "geometry": {
                "type": "Point",
                "coordinates": [120.976854489824859, 14.305663563961366]
            }
        },
        {
            "type": "Feature",
            "properties": {
                "fid": 14,
                "id": 14,
                "cluster_id": 212,
                "column": null,
                "row": "B"
            },
            "geometry": {
                "type": "Point",
                "coordinates": [120.976864225755904, 14.305666268386654]
            }
        },
        {
            "type": "Feature",
            "properties": {
                "fid": 15,
                "id": 15,
                "cluster_id": 212,
                "column": null,
                "row": "B"
            },
            "geometry": {
                "type": "Point",
                "coordinates": [120.976878829652478, 14.305666268386656]
            }
        },
        {
            "type": "Feature",
            "properties": {
                "fid": 16,
                "id": 16,
                "cluster_id": 212,
                "column": null,
                "row": "B"
            },
            "geometry": {
                "type": "Point",
                "coordinates": [120.976890729123753, 14.305666268386656]
            }
        },
        {
            "type": "Feature",
            "properties": {
                "fid": 17,
                "id": 17,
                "cluster_id": 212,
                "column": null,
                "row": "B"
            },
            "geometry": {
                "type": "Point",
                "coordinates": [120.976901546824919, 14.305667350156773]
            }
        },
        {
            "type": "Feature",
            "properties": {
                "fid": 18,
                "id": 18,
                "cluster_id": 212,
                "column": null,
                "row": "B"
            },
            "geometry": {
                "type": "Point",
                "coordinates": [120.976909119215733, 14.305667350156773]
            }
        },
        {
            "type": "Feature",
            "properties": {
                "fid": 19,
                "id": 19,
                "cluster_id": 212,
                "column": null,
                "row": "B"
            },
            "geometry": {
                "type": "Point",
                "coordinates": [120.976917232491616, 14.305668972811947]
            }
        },
        {
            "type": "Feature",
            "properties": {
                "fid": 20,
                "id": 20,
                "cluster_id": 212,
                "column": null,
                "row": "B"
            },
            "geometry": {
                "type": "Point",
                "coordinates": [120.976926427537606, 14.305669513697005]
            }
        },
        {
            "type": "Feature",
            "properties": {
                "fid": 21,
                "id": 21,
                "cluster_id": 212,
                "column": null,
                "row": "B"
            },
            "geometry": {
                "type": "Point",
                "coordinates": [120.976934540813474, 14.305670595467122]
            }
        },
        {
            "type": "Feature",
            "properties": {
                "fid": 22,
                "id": 22,
                "cluster_id": 212,
                "column": null,
                "row": "B"
            },
            "geometry": {
                "type": "Point",
                "coordinates": [120.976943735859464, 14.305670054582064]
            }
        },
        {
            "type": "Feature",
            "properties": {
                "fid": 23,
                "id": 23,
                "cluster_id": 212,
                "column": null,
                "row": "B"
            },
            "geometry": {
                "type": "Point",
                "coordinates": [120.976952930905455, 14.305671677237239]
            }
        },
        {
            "type": "Feature",
            "properties": {
                "fid": 24,
                "id": 24,
                "cluster_id": 212,
                "column": null,
                "row": "B"
            },
            "geometry": {
                "type": "Point",
                "coordinates": [120.976958339756024, 14.305672218122297]
            }
        },
        {
            "type": "Feature",
            "properties": {
                "fid": 25,
                "id": 25,
                "cluster_id": 212,
                "column": null,
                "row": "B"
            },
            "geometry": {
                "type": "Point",
                "coordinates": [120.976966993916975, 14.305673299892414]
            }
        },
        {
            "type": "Feature",
            "properties": {
                "fid": 26,
                "id": 26,
                "cluster_id": 212,
                "column": null,
                "row": "B"
            },
            "geometry": {
                "type": "Point",
                "coordinates": [120.976976729848019, 14.305674922547587]
            }
        },
        {
            "type": "Feature",
            "properties": {
                "fid": 27,
                "id": 27,
                "cluster_id": 212,
                "column": null,
                "row": "B"
            },
            "geometry": {
                "type": "Point",
                "coordinates": [120.976987006664118, 14.305674922547588]
            }
        },
        {
            "type": "Feature",
            "properties": {
                "fid": 28,
                "id": 28,
                "cluster_id": 212,
                "column": null,
                "row": "B"
            },
            "geometry": {
                "type": "Point",
                "coordinates": [120.976992415514701, 14.305678708742995]
            }
        },
        {
            "type": "Feature",
            "properties": {
                "fid": 29,
                "id": 29,
                "cluster_id": 212,
                "column": null,
                "row": "B"
            },
            "geometry": {
                "type": "Point",
                "coordinates": [120.977000528790583, 14.305676545202763]
            }
        },
        {
            "type": "Feature",
            "properties": {
                "fid": 30,
                "id": 30,
                "cluster_id": 212,
                "column": null,
                "row": "B"
            },
            "geometry": {
                "type": "Point",
                "coordinates": [120.977009723836559, 14.305676004317704]
            }
        },
        {
            "type": "Feature",
            "properties": {
                "fid": 31,
                "id": 31,
                "cluster_id": 212,
                "column": null,
                "row": "B"
            },
            "geometry": {
                "type": "Point",
                "coordinates": [120.977016214457265, 14.305677086087821]
            }
        },
        {
            "type": "Feature",
            "properties": {
                "fid": 32,
                "id": 32,
                "cluster_id": 212,
                "column": null,
                "row": "B"
            },
            "geometry": {
                "type": "Point",
                "coordinates": [120.977024327733133, 14.305676004317705]
            }
        },
        {
            "type": "Feature",
            "properties": {
                "fid": 33,
                "id": 33,
                "cluster_id": 212,
                "column": null,
                "row": "B"
            },
            "geometry": {
                "type": "Point",
                "coordinates": [120.977030818353825, 14.305678167857938]
            }
        },
        {
            "type": "Feature",
            "properties": {
                "fid": 34,
                "id": 34,
                "cluster_id": 212,
                "column": null,
                "row": "B"
            },
            "geometry": {
                "type": "Point",
                "coordinates": [120.977038390744653, 14.305679790513112]
            }
        },
        {
            "type": "Feature",
            "properties": {
                "fid": 35,
                "id": 35,
                "cluster_id": 212,
                "column": null,
                "row": "B"
            },
            "geometry": {
                "type": "Point",
                "coordinates": [120.977043258710168, 14.305678708742995]
            }
        }
    ]
}
