{
"type": "FeatureCollection",
"name": "cltr-id-213-b-row",
"crs": { "type": "name", "properties": { "name": "urn:ogc:def:crs:OGC:1.3:CRS84" } },
"features": [
{ "type": "Feature", "properties": { "fid": 1, "id": 1, "cluster_id": "213", "column": null, "row": "B" }, "geometry": { "type": "Point", "coordinates": [ 120.976730627146523, 14.305635437938339 ] } },
{ "type": "Feature", "properties": { "fid": 2, "id": 2, "cluster_id": "213", "column": null, "row": "B" }, "geometry": { "type": "Point", "coordinates": [ 120.976739822192513, 14.305637601478571 ] } },
{ "type": "Feature", "properties": { "fid": 3, "id": 3, "cluster_id": "213", "column": null, "row": "B" }, "geometry": { "type": "Point", "coordinates": [ 120.976751180778734, 14.305638683248688 ] } },
{ "type": "Feature", "properties": { "fid": 4, "id": 4, "cluster_id": "213", "column": null, "row": "B" }, "geometry": { "type": "Point", "coordinates": [ 120.976761998479901, 14.305640305903863 ] } },
{ "type": "Feature", "properties": { "fid": 5, "id": 5, "cluster_id": "213", "column": null, "row": "B" }, "geometry": { "type": "Point", "coordinates": [ 120.976772816181068, 14.305640846788922 ] } },
{ "type": "Feature", "properties": { "fid": 6, "id": 6, "cluster_id": "213", "column": null, "row": "B" }, "geometry": { "type": "Point", "coordinates": [ 120.976784715652343, 14.305641387673978 ] } },
{ "type": "Feature", "properties": { "fid": 7, "id": 7, "cluster_id": "213", "column": null, "row": "B" }, "geometry": { "type": "Point", "coordinates": [ 120.976794451583402, 14.305643010329153 ] } },
{ "type": "Feature", "properties": { "fid": 8, "id": 8, "cluster_id": "213", "column": null, "row": "B" }, "geometry": { "type": "Point", "coordinates": [ 120.976803105744324, 14.30564409209927 ] } },
{ "type": "Feature", "properties": { "fid": 9, "id": 9, "cluster_id": "213", "column": null, "row": "B" }, "geometry": { "type": "Point", "coordinates": [ 120.976810678135138, 14.305646255639502 ] } },
{ "type": "Feature", "properties": { "fid": 10, "id": 10, "cluster_id": "213", "column": null, "row": "B" }, "geometry": { "type": "Point", "coordinates": [ 120.976822577606427, 14.305646255639502 ] } },
{ "type": "Feature", "properties": { "fid": 11, "id": 11, "cluster_id": "213", "column": null, "row": "B" }, "geometry": { "type": "Point", "coordinates": [ 120.976830690882295, 14.305647337409619 ] } },
{ "type": "Feature", "properties": { "fid": 12, "id": 12, "cluster_id": "213", "column": null, "row": "B" }, "geometry": { "type": "Point", "coordinates": [ 120.976840426813339, 14.305647337409619 ] } },
{ "type": "Feature", "properties": { "fid": 13, "id": 13, "cluster_id": "213", "column": null, "row": "B" }, "geometry": { "type": "Point", "coordinates": [ 120.976849080974276, 14.305649500949851 ] } },
{ "type": "Feature", "properties": { "fid": 14, "id": 14, "cluster_id": "213", "column": null, "row": "B" }, "geometry": { "type": "Point", "coordinates": [ 120.976860980445551, 14.305649500949851 ] } },
{ "type": "Feature", "properties": { "fid": 15, "id": 15, "cluster_id": "213", "column": null, "row": "B" }, "geometry": { "type": "Point", "coordinates": [ 120.976869093721433, 14.305651123605026 ] } },
{ "type": "Feature", "properties": { "fid": 16, "id": 16, "cluster_id": "213", "column": null, "row": "B" }, "geometry": { "type": "Point", "coordinates": [ 120.976878829652478, 14.305650582719968 ] } },
{ "type": "Feature", "properties": { "fid": 17, "id": 17, "cluster_id": "213", "column": null, "row": "B" }, "geometry": { "type": "Point", "coordinates": [ 120.976887483813414, 14.305651664490085 ] } },
{ "type": "Feature", "properties": { "fid": 18, "id": 18, "cluster_id": "213", "column": null, "row": "B" }, "geometry": { "type": "Point", "coordinates": [ 120.976897219744458, 14.30565328714526 ] } },
{ "type": "Feature", "properties": { "fid": 19, "id": 19, "cluster_id": "213", "column": null, "row": "B" }, "geometry": { "type": "Point", "coordinates": [ 120.976905333020326, 14.30565328714526 ] } },
{ "type": "Feature", "properties": { "fid": 20, "id": 20, "cluster_id": "213", "column": null, "row": "B" }, "geometry": { "type": "Point", "coordinates": [ 120.976914528066317, 14.305653828030318 ] } },
{ "type": "Feature", "properties": { "fid": 21, "id": 21, "cluster_id": "213", "column": null, "row": "B" }, "geometry": { "type": "Point", "coordinates": [ 120.976921559572077, 14.305653828030318 ] } },
{ "type": "Feature", "properties": { "fid": 22, "id": 22, "cluster_id": "213", "column": null, "row": "B" }, "geometry": { "type": "Point", "coordinates": [ 120.976929672847945, 14.30565599157055 ] } },
{ "type": "Feature", "properties": { "fid": 23, "id": 23, "cluster_id": "213", "column": null, "row": "B" }, "geometry": { "type": "Point", "coordinates": [ 120.976937786123827, 14.30565599157055 ] } },
{ "type": "Feature", "properties": { "fid": 24, "id": 24, "cluster_id": "213", "column": null, "row": "B" }, "geometry": { "type": "Point", "coordinates": [ 120.976944276744518, 14.305657073340667 ] } },
{ "type": "Feature", "properties": { "fid": 25, "id": 25, "cluster_id": "213", "column": null, "row": "B" }, "geometry": { "type": "Point", "coordinates": [ 120.976952930905455, 14.305657073340667 ] } },
{ "type": "Feature", "properties": { "fid": 26, "id": 26, "cluster_id": "213", "column": null, "row": "B" }, "geometry": { "type": "Point", "coordinates": [ 120.976958880641092, 14.305657614225725 ] } },
{ "type": "Feature", "properties": { "fid": 27, "id": 27, "cluster_id": "213", "column": null, "row": "B" }, "geometry": { "type": "Point", "coordinates": [ 120.976968616572151, 14.30565869599584 ] } },
{ "type": "Feature", "properties": { "fid": 28, "id": 28, "cluster_id": "213", "column": null, "row": "B" }, "geometry": { "type": "Point", "coordinates": [ 120.976976729848005, 14.305658695995842 ] } },
{ "type": "Feature", "properties": { "fid": 29, "id": 29, "cluster_id": "213", "column": null, "row": "B" }, "geometry": { "type": "Point", "coordinates": [ 120.976987547549172, 14.305659236880899 ] } },
{ "type": "Feature", "properties": { "fid": 30, "id": 30, "cluster_id": "213", "column": null, "row": "B" }, "geometry": { "type": "Point", "coordinates": [ 120.976996201710108, 14.305659777765959 ] } },
{ "type": "Feature", "properties": { "fid": 31, "id": 31, "cluster_id": "213", "column": null, "row": "B" }, "geometry": { "type": "Point", "coordinates": [ 120.977003774100922, 14.305660859536074 ] } },
{ "type": "Feature", "properties": { "fid": 32, "id": 32, "cluster_id": "213", "column": null, "row": "B" }, "geometry": { "type": "Point", "coordinates": [ 120.977012428261858, 14.305661400421132 ] } },
{ "type": "Feature", "properties": { "fid": 33, "id": 33, "cluster_id": "213", "column": null, "row": "B" }, "geometry": { "type": "Point", "coordinates": [ 120.97702108242278, 14.305661941306191 ] } },
{ "type": "Feature", "properties": { "fid": 34, "id": 34, "cluster_id": "213", "column": null, "row": "B" }, "geometry": { "type": "Point", "coordinates": [ 120.977030277468785, 14.305663023076308 ] } },
{ "type": "Feature", "properties": { "fid": 35, "id": 35, "cluster_id": "213", "column": null, "row": "B" }, "geometry": { "type": "Point", "coordinates": [ 120.977042717825114, 14.305665727501598 ] } }
]
}
