{
"type": "FeatureCollection",
"name": "cltr-id-167-b-row",
"crs": { "type": "name", "properties": { "name": "urn:ogc:def:crs:OGC:1.3:CRS84" } },
"features": [
{ "type": "Feature", "properties": { "fid": 1, "id": 1, "cluster_id": "167", "column": null, "row": "B" }, "geometry": { "type": "Point", "coordinates": [ 120.976045769510975, 14.305576233608269 ] } },
{ "type": "Feature", "properties": { "fid": 2, "id": 2, "cluster_id": "167", "column": null, "row": "B" }, "geometry": { "type": "Point", "coordinates": [ 120.976055492086843, 14.305577729389171 ] } },
{ "type": "Feature", "properties": { "fid": 3, "id": 3, "cluster_id": "167", "column": null, "row": "B" }, "geometry": { "type": "Point", "coordinates": [ 120.976064092827031, 14.305578477279621 ] } },
{ "type": "Feature", "properties": { "fid": 4, "id": 4, "cluster_id": "167", "column": null, "row": "B" }, "geometry": { "type": "Point", "coordinates": [ 120.976073815402884, 14.305579599115298 ] } },
{ "type": "Feature", "properties": { "fid": 5, "id": 5, "cluster_id": "167", "column": null, "row": "B" }, "geometry": { "type": "Point", "coordinates": [ 120.976081668252618, 14.305579973060523 ] } },
{ "type": "Feature", "properties": { "fid": 6, "id": 6, "cluster_id": "167", "column": null, "row": "B" }, "geometry": { "type": "Point", "coordinates": [ 120.976091016883259, 14.305580720950974 ] } },
{ "type": "Feature", "properties": { "fid": 7, "id": 7, "cluster_id": "167", "column": null, "row": "B" }, "geometry": { "type": "Point", "coordinates": [ 120.97609924367822, 14.305581094896199 ] } },
{ "type": "Feature", "properties": { "fid": 8, "id": 8, "cluster_id": "167", "column": null, "row": "B" }, "geometry": { "type": "Point", "coordinates": [ 120.976107470473181, 14.305583338567551 ] } },
{ "type": "Feature", "properties": { "fid": 9, "id": 9, "cluster_id": "167", "column": null, "row": "B" }, "geometry": { "type": "Point", "coordinates": [ 120.976116071213369, 14.305582964622326 ] } },
{ "type": "Feature", "properties": { "fid": 10, "id": 10, "cluster_id": "167", "column": null, "row": "B" }, "geometry": { "type": "Point", "coordinates": [ 120.976123924063103, 14.305584460403228 ] } },
{ "type": "Feature", "properties": { "fid": 11, "id": 11, "cluster_id": "167", "column": null, "row": "B" }, "geometry": { "type": "Point", "coordinates": [ 120.97613252480329, 14.305584460403228 ] } },
{ "type": "Feature", "properties": { "fid": 12, "id": 12, "cluster_id": "167", "column": null, "row": "B" }, "geometry": { "type": "Point", "coordinates": [ 120.976141499488691, 14.305584834348455 ] } },
{ "type": "Feature", "properties": { "fid": 13, "id": 13, "cluster_id": "167", "column": null, "row": "B" }, "geometry": { "type": "Point", "coordinates": [ 120.976150474174105, 14.305585582238905 ] } },
{ "type": "Feature", "properties": { "fid": 14, "id": 14, "cluster_id": "167", "column": null, "row": "B" }, "geometry": { "type": "Point", "coordinates": [ 120.976159448859519, 14.305587078019807 ] } },
{ "type": "Feature", "properties": { "fid": 15, "id": 15, "cluster_id": "167", "column": null, "row": "B" }, "geometry": { "type": "Point", "coordinates": [ 120.976168797490161, 14.305588199855483 ] } },
{ "type": "Feature", "properties": { "fid": 16, "id": 16, "cluster_id": "167", "column": null, "row": "B" }, "geometry": { "type": "Point", "coordinates": [ 120.976177398230348, 14.305588947745935 ] } },
{ "type": "Feature", "properties": { "fid": 17, "id": 17, "cluster_id": "167", "column": null, "row": "B" }, "geometry": { "type": "Point", "coordinates": [ 120.976185251080082, 14.30558932169116 ] } },
{ "type": "Feature", "properties": { "fid": 18, "id": 18, "cluster_id": "167", "column": null, "row": "B" }, "geometry": { "type": "Point", "coordinates": [ 120.976192729984589, 14.30559006958161 ] } },
{ "type": "Feature", "properties": { "fid": 19, "id": 19, "cluster_id": "167", "column": null, "row": "B" }, "geometry": { "type": "Point", "coordinates": [ 120.976201330724777, 14.30559081747206 ] } },
{ "type": "Feature", "properties": { "fid": 20, "id": 20, "cluster_id": "167", "column": null, "row": "B" }, "geometry": { "type": "Point", "coordinates": [ 120.976209931464965, 14.305590817472062 ] } },
{ "type": "Feature", "properties": { "fid": 21, "id": 21, "cluster_id": "167", "column": null, "row": "B" }, "geometry": { "type": "Point", "coordinates": [ 120.976217784314713, 14.305591191417289 ] } },
{ "type": "Feature", "properties": { "fid": 22, "id": 22, "cluster_id": "167", "column": null, "row": "B" }, "geometry": { "type": "Point", "coordinates": [ 120.976227132945326, 14.305591565362514 ] } },
{ "type": "Feature", "properties": { "fid": 23, "id": 23, "cluster_id": "167", "column": null, "row": "B" }, "geometry": { "type": "Point", "coordinates": [ 120.976236481575967, 14.305592313252964 ] } },
{ "type": "Feature", "properties": { "fid": 24, "id": 24, "cluster_id": "167", "column": null, "row": "B" }, "geometry": { "type": "Point", "coordinates": [ 120.976246578097062, 14.305593809033866 ] } },
{ "type": "Feature", "properties": { "fid": 25, "id": 25, "cluster_id": "167", "column": null, "row": "B" }, "geometry": { "type": "Point", "coordinates": [ 120.976258170399035, 14.305594930869542 ] } },
{ "type": "Feature", "properties": { "fid": 26, "id": 26, "cluster_id": "167", "column": null, "row": "B" }, "geometry": { "type": "Point", "coordinates": [ 120.976267145084449, 14.305596426650443 ] } },
{ "type": "Feature", "properties": { "fid": 27, "id": 27, "cluster_id": "167", "column": null, "row": "B" }, "geometry": { "type": "Point", "coordinates": [ 120.976276119769864, 14.305597174540894 ] } },
{ "type": "Feature", "properties": { "fid": 28, "id": 28, "cluster_id": "167", "column": null, "row": "B" }, "geometry": { "type": "Point", "coordinates": [ 120.976284720510037, 14.305597174540896 ] } },
{ "type": "Feature", "properties": { "fid": 29, "id": 29, "cluster_id": "167", "column": null, "row": "B" }, "geometry": { "type": "Point", "coordinates": [ 120.976295190976373, 14.305599044267021 ] } },
{ "type": "Feature", "properties": { "fid": 30, "id": 30, "cluster_id": "167", "column": null, "row": "B" }, "geometry": { "type": "Point", "coordinates": [ 120.976303791716546, 14.305598296376571 ] } },
{ "type": "Feature", "properties": { "fid": 31, "id": 31, "cluster_id": "167", "column": null, "row": "B" }, "geometry": { "type": "Point", "coordinates": [ 120.976314262182868, 14.305600166102698 ] } },
{ "type": "Feature", "properties": { "fid": 32, "id": 32, "cluster_id": "167", "column": null, "row": "B" }, "geometry": { "type": "Point", "coordinates": [ 120.976322488977829, 14.305599792157473 ] } },
{ "type": "Feature", "properties": { "fid": 33, "id": 33, "cluster_id": "167", "column": null, "row": "B" }, "geometry": { "type": "Point", "coordinates": [ 120.976331089718016, 14.305600913993151 ] } },
{ "type": "Feature", "properties": { "fid": 34, "id": 34, "cluster_id": "167", "column": null, "row": "B" }, "geometry": { "type": "Point", "coordinates": [ 120.976338194677297, 14.305602035828825 ] } }
]
}
