{
"type": "FeatureCollection",
"name": "cltr-id-164-b-row",
"crs": { "type": "name", "properties": { "name": "urn:ogc:def:crs:OGC:1.3:CRS84" } },
"features": [
{ "type": "Feature", "properties": { "fid": 1, "id": 1, "cluster_id": "164", "column": null, "rows": "B" }, "geometry": { "type": "Point", "coordinates": [ 120.97605583711244, 14.305457946522369 ] } },
{ "type": "Feature", "properties": { "fid": 2, "id": 2, "cluster_id": "164", "column": null, "rows": "B" }, "geometry": { "type": "Point", "coordinates": [ 120.976065559688308, 14.305459068358044 ] } },
{ "type": "Feature", "properties": { "fid": 3, "id": 3, "cluster_id": "164", "column": null, "rows": "B" }, "geometry": { "type": "Point", "coordinates": [ 120.976075656209389, 14.305460564138945 ] } },
{ "type": "Feature", "properties": { "fid": 4, "id": 4, "cluster_id": "164", "column": null, "rows": "B" }, "geometry": { "type": "Point", "coordinates": [ 120.976084630894803, 14.30546019019372 ] } },
{ "type": "Feature", "properties": { "fid": 5, "id": 5, "cluster_id": "164", "column": null, "rows": "B" }, "geometry": { "type": "Point", "coordinates": [ 120.976093605580218, 14.305462433865074 ] } },
{ "type": "Feature", "properties": { "fid": 6, "id": 6, "cluster_id": "164", "column": null, "rows": "B" }, "geometry": { "type": "Point", "coordinates": [ 120.976103328156071, 14.305463181755524 ] } },
{ "type": "Feature", "properties": { "fid": 7, "id": 7, "cluster_id": "164", "column": null, "rows": "B" }, "geometry": { "type": "Point", "coordinates": [ 120.976112302841486, 14.305463929645976 ] } },
{ "type": "Feature", "properties": { "fid": 8, "id": 8, "cluster_id": "164", "column": null, "rows": "B" }, "geometry": { "type": "Point", "coordinates": [ 120.9761212775269, 14.305464677536426 ] } },
{ "type": "Feature", "properties": { "fid": 9, "id": 9, "cluster_id": "164", "column": null, "rows": "B" }, "geometry": { "type": "Point", "coordinates": [ 120.976130626157541, 14.305465051481653 ] } },
{ "type": "Feature", "properties": { "fid": 10, "id": 10, "cluster_id": "164", "column": null, "rows": "B" }, "geometry": { "type": "Point", "coordinates": [ 120.976139226897729, 14.305466173317328 ] } },
{ "type": "Feature", "properties": { "fid": 11, "id": 11, "cluster_id": "164", "column": null, "rows": "B" }, "geometry": { "type": "Point", "coordinates": [ 120.976148201583129, 14.305466547262554 ] } },
{ "type": "Feature", "properties": { "fid": 12, "id": 12, "cluster_id": "164", "column": null, "rows": "B" }, "geometry": { "type": "Point", "coordinates": [ 120.976155680487651, 14.305466921207779 ] } },
{ "type": "Feature", "properties": { "fid": 13, "id": 13, "cluster_id": "164", "column": null, "rows": "B" }, "geometry": { "type": "Point", "coordinates": [ 120.976163907282611, 14.305467669098229 ] } },
{ "type": "Feature", "properties": { "fid": 14, "id": 14, "cluster_id": "164", "column": null, "rows": "B" }, "geometry": { "type": "Point", "coordinates": [ 120.976171760132345, 14.305468790933906 ] } },
{ "type": "Feature", "properties": { "fid": 15, "id": 15, "cluster_id": "164", "column": null, "rows": "B" }, "geometry": { "type": "Point", "coordinates": [ 120.976179239036853, 14.305469538824358 ] } },
{ "type": "Feature", "properties": { "fid": 16, "id": 16, "cluster_id": "164", "column": null, "rows": "B" }, "geometry": { "type": "Point", "coordinates": [ 120.97618783977704, 14.305469912769583 ] } },
{ "type": "Feature", "properties": { "fid": 17, "id": 17, "cluster_id": "164", "column": null, "rows": "B" }, "geometry": { "type": "Point", "coordinates": [ 120.976196440517228, 14.305470660660035 ] } },
{ "type": "Feature", "properties": { "fid": 18, "id": 18, "cluster_id": "164", "column": null, "rows": "B" }, "geometry": { "type": "Point", "coordinates": [ 120.976204667312189, 14.30547178249571 ] } },
{ "type": "Feature", "properties": { "fid": 19, "id": 19, "cluster_id": "164", "column": null, "rows": "B" }, "geometry": { "type": "Point", "coordinates": [ 120.976213268052362, 14.30547178249571 ] } },
{ "type": "Feature", "properties": { "fid": 20, "id": 20, "cluster_id": "164", "column": null, "rows": "B" }, "geometry": { "type": "Point", "coordinates": [ 120.976221494847323, 14.305474026167063 ] } },
{ "type": "Feature", "properties": { "fid": 21, "id": 21, "cluster_id": "164", "column": null, "rows": "B" }, "geometry": { "type": "Point", "coordinates": [ 120.976230095587511, 14.30547514800274 ] } },
{ "type": "Feature", "properties": { "fid": 22, "id": 22, "cluster_id": "164", "column": null, "rows": "B" }, "geometry": { "type": "Point", "coordinates": [ 120.976238696327698, 14.305476269838417 ] } },
{ "type": "Feature", "properties": { "fid": 23, "id": 23, "cluster_id": "164", "column": null, "rows": "B" }, "geometry": { "type": "Point", "coordinates": [ 120.976247297067886, 14.305477017728867 ] } },
{ "type": "Feature", "properties": { "fid": 24, "id": 24, "cluster_id": "164", "column": null, "rows": "B" }, "geometry": { "type": "Point", "coordinates": [ 120.97625514991762, 14.305476643783642 ] } },
{ "type": "Feature", "properties": { "fid": 25, "id": 25, "cluster_id": "164", "column": null, "rows": "B" }, "geometry": { "type": "Point", "coordinates": [ 120.976264124603034, 14.305477017728867 ] } },
{ "type": "Feature", "properties": { "fid": 26, "id": 26, "cluster_id": "164", "column": null, "rows": "B" }, "geometry": { "type": "Point", "coordinates": [ 120.976271977452768, 14.305478139564544 ] } },
{ "type": "Feature", "properties": { "fid": 27, "id": 27, "cluster_id": "164", "column": null, "rows": "B" }, "geometry": { "type": "Point", "coordinates": [ 120.976280952138183, 14.305478887454994 ] } },
{ "type": "Feature", "properties": { "fid": 28, "id": 28, "cluster_id": "164", "column": null, "rows": "B" }, "geometry": { "type": "Point", "coordinates": [ 120.976289178933143, 14.305478887454994 ] } },
{ "type": "Feature", "properties": { "fid": 29, "id": 29, "cluster_id": "164", "column": null, "rows": "B" }, "geometry": { "type": "Point", "coordinates": [ 120.976297779673331, 14.305480383235896 ] } },
{ "type": "Feature", "properties": { "fid": 30, "id": 30, "cluster_id": "164", "column": null, "rows": "B" }, "geometry": { "type": "Point", "coordinates": [ 120.976306006468292, 14.305480383235896 ] } },
{ "type": "Feature", "properties": { "fid": 31, "id": 31, "cluster_id": "164", "column": null, "rows": "B" }, "geometry": { "type": "Point", "coordinates": [ 120.976314233263253, 14.305481505071572 ] } },
{ "type": "Feature", "properties": { "fid": 32, "id": 32, "cluster_id": "164", "column": null, "rows": "B" }, "geometry": { "type": "Point", "coordinates": [ 120.976322460058213, 14.305481879016799 ] } },
{ "type": "Feature", "properties": { "fid": 33, "id": 33, "cluster_id": "164", "column": null, "rows": "B" }, "geometry": { "type": "Point", "coordinates": [ 120.97633180868884, 14.305483000852474 ] } },
{ "type": "Feature", "properties": { "fid": 34, "id": 34, "cluster_id": "164", "column": null, "rows": "B" }, "geometry": { "type": "Point", "coordinates": [ 120.976341905209935, 14.305483748742926 ] } }
]
}
