{
"type": "FeatureCollection",
"name": "cltr-id-193-b-row",
"crs": { "type": "name", "properties": { "name": "urn:ogc:def:crs:OGC:1.3:CRS84" } },
"features": [
{ "type": "Feature", "properties": { "fid": 1, "id": 1, "cluster_id": "193", "column": null, "row": "B" }, "geometry": { "type": "Point", "coordinates": [ 120.976738064316152, 14.30556782730606 ] } },
{ "type": "Feature", "properties": { "fid": 2, "id": 2, "cluster_id": "193", "column": null, "row": "B" }, "geometry": { "type": "Point", "coordinates": [ 120.976737523431098, 14.305561336685361 ] } },
{ "type": "Feature", "properties": { "fid": 3, "id": 3, "cluster_id": "193", "column": null, "row": "B" }, "geometry": { "type": "Point", "coordinates": [ 120.976743743609262, 14.305553764294546 ] } },
{ "type": "Feature", "properties": { "fid": 4, "id": 4, "cluster_id": "193", "column": null, "row": "B" }, "geometry": { "type": "Point", "coordinates": [ 120.976751316000076, 14.305553493852017 ] } },
{ "type": "Feature", "properties": { "fid": 5, "id": 5, "cluster_id": "193", "column": null, "row": "B" }, "geometry": { "type": "Point", "coordinates": [ 120.976761051931121, 14.305554034737074 ] } },
{ "type": "Feature", "properties": { "fid": 6, "id": 6, "cluster_id": "193", "column": null, "row": "B" }, "geometry": { "type": "Point", "coordinates": [ 120.976767272109299, 14.305554034737074 ] } },
{ "type": "Feature", "properties": { "fid": 7, "id": 7, "cluster_id": "193", "column": null, "row": "B" }, "geometry": { "type": "Point", "coordinates": [ 120.976776196712748, 14.305554846064663 ] } },
{ "type": "Feature", "properties": { "fid": 8, "id": 8, "cluster_id": "193", "column": null, "row": "B" }, "geometry": { "type": "Point", "coordinates": [ 120.976781876005859, 14.305556198277309 ] } },
{ "type": "Feature", "properties": { "fid": 9, "id": 9, "cluster_id": "193", "column": null, "row": "B" }, "geometry": { "type": "Point", "coordinates": [ 120.976789718839214, 14.305555657392249 ] } },
{ "type": "Feature", "properties": { "fid": 10, "id": 10, "cluster_id": "193", "column": null, "row": "B" }, "geometry": { "type": "Point", "coordinates": [ 120.976794586804729, 14.305556468719837 ] } },
{ "type": "Feature", "properties": { "fid": 11, "id": 11, "cluster_id": "193", "column": null, "row": "B" }, "geometry": { "type": "Point", "coordinates": [ 120.976802159195543, 14.305556468719837 ] } },
{ "type": "Feature", "properties": { "fid": 12, "id": 12, "cluster_id": "193", "column": null, "row": "B" }, "geometry": { "type": "Point", "coordinates": [ 120.976807838488654, 14.305557009604895 ] } },
{ "type": "Feature", "properties": { "fid": 13, "id": 13, "cluster_id": "193", "column": null, "row": "B" }, "geometry": { "type": "Point", "coordinates": [ 120.97681649264959, 14.305558361817541 ] } },
{ "type": "Feature", "properties": { "fid": 14, "id": 14, "cluster_id": "193", "column": null, "row": "B" }, "geometry": { "type": "Point", "coordinates": [ 120.976824605925458, 14.305557820932483 ] } },
{ "type": "Feature", "properties": { "fid": 15, "id": 15, "cluster_id": "193", "column": null, "row": "B" }, "geometry": { "type": "Point", "coordinates": [ 120.976831907873745, 14.305559173145127 ] } },
{ "type": "Feature", "properties": { "fid": 16, "id": 16, "cluster_id": "193", "column": null, "row": "B" }, "geometry": { "type": "Point", "coordinates": [ 120.976840832477208, 14.305559443587658 ] } },
{ "type": "Feature", "properties": { "fid": 17, "id": 17, "cluster_id": "193", "column": null, "row": "B" }, "geometry": { "type": "Point", "coordinates": [ 120.976851920620902, 14.305560525357773 ] } },
{ "type": "Feature", "properties": { "fid": 18, "id": 18, "cluster_id": "193", "column": null, "row": "B" }, "geometry": { "type": "Point", "coordinates": [ 120.976863008764596, 14.305560254915244 ] } },
{ "type": "Feature", "properties": { "fid": 19, "id": 19, "cluster_id": "193", "column": null, "row": "B" }, "geometry": { "type": "Point", "coordinates": [ 120.976870310712883, 14.30556160712789 ] } },
{ "type": "Feature", "properties": { "fid": 20, "id": 20, "cluster_id": "193", "column": null, "row": "B" }, "geometry": { "type": "Point", "coordinates": [ 120.976881398856577, 14.305562688898007 ] } },
{ "type": "Feature", "properties": { "fid": 21, "id": 21, "cluster_id": "193", "column": null, "row": "B" }, "geometry": { "type": "Point", "coordinates": [ 120.976889241689918, 14.305562688898007 ] } },
{ "type": "Feature", "properties": { "fid": 22, "id": 22, "cluster_id": "193", "column": null, "row": "B" }, "geometry": { "type": "Point", "coordinates": [ 120.976899788948558, 14.305564852438239 ] } },
{ "type": "Feature", "properties": { "fid": 23, "id": 23, "cluster_id": "193", "column": null, "row": "B" }, "geometry": { "type": "Point", "coordinates": [ 120.976910877092251, 14.305564581995711 ] } },
{ "type": "Feature", "properties": { "fid": 24, "id": 24, "cluster_id": "193", "column": null, "row": "B" }, "geometry": { "type": "Point", "coordinates": [ 120.976917638155484, 14.305565122880768 ] } },
{ "type": "Feature", "properties": { "fid": 25, "id": 25, "cluster_id": "193", "column": null, "row": "B" }, "geometry": { "type": "Point", "coordinates": [ 120.976926562758933, 14.305566204650885 ] } },
{ "type": "Feature", "properties": { "fid": 26, "id": 26, "cluster_id": "193", "column": null, "row": "B" }, "geometry": { "type": "Point", "coordinates": [ 120.976933323822166, 14.305566745535943 ] } },
{ "type": "Feature", "properties": { "fid": 27, "id": 27, "cluster_id": "193", "column": null, "row": "B" }, "geometry": { "type": "Point", "coordinates": [ 120.976945493735968, 14.30556782730606 ] } },
{ "type": "Feature", "properties": { "fid": 28, "id": 28, "cluster_id": "193", "column": null, "row": "B" }, "geometry": { "type": "Point", "coordinates": [ 120.976956040994608, 14.305568368191118 ] } },
{ "type": "Feature", "properties": { "fid": 29, "id": 29, "cluster_id": "193", "column": null, "row": "B" }, "geometry": { "type": "Point", "coordinates": [ 120.976964965598071, 14.305569449961235 ] } },
{ "type": "Feature", "properties": { "fid": 30, "id": 30, "cluster_id": "193", "column": null, "row": "B" }, "geometry": { "type": "Point", "coordinates": [ 120.976974160644062, 14.305571883943996 ] } },
{ "type": "Feature", "properties": { "fid": 31, "id": 31, "cluster_id": "193", "column": null, "row": "B" }, "geometry": { "type": "Point", "coordinates": [ 120.976984978345229, 14.305570802173879 ] } },
{ "type": "Feature", "properties": { "fid": 32, "id": 32, "cluster_id": "193", "column": null, "row": "B" }, "geometry": { "type": "Point", "coordinates": [ 120.976995255161327, 14.305572695271584 ] } },
{ "type": "Feature", "properties": { "fid": 33, "id": 33, "cluster_id": "193", "column": null, "row": "B" }, "geometry": { "type": "Point", "coordinates": [ 120.977005802419967, 14.305574588369288 ] } },
{ "type": "Feature", "properties": { "fid": 34, "id": 34, "cluster_id": "193", "column": null, "row": "B" }, "geometry": { "type": "Point", "coordinates": [ 120.977020676759068, 14.305574588369288 ] } },
{ "type": "Feature", "properties": { "fid": 35, "id": 35, "cluster_id": "193", "column": null, "row": "B" }, "geometry": { "type": "Point", "coordinates": [ 120.977030142247585, 14.305575940581933 ] } },
{ "type": "Feature", "properties": { "fid": 36, "id": 36, "cluster_id": "193", "column": null, "row": "B" }, "geometry": { "type": "Point", "coordinates": [ 120.977042853046456, 14.305576211024462 ] } },
{ "type": "Feature", "properties": { "fid": 37, "id": 37, "cluster_id": "193", "column": null, "row": "B" }, "geometry": { "type": "Point", "coordinates": [ 120.9770525889775, 14.305577833679637 ] } },
{ "type": "Feature", "properties": { "fid": 38, "id": 38, "cluster_id": "193", "column": null, "row": "B" }, "geometry": { "type": "Point", "coordinates": [ 120.977063947563721, 14.305578645007223 ] } },
{ "type": "Feature", "properties": { "fid": 39, "id": 39, "cluster_id": "193", "column": null, "row": "B" }, "geometry": { "type": "Point", "coordinates": [ 120.977073142609711, 14.305579456334812 ] } },
{ "type": "Feature", "properties": { "fid": 40, "id": 40, "cluster_id": "193", "column": null, "row": "B" }, "geometry": { "type": "Point", "coordinates": [ 120.977083419425824, 14.305580538104927 ] } }
]
}
