{
"type": "FeatureCollection",
"name": "cltr-id-197-c-row",
"crs": { "type": "name", "properties": { "name": "urn:ogc:def:crs:OGC:1.3:CRS84" } },
"features": [
{ "type": "Feature", "properties": { "fid": 1, "id": 1, "cluster_id": "197", "column": null, "row": "C" }, "geometry": { "type": "Point", "coordinates": [ 120.976708586080377, 14.305830359391202 ] } },
{ "type": "Feature", "properties": { "fid": 2, "id": 2, "cluster_id": "197", "column": null, "row": "C" }, "geometry": { "type": "Point", "coordinates": [ 120.976710005903669, 14.305823665938606 ] } },
{ "type": "Feature", "properties": { "fid": 3, "id": 3, "cluster_id": "197", "column": null, "row": "C" }, "geometry": { "type": "Point", "coordinates": [ 120.976717105020057, 14.305816972486008 ] } },
{ "type": "Feature", "properties": { "fid": 4, "id": 4, "cluster_id": "197", "column": null, "row": "C" }, "geometry": { "type": "Point", "coordinates": [ 120.976726029623521, 14.305817580981699 ] } },
{ "type": "Feature", "properties": { "fid": 5, "id": 5, "cluster_id": "197", "column": null, "row": "C" }, "geometry": { "type": "Point", "coordinates": [ 120.976738808033033, 14.305817378149802 ] } },
{ "type": "Feature", "properties": { "fid": 6, "id": 6, "cluster_id": "197", "column": null, "row": "C" }, "geometry": { "type": "Point", "coordinates": [ 120.976751180778734, 14.305818189477389 ] } },
{ "type": "Feature", "properties": { "fid": 7, "id": 7, "cluster_id": "197", "column": null, "row": "C" }, "geometry": { "type": "Point", "coordinates": [ 120.976761930869273, 14.305819000804977 ] } },
{ "type": "Feature", "properties": { "fid": 8, "id": 8, "cluster_id": "197", "column": null, "row": "C" }, "geometry": { "type": "Point", "coordinates": [ 120.976770855472736, 14.305819406468771 ] } },
{ "type": "Feature", "properties": { "fid": 9, "id": 9, "cluster_id": "197", "column": null, "row": "C" }, "geometry": { "type": "Point", "coordinates": [ 120.976778968748604, 14.305819406468771 ] } },
{ "type": "Feature", "properties": { "fid": 10, "id": 10, "cluster_id": "197", "column": null, "row": "C" }, "geometry": { "type": "Point", "coordinates": [ 120.97678748768827, 14.305821029123946 ] } },
{ "type": "Feature", "properties": { "fid": 11, "id": 11, "cluster_id": "197", "column": null, "row": "C" }, "geometry": { "type": "Point", "coordinates": [ 120.976798643442606, 14.305822246115326 ] } },
{ "type": "Feature", "properties": { "fid": 12, "id": 12, "cluster_id": "197", "column": null, "row": "C" }, "geometry": { "type": "Point", "coordinates": [ 120.976808379373651, 14.305823057442915 ] } },
{ "type": "Feature", "properties": { "fid": 13, "id": 13, "cluster_id": "197", "column": null, "row": "C" }, "geometry": { "type": "Point", "coordinates": [ 120.976817506809013, 14.305824477266192 ] } },
{ "type": "Feature", "properties": { "fid": 14, "id": 14, "cluster_id": "197", "column": null, "row": "C" }, "geometry": { "type": "Point", "coordinates": [ 120.976826634244375, 14.305824477266192 ] } },
{ "type": "Feature", "properties": { "fid": 15, "id": 15, "cluster_id": "197", "column": null, "row": "C" }, "geometry": { "type": "Point", "coordinates": [ 120.976836167343521, 14.30582528859378 ] } },
{ "type": "Feature", "properties": { "fid": 16, "id": 16, "cluster_id": "197", "column": null, "row": "C" }, "geometry": { "type": "Point", "coordinates": [ 120.976846308938363, 14.305826708417058 ] } },
{ "type": "Feature", "properties": { "fid": 17, "id": 17, "cluster_id": "197", "column": null, "row": "C" }, "geometry": { "type": "Point", "coordinates": [ 120.976855233541826, 14.305828128240336 ] } },
{ "type": "Feature", "properties": { "fid": 18, "id": 18, "cluster_id": "197", "column": null, "row": "C" }, "geometry": { "type": "Point", "coordinates": [ 120.976865375136668, 14.305827925408439 ] } },
{ "type": "Feature", "properties": { "fid": 19, "id": 19, "cluster_id": "197", "column": null, "row": "C" }, "geometry": { "type": "Point", "coordinates": [ 120.976874502572031, 14.305828939567924 ] } },
{ "type": "Feature", "properties": { "fid": 20, "id": 20, "cluster_id": "197", "column": null, "row": "C" }, "geometry": { "type": "Point", "coordinates": [ 120.976882615847913, 14.305829345231716 ] } },
{ "type": "Feature", "properties": { "fid": 21, "id": 21, "cluster_id": "197", "column": null, "row": "C" }, "geometry": { "type": "Point", "coordinates": [ 120.976891337619477, 14.305829953727407 ] } },
{ "type": "Feature", "properties": { "fid": 22, "id": 22, "cluster_id": "197", "column": null, "row": "C" }, "geometry": { "type": "Point", "coordinates": [ 120.976901073550522, 14.30583238771017 ] } },
{ "type": "Feature", "properties": { "fid": 23, "id": 23, "cluster_id": "197", "column": null, "row": "C" }, "geometry": { "type": "Point", "coordinates": [ 120.976910809481595, 14.305833604701547 ] } },
{ "type": "Feature", "properties": { "fid": 24, "id": 24, "cluster_id": "197", "column": null, "row": "C" }, "geometry": { "type": "Point", "coordinates": [ 120.976920951076437, 14.305834010365341 ] } },
{ "type": "Feature", "properties": { "fid": 25, "id": 25, "cluster_id": "197", "column": null, "row": "C" }, "geometry": { "type": "Point", "coordinates": [ 120.976931092671279, 14.305833604701547 ] } },
{ "type": "Feature", "properties": { "fid": 26, "id": 26, "cluster_id": "197", "column": null, "row": "C" }, "geometry": { "type": "Point", "coordinates": [ 120.976940828602338, 14.305835633020516 ] } },
{ "type": "Feature", "properties": { "fid": 27, "id": 27, "cluster_id": "197", "column": null, "row": "C" }, "geometry": { "type": "Point", "coordinates": [ 120.976951578692876, 14.305836850011897 ] } },
{ "type": "Feature", "properties": { "fid": 28, "id": 28, "cluster_id": "197", "column": null, "row": "C" }, "geometry": { "type": "Point", "coordinates": [ 120.976960097632542, 14.305837052843794 ] } },
{ "type": "Feature", "properties": { "fid": 29, "id": 29, "cluster_id": "197", "column": null, "row": "C" }, "geometry": { "type": "Point", "coordinates": [ 120.976968413740309, 14.305837661339485 ] } },
{ "type": "Feature", "properties": { "fid": 30, "id": 30, "cluster_id": "197", "column": null, "row": "C" }, "geometry": { "type": "Point", "coordinates": [ 120.976976729848076, 14.305838675498968 ] } },
{ "type": "Feature", "properties": { "fid": 31, "id": 31, "cluster_id": "197", "column": null, "row": "C" }, "geometry": { "type": "Point", "coordinates": [ 120.976984640292059, 14.305840298154145 ] } },
{ "type": "Feature", "properties": { "fid": 32, "id": 32, "cluster_id": "197", "column": null, "row": "C" }, "geometry": { "type": "Point", "coordinates": [ 120.976992347904144, 14.305838675498968 ] } },
{ "type": "Feature", "properties": { "fid": 33, "id": 33, "cluster_id": "197", "column": null, "row": "C" }, "geometry": { "type": "Point", "coordinates": [ 120.976998027197254, 14.305841109481731 ] } },
{ "type": "Feature", "properties": { "fid": 34, "id": 34, "cluster_id": "197", "column": null, "row": "C" }, "geometry": { "type": "Point", "coordinates": [ 120.977002895162784, 14.305842529305009 ] } },
{ "type": "Feature", "properties": { "fid": 35, "id": 35, "cluster_id": "197", "column": null, "row": "C" }, "geometry": { "type": "Point", "coordinates": [ 120.977010399942969, 14.305840906649834 ] } }
]
}
