{
    "type": "FeatureCollection",
    "name": "cltr-id-166-a -row",
    "crs": {
        "type": "name",
        "properties": { "name": "urn:ogc:def:crs:OGC:1.3:CRS84" }
    },
    "features": [
        {
            "type": "Feature",
            "properties": {
                "fid": 1,
                "id": 1,
                "cluster_id": "166",
                "column": null,
                "row": "A"
            },
            "geometry": {
                "type": "Point",
                "coordinates": [120.976042030058721, 14.305602409774052]
            }
        },
        {
            "type": "Feature",
            "properties": {
                "fid": 2,
                "id": 2,
                "cluster_id": "166",
                "column": null,
                "row": "A"
            },
            "geometry": {
                "type": "Point",
                "coordinates": [120.976050630798909, 14.305603531609728]
            }
        },
        {
            "type": "Feature",
            "properties": {
                "fid": 3,
                "id": 3,
                "cluster_id": "166",
                "column": null,
                "row": "A"
            },
            "geometry": {
                "type": "Point",
                "coordinates": [120.976059605484323, 14.305604653445405]
            }
        },
        {
            "type": "Feature",
            "properties": {
                "fid": 4,
                "id": 4,
                "cluster_id": "166",
                "column": null,
                "row": "A"
            },
            "geometry": {
                "type": "Point",
                "coordinates": [120.976069328060177, 14.305605401335855]
            }
        },
        {
            "type": "Feature",
            "properties": {
                "fid": 5,
                "id": 5,
                "cluster_id": "166",
                "column": null,
                "row": "A"
            },
            "geometry": {
                "type": "Point",
                "coordinates": [120.976076806964684, 14.305606149226307]
            }
        },
        {
            "type": "Feature",
            "properties": {
                "fid": 6,
                "id": 6,
                "cluster_id": "166",
                "column": null,
                "row": "A"
            },
            "geometry": {
                "type": "Point",
                "coordinates": [120.976084659814418, 14.305606897116757]
            }
        },
        {
            "type": "Feature",
            "properties": {
                "fid": 7,
                "id": 7,
                "cluster_id": "166",
                "column": null,
                "row": "A"
            },
            "geometry": {
                "type": "Point",
                "coordinates": [120.976091016883259, 14.305607645007209]
            }
        },
        {
            "type": "Feature",
            "properties": {
                "fid": 8,
                "id": 8,
                "cluster_id": "166",
                "column": null,
                "row": "A"
            },
            "geometry": {
                "type": "Point",
                "coordinates": [120.976097747897313, 14.305607271061984]
            }
        },
        {
            "type": "Feature",
            "properties": {
                "fid": 9,
                "id": 9,
                "cluster_id": "166",
                "column": null,
                "row": "A"
            },
            "geometry": {
                "type": "Point",
                "coordinates": [120.976105974692274, 14.305608392897659]
            }
        },
        {
            "type": "Feature",
            "properties": {
                "fid": 10,
                "id": 10,
                "cluster_id": "166",
                "column": null,
                "row": "A"
            },
            "geometry": {
                "type": "Point",
                "coordinates": [120.976113453596781, 14.305608392897659]
            }
        },
        {
            "type": "Feature",
            "properties": {
                "fid": 11,
                "id": 11,
                "cluster_id": "166",
                "column": null,
                "row": "A"
            },
            "geometry": {
                "type": "Point",
                "coordinates": [120.976121306446515, 14.305609514733336]
            }
        },
        {
            "type": "Feature",
            "properties": {
                "fid": 12,
                "id": 12,
                "cluster_id": "166",
                "column": null,
                "row": "A"
            },
            "geometry": {
                "type": "Point",
                "coordinates": [120.97612728957013, 14.305609888678561]
            }
        },
        {
            "type": "Feature",
            "properties": {
                "fid": 13,
                "id": 13,
                "cluster_id": "166",
                "column": null,
                "row": "A"
            },
            "geometry": {
                "type": "Point",
                "coordinates": [120.97613439452941, 14.305610262623787]
            }
        },
        {
            "type": "Feature",
            "properties": {
                "fid": 14,
                "id": 14,
                "cluster_id": "166",
                "column": null,
                "row": "A"
            },
            "geometry": {
                "type": "Point",
                "coordinates": [120.976141125543478, 14.305611758404689]
            }
        },
        {
            "type": "Feature",
            "properties": {
                "fid": 15,
                "id": 15,
                "cluster_id": "166",
                "column": null,
                "row": "A"
            },
            "geometry": {
                "type": "Point",
                "coordinates": [120.976147856557532, 14.305612132349914]
            }
        },
        {
            "type": "Feature",
            "properties": {
                "fid": 16,
                "id": 16,
                "cluster_id": "166",
                "column": null,
                "row": "A"
            },
            "geometry": {
                "type": "Point",
                "coordinates": [120.976154587571585, 14.305612132349914]
            }
        },
        {
            "type": "Feature",
            "properties": {
                "fid": 17,
                "id": 17,
                "cluster_id": "166",
                "column": null,
                "row": "A"
            },
            "geometry": {
                "type": "Point",
                "coordinates": [120.976164310147439, 14.305613254185591]
            }
        },
        {
            "type": "Feature",
            "properties": {
                "fid": 18,
                "id": 18,
                "cluster_id": "166",
                "column": null,
                "row": "A"
            },
            "geometry": {
                "type": "Point",
                "coordinates": [120.976172162997202, 14.305614376021266]
            }
        },
        {
            "type": "Feature",
            "properties": {
                "fid": 19,
                "id": 19,
                "cluster_id": "166",
                "column": null,
                "row": "A"
            },
            "geometry": {
                "type": "Point",
                "coordinates": [120.976181885573055, 14.305615123911718]
            }
        },
        {
            "type": "Feature",
            "properties": {
                "fid": 20,
                "id": 20,
                "cluster_id": "166",
                "column": null,
                "row": "A"
            },
            "geometry": {
                "type": "Point",
                "coordinates": [120.976189364477563, 14.30561661969262]
            }
        },
        {
            "type": "Feature",
            "properties": {
                "fid": 21,
                "id": 21,
                "cluster_id": "166",
                "column": null,
                "row": "A"
            },
            "geometry": {
                "type": "Point",
                "coordinates": [120.97619871310819, 14.305617367583071]
            }
        },
        {
            "type": "Feature",
            "properties": {
                "fid": 22,
                "id": 22,
                "cluster_id": "166",
                "column": null,
                "row": "A"
            },
            "geometry": {
                "type": "Point",
                "coordinates": [120.976206565957924, 14.305618863363971]
            }
        },
        {
            "type": "Feature",
            "properties": {
                "fid": 23,
                "id": 23,
                "cluster_id": "166",
                "column": null,
                "row": "A"
            },
            "geometry": {
                "type": "Point",
                "coordinates": [120.976216662479018, 14.305619237309198]
            }
        },
        {
            "type": "Feature",
            "properties": {
                "fid": 24,
                "id": 24,
                "cluster_id": "166",
                "column": null,
                "row": "A"
            },
            "geometry": {
                "type": "Point",
                "coordinates": [120.976227132945326, 14.305619611254423]
            }
        },
        {
            "type": "Feature",
            "properties": {
                "fid": 25,
                "id": 25,
                "cluster_id": "166",
                "column": null,
                "row": "A"
            },
            "geometry": {
                "type": "Point",
                "coordinates": [120.97623610763074, 14.305620359144873]
            }
        },
        {
            "type": "Feature",
            "properties": {
                "fid": 26,
                "id": 26,
                "cluster_id": "166",
                "column": null,
                "row": "A"
            },
            "geometry": {
                "type": "Point",
                "coordinates": [120.976246204151835, 14.305621854925775]
            }
        },
        {
            "type": "Feature",
            "properties": {
                "fid": 27,
                "id": 27,
                "cluster_id": "166",
                "column": null,
                "row": "A"
            },
            "geometry": {
                "type": "Point",
                "coordinates": [120.976255552782462, 14.305622602816227]
            }
        },
        {
            "type": "Feature",
            "properties": {
                "fid": 28,
                "id": 28,
                "cluster_id": "166",
                "column": null,
                "row": "A"
            },
            "geometry": {
                "type": "Point",
                "coordinates": [120.976266023248783, 14.305623724651904]
            }
        },
        {
            "type": "Feature",
            "properties": {
                "fid": 29,
                "id": 29,
                "cluster_id": "166",
                "column": null,
                "row": "A"
            },
            "geometry": {
                "type": "Point",
                "coordinates": [120.976274623988971, 14.305624098597129]
            }
        },
        {
            "type": "Feature",
            "properties": {
                "fid": 30,
                "id": 30,
                "cluster_id": "166",
                "column": null,
                "row": "A"
            },
            "geometry": {
                "type": "Point",
                "coordinates": [120.976282476838705, 14.305624846487579]
            }
        },
        {
            "type": "Feature",
            "properties": {
                "fid": 31,
                "id": 31,
                "cluster_id": "166",
                "column": null,
                "row": "A"
            },
            "geometry": {
                "type": "Point",
                "coordinates": [120.976292199414559, 14.305625220432807]
            }
        },
        {
            "type": "Feature",
            "properties": {
                "fid": 32,
                "id": 32,
                "cluster_id": "166",
                "column": null,
                "row": "A"
            },
            "geometry": {
                "type": "Point",
                "coordinates": [120.976300426209534, 14.30562559437803]
            }
        },
        {
            "type": "Feature",
            "properties": {
                "fid": 33,
                "id": 33,
                "cluster_id": "166",
                "column": null,
                "row": "A"
            },
            "geometry": {
                "type": "Point",
                "coordinates": [120.976309400894934, 14.305626342268482]
            }
        },
        {
            "type": "Feature",
            "properties": {
                "fid": 34,
                "id": 34,
                "cluster_id": "166",
                "column": null,
                "row": "A"
            },
            "geometry": {
                "type": "Point",
                "coordinates": [120.976319871361241, 14.305626716213707]
            }
        }
    ]
}
