{
"type": "FeatureCollection",
"name": "cltr-id-153-a-row",
"crs": { "type": "name", "properties": { "name": "urn:ogc:def:crs:OGC:1.3:CRS84" } },
"features": [
{ "type": "Feature", "properties": { "fid": 1, "id": 1, "cluster_id": "153", "column": null, "row": "A" }, "geometry": { "type": "Point", "coordinates": [ 120.976028396826649, 14.305771538141128 ] } },
{ "type": "Feature", "properties": { "fid": 2, "id": 2, "cluster_id": "153", "column": null, "row": "A" }, "geometry": { "type": "Point", "coordinates": [ 120.976027835908809, 14.305764807127071 ] } },
{ "type": "Feature", "properties": { "fid": 3, "id": 3, "cluster_id": "153", "column": null, "row": "A" }, "geometry": { "type": "Point", "coordinates": [ 120.976043541608277, 14.305759758866525 ] } },
{ "type": "Feature", "properties": { "fid": 4, "id": 4, "cluster_id": "153", "column": null, "row": "A" }, "geometry": { "type": "Point", "coordinates": [ 120.976053638129372, 14.305760880702202 ] } },
{ "type": "Feature", "properties": { "fid": 5, "id": 5, "cluster_id": "153", "column": null, "row": "A" }, "geometry": { "type": "Point", "coordinates": [ 120.976062051896946, 14.305760880702202 ] } },
{ "type": "Feature", "properties": { "fid": 6, "id": 6, "cluster_id": "153", "column": null, "row": "A" }, "geometry": { "type": "Point", "coordinates": [ 120.976072709335867, 14.305760880702202 ] } },
{ "type": "Feature", "properties": { "fid": 7, "id": 7, "cluster_id": "153", "column": null, "row": "A" }, "geometry": { "type": "Point", "coordinates": [ 120.976082805856961, 14.305762563455717 ] } },
{ "type": "Feature", "properties": { "fid": 8, "id": 8, "cluster_id": "153", "column": null, "row": "A" }, "geometry": { "type": "Point", "coordinates": [ 120.976091219624536, 14.305763685291394 ] } },
{ "type": "Feature", "properties": { "fid": 9, "id": 9, "cluster_id": "153", "column": null, "row": "A" }, "geometry": { "type": "Point", "coordinates": [ 120.976101316145616, 14.305763124373556 ] } },
{ "type": "Feature", "properties": { "fid": 10, "id": 10, "cluster_id": "153", "column": null, "row": "A" }, "geometry": { "type": "Point", "coordinates": [ 120.976111412666711, 14.305764807127071 ] } },
{ "type": "Feature", "properties": { "fid": 11, "id": 11, "cluster_id": "153", "column": null, "row": "A" }, "geometry": { "type": "Point", "coordinates": [ 120.976119265516445, 14.305764807127071 ] } },
{ "type": "Feature", "properties": { "fid": 12, "id": 12, "cluster_id": "153", "column": null, "row": "A" }, "geometry": { "type": "Point", "coordinates": [ 120.976127679284019, 14.305767050798423 ] } },
{ "type": "Feature", "properties": { "fid": 13, "id": 13, "cluster_id": "153", "column": null, "row": "A" }, "geometry": { "type": "Point", "coordinates": [ 120.97613721488726, 14.305767050798423 ] } },
{ "type": "Feature", "properties": { "fid": 14, "id": 14, "cluster_id": "153", "column": null, "row": "A" }, "geometry": { "type": "Point", "coordinates": [ 120.976145628654834, 14.305767050798423 ] } },
{ "type": "Feature", "properties": { "fid": 15, "id": 15, "cluster_id": "153", "column": null, "row": "A" }, "geometry": { "type": "Point", "coordinates": [ 120.976151798751062, 14.305768733551938 ] } },
{ "type": "Feature", "properties": { "fid": 16, "id": 16, "cluster_id": "153", "column": null, "row": "A" }, "geometry": { "type": "Point", "coordinates": [ 120.976160773436462, 14.305768172634099 ] } },
{ "type": "Feature", "properties": { "fid": 17, "id": 17, "cluster_id": "153", "column": null, "row": "A" }, "geometry": { "type": "Point", "coordinates": [ 120.976170869957556, 14.305769294469776 ] } },
{ "type": "Feature", "properties": { "fid": 18, "id": 18, "cluster_id": "153", "column": null, "row": "A" }, "geometry": { "type": "Point", "coordinates": [ 120.976179283725131, 14.305770416305451 ] } },
{ "type": "Feature", "properties": { "fid": 19, "id": 19, "cluster_id": "153", "column": null, "row": "A" }, "geometry": { "type": "Point", "coordinates": [ 120.976189941164051, 14.305770416305451 ] } },
{ "type": "Feature", "properties": { "fid": 20, "id": 20, "cluster_id": "153", "column": null, "row": "A" }, "geometry": { "type": "Point", "coordinates": [ 120.976196672178119, 14.30577097722329 ] } },
{ "type": "Feature", "properties": { "fid": 21, "id": 21, "cluster_id": "153", "column": null, "row": "A" }, "geometry": { "type": "Point", "coordinates": [ 120.976203403192173, 14.305771538141128 ] } },
{ "type": "Feature", "properties": { "fid": 22, "id": 22, "cluster_id": "153", "column": null, "row": "A" }, "geometry": { "type": "Point", "coordinates": [ 120.976211256041907, 14.305773220894643 ] } },
{ "type": "Feature", "properties": { "fid": 23, "id": 23, "cluster_id": "153", "column": null, "row": "A" }, "geometry": { "type": "Point", "coordinates": [ 120.976220230727321, 14.305772659976805 ] } },
{ "type": "Feature", "properties": { "fid": 24, "id": 24, "cluster_id": "153", "column": null, "row": "A" }, "geometry": { "type": "Point", "coordinates": [ 120.976228644494896, 14.305773220894643 ] } },
{ "type": "Feature", "properties": { "fid": 25, "id": 25, "cluster_id": "153", "column": null, "row": "A" }, "geometry": { "type": "Point", "coordinates": [ 120.97623705826247, 14.30577434273032 ] } },
{ "type": "Feature", "properties": { "fid": 26, "id": 26, "cluster_id": "153", "column": null, "row": "A" }, "geometry": { "type": "Point", "coordinates": [ 120.97624659386571, 14.305775464565995 ] } },
{ "type": "Feature", "properties": { "fid": 27, "id": 27, "cluster_id": "153", "column": null, "row": "A" }, "geometry": { "type": "Point", "coordinates": [ 120.976254446715444, 14.305775464565995 ] } },
{ "type": "Feature", "properties": { "fid": 28, "id": 28, "cluster_id": "153", "column": null, "row": "A" }, "geometry": { "type": "Point", "coordinates": [ 120.976262860483018, 14.305776586401672 ] } },
{ "type": "Feature", "properties": { "fid": 29, "id": 29, "cluster_id": "153", "column": null, "row": "A" }, "geometry": { "type": "Point", "coordinates": [ 120.976272396086273, 14.305777708237349 ] } },
{ "type": "Feature", "properties": { "fid": 30, "id": 30, "cluster_id": "153", "column": null, "row": "A" }, "geometry": { "type": "Point", "coordinates": [ 120.976281931689527, 14.305778269155187 ] } },
{ "type": "Feature", "properties": { "fid": 31, "id": 31, "cluster_id": "153", "column": null, "row": "A" }, "geometry": { "type": "Point", "coordinates": [ 120.976290345457087, 14.305779390990864 ] } },
{ "type": "Feature", "properties": { "fid": 32, "id": 32, "cluster_id": "153", "column": null, "row": "A" }, "geometry": { "type": "Point", "coordinates": [ 120.976298759224662, 14.305779951908702 ] } },
{ "type": "Feature", "properties": { "fid": 33, "id": 33, "cluster_id": "153", "column": null, "row": "A" }, "geometry": { "type": "Point", "coordinates": [ 120.976306612074396, 14.305779951908702 ] } },
{ "type": "Feature", "properties": { "fid": 34, "id": 34, "cluster_id": "153", "column": null, "row": "A" }, "geometry": { "type": "Point", "coordinates": [ 120.97631446492413, 14.305779390990864 ] } },
{ "type": "Feature", "properties": { "fid": 35, "id": 35, "cluster_id": "153", "column": null, "row": "A" }, "geometry": { "type": "Point", "coordinates": [ 120.976322317773878, 14.305781073744377 ] } },
{ "type": "Feature", "properties": { "fid": 36, "id": 36, "cluster_id": "153", "column": null, "row": "A" }, "geometry": { "type": "Point", "coordinates": [ 120.976330731541438, 14.305782195580054 ] } }
]
}
