{
"type": "FeatureCollection",
"name": "cltr-id-185-b-row",
"crs": { "type": "name", "properties": { "name": "urn:ogc:def:crs:OGC:1.3:CRS84" } },
"features": [
{ "type": "Feature", "properties": { "fid": 1, "id": 1, "cluster_id": "185", "column": null, "row": "B" }, "geometry": { "type": "Point", "coordinates": [ 120.97661130564903, 14.305556040519178 ] } },
{ "type": "Feature", "properties": { "fid": 2, "id": 2, "cluster_id": "185", "column": null, "row": "B" }, "geometry": { "type": "Point", "coordinates": [ 120.976612387419152, 14.305550361226068 ] } },
{ "type": "Feature", "properties": { "fid": 3, "id": 3, "cluster_id": "185", "column": null, "row": "B" }, "geometry": { "type": "Point", "coordinates": [ 120.97661833715479, 14.305542788835252 ] } },
{ "type": "Feature", "properties": { "fid": 4, "id": 4, "cluster_id": "185", "column": null, "row": "B" }, "geometry": { "type": "Point", "coordinates": [ 120.976628073085834, 14.305543870605369 ] } },
{ "type": "Feature", "properties": { "fid": 5, "id": 5, "cluster_id": "185", "column": null, "row": "B" }, "geometry": { "type": "Point", "coordinates": [ 120.976636997689297, 14.305543870605369 ] } },
{ "type": "Feature", "properties": { "fid": 6, "id": 6, "cluster_id": "185", "column": null, "row": "B" }, "geometry": { "type": "Point", "coordinates": [ 120.976644029195057, 14.305544952375486 ] } },
{ "type": "Feature", "properties": { "fid": 7, "id": 7, "cluster_id": "185", "column": null, "row": "B" }, "geometry": { "type": "Point", "coordinates": [ 120.976652683355979, 14.305545493260544 ] } },
{ "type": "Feature", "properties": { "fid": 8, "id": 8, "cluster_id": "185", "column": null, "row": "B" }, "geometry": { "type": "Point", "coordinates": [ 120.976660526189335, 14.305546304588132 ] } },
{ "type": "Feature", "properties": { "fid": 9, "id": 9, "cluster_id": "185", "column": null, "row": "B" }, "geometry": { "type": "Point", "coordinates": [ 120.976669721235311, 14.305545763703073 ] } },
{ "type": "Feature", "properties": { "fid": 10, "id": 10, "cluster_id": "185", "column": null, "row": "B" }, "geometry": { "type": "Point", "coordinates": [ 120.976678645838774, 14.30554684547319 ] } },
{ "type": "Feature", "properties": { "fid": 11, "id": 11, "cluster_id": "185", "column": null, "row": "B" }, "geometry": { "type": "Point", "coordinates": [ 120.976685406902007, 14.305547927243307 ] } },
{ "type": "Feature", "properties": { "fid": 12, "id": 12, "cluster_id": "185", "column": null, "row": "B" }, "geometry": { "type": "Point", "coordinates": [ 120.97669433150547, 14.305548468128364 ] } },
{ "type": "Feature", "properties": { "fid": 13, "id": 13, "cluster_id": "185", "column": null, "row": "B" }, "geometry": { "type": "Point", "coordinates": [ 120.976702444781338, 14.305549009013422 ] } },
{ "type": "Feature", "properties": { "fid": 14, "id": 14, "cluster_id": "185", "column": null, "row": "B" }, "geometry": { "type": "Point", "coordinates": [ 120.976708664959503, 14.305549279455951 ] } }
]
}
