{
"type": "FeatureCollection",
"name": "cltr-id-149-e-row",
"crs": { "type": "name", "properties": { "name": "urn:ogc:def:crs:OGC:1.3:CRS84" } },
"features": [
{ "type": "Feature", "properties": { "fid": 1, "id": 1, "cluster_id": "149", "column": null, "row": "E" }, "geometry": { "type": "Point", "coordinates": [ 120.976047358778331, 14.305509577871824 ] } },
{ "type": "Feature", "properties": { "fid": 2, "id": 2, "cluster_id": "149", "column": null, "row": "E" }, "geometry": { "type": "Point", "coordinates": [ 120.976046984833118, 14.305500977131638 ] } },
{ "type": "Feature", "properties": { "fid": 3, "id": 3, "cluster_id": "149", "column": null, "row": "E" }, "geometry": { "type": "Point", "coordinates": [ 120.976055585573292, 14.305501725022088 ] } },
{ "type": "Feature", "properties": { "fid": 4, "id": 4, "cluster_id": "149", "column": null, "row": "E" }, "geometry": { "type": "Point", "coordinates": [ 120.97606829971096, 14.30550247291254 ] } },
{ "type": "Feature", "properties": { "fid": 5, "id": 5, "cluster_id": "149", "column": null, "row": "E" }, "geometry": { "type": "Point", "coordinates": [ 120.976080265958174, 14.305504716583892 ] } },
{ "type": "Feature", "properties": { "fid": 6, "id": 6, "cluster_id": "149", "column": null, "row": "E" }, "geometry": { "type": "Point", "coordinates": [ 120.976094101931523, 14.305505464474344 ] } },
{ "type": "Feature", "properties": { "fid": 7, "id": 7, "cluster_id": "149", "column": null, "row": "E" }, "geometry": { "type": "Point", "coordinates": [ 120.97610457239783, 14.30550658631002 ] } },
{ "type": "Feature", "properties": { "fid": 8, "id": 8, "cluster_id": "149", "column": null, "row": "E" }, "geometry": { "type": "Point", "coordinates": [ 120.976113921028471, 14.305507708145697 ] } },
{ "type": "Feature", "properties": { "fid": 9, "id": 9, "cluster_id": "149", "column": null, "row": "E" }, "geometry": { "type": "Point", "coordinates": [ 120.976123643604339, 14.305508456036147 ] } },
{ "type": "Feature", "properties": { "fid": 10, "id": 10, "cluster_id": "149", "column": null, "row": "E" }, "geometry": { "type": "Point", "coordinates": [ 120.9761348619611, 14.305508456036147 ] } },
{ "type": "Feature", "properties": { "fid": 11, "id": 11, "cluster_id": "149", "column": null, "row": "E" }, "geometry": { "type": "Point", "coordinates": [ 120.976143462701287, 14.305509203926599 ] } },
{ "type": "Feature", "properties": { "fid": 12, "id": 12, "cluster_id": "149", "column": null, "row": "E" }, "geometry": { "type": "Point", "coordinates": [ 120.976153185277141, 14.305509577871824 ] } },
{ "type": "Feature", "properties": { "fid": 13, "id": 13, "cluster_id": "149", "column": null, "row": "E" }, "geometry": { "type": "Point", "coordinates": [ 120.976162907853009, 14.305512195488403 ] } },
{ "type": "Feature", "properties": { "fid": 14, "id": 14, "cluster_id": "149", "column": null, "row": "E" }, "geometry": { "type": "Point", "coordinates": [ 120.976173378319316, 14.305511447597951 ] } },
{ "type": "Feature", "properties": { "fid": 15, "id": 15, "cluster_id": "149", "column": null, "row": "E" }, "geometry": { "type": "Point", "coordinates": [ 120.976182353004731, 14.305511821543176 ] } },
{ "type": "Feature", "properties": { "fid": 16, "id": 16, "cluster_id": "149", "column": null, "row": "E" }, "geometry": { "type": "Point", "coordinates": [ 120.976192449525826, 14.305512569433628 ] } },
{ "type": "Feature", "properties": { "fid": 17, "id": 17, "cluster_id": "149", "column": null, "row": "E" }, "geometry": { "type": "Point", "coordinates": [ 120.976201050266013, 14.305512943378853 ] } },
{ "type": "Feature", "properties": { "fid": 18, "id": 18, "cluster_id": "149", "column": null, "row": "E" }, "geometry": { "type": "Point", "coordinates": [ 120.976210772841867, 14.305514439159754 ] } },
{ "type": "Feature", "properties": { "fid": 19, "id": 19, "cluster_id": "149", "column": null, "row": "E" }, "geometry": { "type": "Point", "coordinates": [ 120.976220869362962, 14.305515560995431 ] } },
{ "type": "Feature", "properties": { "fid": 20, "id": 20, "cluster_id": "149", "column": null, "row": "E" }, "geometry": { "type": "Point", "coordinates": [ 120.976228722212696, 14.305516308885883 ] } },
{ "type": "Feature", "properties": { "fid": 21, "id": 21, "cluster_id": "149", "column": null, "row": "E" }, "geometry": { "type": "Point", "coordinates": [ 120.976239192679003, 14.305517430721558 ] } },
{ "type": "Feature", "properties": { "fid": 22, "id": 22, "cluster_id": "149", "column": null, "row": "E" }, "geometry": { "type": "Point", "coordinates": [ 120.976248167364417, 14.305517430721558 ] } },
{ "type": "Feature", "properties": { "fid": 23, "id": 23, "cluster_id": "149", "column": null, "row": "E" }, "geometry": { "type": "Point", "coordinates": [ 120.976256020214151, 14.30551817861201 ] } },
{ "type": "Feature", "properties": { "fid": 24, "id": 24, "cluster_id": "149", "column": null, "row": "E" }, "geometry": { "type": "Point", "coordinates": [ 120.976264994899566, 14.305519300447687 ] } },
{ "type": "Feature", "properties": { "fid": 25, "id": 25, "cluster_id": "149", "column": null, "row": "E" }, "geometry": { "type": "Point", "coordinates": [ 120.976271351968393, 14.30551892650246 ] } },
{ "type": "Feature", "properties": { "fid": 26, "id": 26, "cluster_id": "149", "column": null, "row": "E" }, "geometry": { "type": "Point", "coordinates": [ 120.97627995270858, 14.305519674392912 ] } },
{ "type": "Feature", "properties": { "fid": 27, "id": 27, "cluster_id": "149", "column": null, "row": "E" }, "geometry": { "type": "Point", "coordinates": [ 120.976286683722648, 14.305520048338137 ] } },
{ "type": "Feature", "properties": { "fid": 28, "id": 28, "cluster_id": "149", "column": null, "row": "E" }, "geometry": { "type": "Point", "coordinates": [ 120.976295284462822, 14.305521170173813 ] } },
{ "type": "Feature", "properties": { "fid": 29, "id": 29, "cluster_id": "149", "column": null, "row": "E" }, "geometry": { "type": "Point", "coordinates": [ 120.976303137312556, 14.305521170173813 ] } },
{ "type": "Feature", "properties": { "fid": 30, "id": 30, "cluster_id": "149", "column": null, "row": "E" }, "geometry": { "type": "Point", "coordinates": [ 120.976309868326624, 14.305520422283362 ] } },
{ "type": "Feature", "properties": { "fid": 31, "id": 31, "cluster_id": "149", "column": null, "row": "E" }, "geometry": { "type": "Point", "coordinates": [ 120.976318095121584, 14.305521170173813 ] } },
{ "type": "Feature", "properties": { "fid": 32, "id": 32, "cluster_id": "149", "column": null, "row": "E" }, "geometry": { "type": "Point", "coordinates": [ 120.976325200080865, 14.305522665954715 ] } },
{ "type": "Feature", "properties": { "fid": 33, "id": 33, "cluster_id": "149", "column": null, "row": "E" }, "geometry": { "type": "Point", "coordinates": [ 120.976333426875826, 14.305523413845167 ] } },
{ "type": "Feature", "properties": { "fid": 34, "id": 34, "cluster_id": "149", "column": null, "row": "E" }, "geometry": { "type": "Point", "coordinates": [ 120.976339783944653, 14.30552229200949 ] } },
{ "type": "Feature", "properties": { "fid": 35, "id": 35, "cluster_id": "149", "column": null, "row": "E" }, "geometry": { "type": "Point", "coordinates": [ 120.976347262849174, 14.305524909626069 ] } },
{ "type": "Feature", "properties": { "fid": 36, "id": 36, "cluster_id": "149", "column": null, "row": "E" }, "geometry": { "type": "Point", "coordinates": [ 120.976356237534574, 14.305525657516519 ] } }
]
}
