{
"type": "FeatureCollection",
"name": "cltr-id-165-b-row",
"crs": { "type": "name", "properties": { "name": "urn:ogc:def:crs:OGC:1.3:CRS84" } },
"features": [
{ "type": "Feature", "properties": { "fid": 1, "id": 1, "cluster_id": "165", "column": null, "row": "B" }, "geometry": { "type": "Point", "coordinates": [ 120.976052097239901, 14.305441219463814 ] } },
{ "type": "Feature", "properties": { "fid": 2, "id": 2, "cluster_id": "165", "column": null, "row": "B" }, "geometry": { "type": "Point", "coordinates": [ 120.976061166763756, 14.305441532206016 ] } },
{ "type": "Feature", "properties": { "fid": 3, "id": 3, "cluster_id": "165", "column": null, "row": "B" }, "geometry": { "type": "Point", "coordinates": [ 120.976073050967429, 14.305441844948218 ] } },
{ "type": "Feature", "properties": { "fid": 4, "id": 4, "cluster_id": "165", "column": null, "row": "B" }, "geometry": { "type": "Point", "coordinates": [ 120.976082120491284, 14.30544215769042 ] } },
{ "type": "Feature", "properties": { "fid": 5, "id": 5, "cluster_id": "165", "column": null, "row": "B" }, "geometry": { "type": "Point", "coordinates": [ 120.976092128241746, 14.305443095917026 ] } },
{ "type": "Feature", "properties": { "fid": 6, "id": 6, "cluster_id": "165", "column": null, "row": "B" }, "geometry": { "type": "Point", "coordinates": [ 120.976099946796793, 14.305444346885833 ] } },
{ "type": "Feature", "properties": { "fid": 7, "id": 7, "cluster_id": "165", "column": null, "row": "B" }, "geometry": { "type": "Point", "coordinates": [ 120.976109954547255, 14.305444346885833 ] } },
{ "type": "Feature", "properties": { "fid": 8, "id": 8, "cluster_id": "165", "column": null, "row": "B" }, "geometry": { "type": "Point", "coordinates": [ 120.976118398586706, 14.305446223339045 ] } },
{ "type": "Feature", "properties": { "fid": 9, "id": 9, "cluster_id": "165", "column": null, "row": "B" }, "geometry": { "type": "Point", "coordinates": [ 120.976127155368374, 14.305446536081247 ] } },
{ "type": "Feature", "properties": { "fid": 10, "id": 10, "cluster_id": "165", "column": null, "row": "B" }, "geometry": { "type": "Point", "coordinates": [ 120.976137163118835, 14.305447474307853 ] } },
{ "type": "Feature", "properties": { "fid": 11, "id": 11, "cluster_id": "165", "column": null, "row": "B" }, "geometry": { "type": "Point", "coordinates": [ 120.976146545384893, 14.305447787050054 ] } },
{ "type": "Feature", "properties": { "fid": 12, "id": 12, "cluster_id": "165", "column": null, "row": "B" }, "geometry": { "type": "Point", "coordinates": [ 120.976154676682143, 14.305449350761064 ] } },
{ "type": "Feature", "properties": { "fid": 13, "id": 13, "cluster_id": "165", "column": null, "row": "B" }, "geometry": { "type": "Point", "coordinates": [ 120.976162182494988, 14.305449350761064 ] } },
{ "type": "Feature", "properties": { "fid": 14, "id": 14, "cluster_id": "165", "column": null, "row": "B" }, "geometry": { "type": "Point", "coordinates": [ 120.976169375565632, 14.305449663503266 ] } },
{ "type": "Feature", "properties": { "fid": 15, "id": 15, "cluster_id": "165", "column": null, "row": "B" }, "geometry": { "type": "Point", "coordinates": [ 120.976176881378478, 14.305450601729872 ] } },
{ "type": "Feature", "properties": { "fid": 16, "id": 16, "cluster_id": "165", "column": null, "row": "B" }, "geometry": { "type": "Point", "coordinates": [ 120.976184074449122, 14.305451852698679 ] } },
{ "type": "Feature", "properties": { "fid": 17, "id": 17, "cluster_id": "165", "column": null, "row": "B" }, "geometry": { "type": "Point", "coordinates": [ 120.976194082199584, 14.305452790925285 ] } },
{ "type": "Feature", "properties": { "fid": 18, "id": 18, "cluster_id": "165", "column": null, "row": "B" }, "geometry": { "type": "Point", "coordinates": [ 120.976202213496833, 14.305453729151891 ] } },
{ "type": "Feature", "properties": { "fid": 19, "id": 19, "cluster_id": "165", "column": null, "row": "B" }, "geometry": { "type": "Point", "coordinates": [ 120.976210970278487, 14.305454354636295 ] } },
{ "type": "Feature", "properties": { "fid": 20, "id": 20, "cluster_id": "165", "column": null, "row": "B" }, "geometry": { "type": "Point", "coordinates": [ 120.976219101575737, 14.3054552928629 ] } },
{ "type": "Feature", "properties": { "fid": 21, "id": 21, "cluster_id": "165", "column": null, "row": "B" }, "geometry": { "type": "Point", "coordinates": [ 120.976228483841794, 14.305455605605102 ] } },
{ "type": "Feature", "properties": { "fid": 22, "id": 22, "cluster_id": "165", "column": null, "row": "B" }, "geometry": { "type": "Point", "coordinates": [ 120.97623755336565, 14.305455918347304 ] } },
{ "type": "Feature", "properties": { "fid": 23, "id": 23, "cluster_id": "165", "column": null, "row": "B" }, "geometry": { "type": "Point", "coordinates": [ 120.976245997405101, 14.305457169316112 ] } },
{ "type": "Feature", "properties": { "fid": 24, "id": 24, "cluster_id": "165", "column": null, "row": "B" }, "geometry": { "type": "Point", "coordinates": [ 120.976253815960149, 14.30545842028492 ] } },
{ "type": "Feature", "properties": { "fid": 25, "id": 25, "cluster_id": "165", "column": null, "row": "B" }, "geometry": { "type": "Point", "coordinates": [ 120.976263198226206, 14.30545842028492 ] } },
{ "type": "Feature", "properties": { "fid": 26, "id": 26, "cluster_id": "165", "column": null, "row": "B" }, "geometry": { "type": "Point", "coordinates": [ 120.976270078554649, 14.305459358511525 ] } },
{ "type": "Feature", "properties": { "fid": 27, "id": 27, "cluster_id": "165", "column": null, "row": "B" }, "geometry": { "type": "Point", "coordinates": [ 120.9762785225941, 14.305459983995929 ] } },
{ "type": "Feature", "properties": { "fid": 28, "id": 28, "cluster_id": "165", "column": null, "row": "B" }, "geometry": { "type": "Point", "coordinates": [ 120.976287279375754, 14.305460296738131 ] } },
{ "type": "Feature", "properties": { "fid": 29, "id": 29, "cluster_id": "165", "column": null, "row": "B" }, "geometry": { "type": "Point", "coordinates": [ 120.976296036157407, 14.30546154770694 ] } },
{ "type": "Feature", "properties": { "fid": 30, "id": 30, "cluster_id": "165", "column": null, "row": "B" }, "geometry": { "type": "Point", "coordinates": [ 120.976303541970253, 14.305462173191344 ] } },
{ "type": "Feature", "properties": { "fid": 31, "id": 31, "cluster_id": "165", "column": null, "row": "B" }, "geometry": { "type": "Point", "coordinates": [ 120.976311047783099, 14.305462798675748 ] } },
{ "type": "Feature", "properties": { "fid": 32, "id": 32, "cluster_id": "165", "column": null, "row": "B" }, "geometry": { "type": "Point", "coordinates": [ 120.97632105553356, 14.305463424160152 ] } },
{ "type": "Feature", "properties": { "fid": 33, "id": 33, "cluster_id": "165", "column": null, "row": "B" }, "geometry": { "type": "Point", "coordinates": [ 120.976329499573012, 14.305463424160152 ] } },
{ "type": "Feature", "properties": { "fid": 34, "id": 34, "cluster_id": "165", "column": null, "row": "B" }, "geometry": { "type": "Point", "coordinates": [ 120.976338569096882, 14.305464362386758 ] } }
]
}
