{
"type": "FeatureCollection",
"name": "cltr-id-206-b-row",
"crs": { "type": "name", "properties": { "name": "urn:ogc:def:crs:OGC:1.3:CRS84" } },
"features": [
{ "type": "Feature", "properties": { "fid": 1, "id": 1, "cluster_id": null, "column": null, "row": null }, "geometry": { "type": "Point", "coordinates": [ 120.976579584994127, 14.305918320823778 ] } },
{ "type": "Feature", "properties": { "fid": 2, "id": 2, "cluster_id": null, "column": null, "row": null }, "geometry": { "type": "Point", "coordinates": [ 120.976587427827468, 14.305918591266307 ] } },
{ "type": "Feature", "properties": { "fid": 3, "id": 3, "cluster_id": null, "column": null, "row": null }, "geometry": { "type": "Point", "coordinates": [ 120.97659554110335, 14.305920213921482 ] } },
{ "type": "Feature", "properties": { "fid": 4, "id": 4, "cluster_id": null, "column": null, "row": null }, "geometry": { "type": "Point", "coordinates": [ 120.976603113494164, 14.305920754806539 ] } },
{ "type": "Feature", "properties": { "fid": 5, "id": 5, "cluster_id": null, "column": null, "row": null }, "geometry": { "type": "Point", "coordinates": [ 120.976614472080385, 14.305921295691599 ] } },
{ "type": "Feature", "properties": { "fid": 6, "id": 6, "cluster_id": null, "column": null, "row": null }, "geometry": { "type": "Point", "coordinates": [ 120.976627182879255, 14.305922918346774 ] } },
{ "type": "Feature", "properties": { "fid": 7, "id": 7, "cluster_id": null, "column": null, "row": null }, "geometry": { "type": "Point", "coordinates": [ 120.976637459695354, 14.305922918346774 ] } },
{ "type": "Feature", "properties": { "fid": 8, "id": 8, "cluster_id": null, "column": null, "row": null }, "geometry": { "type": "Point", "coordinates": [ 120.976648818281575, 14.305923188789302 ] } },
{ "type": "Feature", "properties": { "fid": 9, "id": 9, "cluster_id": null, "column": null, "row": null }, "geometry": { "type": "Point", "coordinates": [ 120.976659365540215, 14.305925081887006 ] } },
{ "type": "Feature", "properties": { "fid": 10, "id": 10, "cluster_id": null, "column": null, "row": null }, "geometry": { "type": "Point", "coordinates": [ 120.976669912798855, 14.305926163657123 ] } }
]
}
