{
"type": "FeatureCollection",
"name": "cltr-id-193-c-row",
"crs": { "type": "name", "properties": { "name": "urn:ogc:def:crs:OGC:1.3:CRS84" } },
"features": [
{ "type": "Feature", "properties": { "fid": 1, "id": 1, "cluster_id": "193", "column": null, "row": "C" }, "geometry": { "type": "Point", "coordinates": [ 120.976739416528801, 14.30556782730606 ] } },
{ "type": "Feature", "properties": { "fid": 2, "id": 2, "cluster_id": "193", "column": null, "row": "C" }, "geometry": { "type": "Point", "coordinates": [ 120.976738605201206, 14.305561336685361 ] } },
{ "type": "Feature", "properties": { "fid": 3, "id": 3, "cluster_id": "193", "column": null, "row": "C" }, "geometry": { "type": "Point", "coordinates": [ 120.976743743609262, 14.305555657392249 ] } },
{ "type": "Feature", "properties": { "fid": 4, "id": 4, "cluster_id": "193", "column": null, "row": "C" }, "geometry": { "type": "Point", "coordinates": [ 120.976751316000076, 14.305554575622134 ] } },
{ "type": "Feature", "properties": { "fid": 5, "id": 5, "cluster_id": "193", "column": null, "row": "C" }, "geometry": { "type": "Point", "coordinates": [ 120.976760511046066, 14.305554575622134 ] } },
{ "type": "Feature", "properties": { "fid": 6, "id": 6, "cluster_id": "193", "column": null, "row": "C" }, "geometry": { "type": "Point", "coordinates": [ 120.976767272109299, 14.30555538694972 ] } },
{ "type": "Feature", "properties": { "fid": 7, "id": 7, "cluster_id": "193", "column": null, "row": "C" }, "geometry": { "type": "Point", "coordinates": [ 120.976775655827694, 14.30555538694972 ] } },
{ "type": "Feature", "properties": { "fid": 8, "id": 8, "cluster_id": "193", "column": null, "row": "C" }, "geometry": { "type": "Point", "coordinates": [ 120.976781064678278, 14.305557550489953 ] } },
{ "type": "Feature", "properties": { "fid": 9, "id": 9, "cluster_id": "193", "column": null, "row": "C" }, "geometry": { "type": "Point", "coordinates": [ 120.976788907511619, 14.305556739162366 ] } },
{ "type": "Feature", "properties": { "fid": 10, "id": 10, "cluster_id": "193", "column": null, "row": "C" }, "geometry": { "type": "Point", "coordinates": [ 120.976794857247256, 14.305557550489953 ] } },
{ "type": "Feature", "properties": { "fid": 11, "id": 11, "cluster_id": "193", "column": null, "row": "C" }, "geometry": { "type": "Point", "coordinates": [ 120.976801618310489, 14.305557009604895 ] } },
{ "type": "Feature", "properties": { "fid": 12, "id": 12, "cluster_id": "193", "column": null, "row": "C" }, "geometry": { "type": "Point", "coordinates": [ 120.976807568046127, 14.305557820932483 ] } },
{ "type": "Feature", "properties": { "fid": 13, "id": 13, "cluster_id": "193", "column": null, "row": "C" }, "geometry": { "type": "Point", "coordinates": [ 120.976815951764536, 14.305559443587658 ] } },
{ "type": "Feature", "properties": { "fid": 14, "id": 14, "cluster_id": "193", "column": null, "row": "C" }, "geometry": { "type": "Point", "coordinates": [ 120.976824065040404, 14.305559173145127 ] } },
{ "type": "Feature", "properties": { "fid": 15, "id": 15, "cluster_id": "193", "column": null, "row": "C" }, "geometry": { "type": "Point", "coordinates": [ 120.976831366988691, 14.305559984472715 ] } },
{ "type": "Feature", "properties": { "fid": 16, "id": 16, "cluster_id": "193", "column": null, "row": "C" }, "geometry": { "type": "Point", "coordinates": [ 120.976840291592154, 14.305559984472715 ] } },
{ "type": "Feature", "properties": { "fid": 17, "id": 17, "cluster_id": "193", "column": null, "row": "C" }, "geometry": { "type": "Point", "coordinates": [ 120.976851379735848, 14.305562148012948 ] } },
{ "type": "Feature", "properties": { "fid": 18, "id": 18, "cluster_id": "193", "column": null, "row": "C" }, "geometry": { "type": "Point", "coordinates": [ 120.976863820092191, 14.30556160712789 ] } },
{ "type": "Feature", "properties": { "fid": 19, "id": 19, "cluster_id": "193", "column": null, "row": "C" }, "geometry": { "type": "Point", "coordinates": [ 120.976869499385302, 14.305563229783065 ] } },
{ "type": "Feature", "properties": { "fid": 20, "id": 20, "cluster_id": "193", "column": null, "row": "C" }, "geometry": { "type": "Point", "coordinates": [ 120.97688112841405, 14.305563770668122 ] } },
{ "type": "Feature", "properties": { "fid": 21, "id": 21, "cluster_id": "193", "column": null, "row": "C" }, "geometry": { "type": "Point", "coordinates": [ 120.976888430362337, 14.305564041110651 ] } },
{ "type": "Feature", "properties": { "fid": 22, "id": 22, "cluster_id": "193", "column": null, "row": "C" }, "geometry": { "type": "Point", "coordinates": [ 120.976898707178435, 14.305566204650885 ] } },
{ "type": "Feature", "properties": { "fid": 23, "id": 23, "cluster_id": "193", "column": null, "row": "C" }, "geometry": { "type": "Point", "coordinates": [ 120.976910606649724, 14.305565393323297 ] } },
{ "type": "Feature", "properties": { "fid": 24, "id": 24, "cluster_id": "193", "column": null, "row": "C" }, "geometry": { "type": "Point", "coordinates": [ 120.976917367712943, 14.305567015978472 ] } },
{ "type": "Feature", "properties": { "fid": 25, "id": 25, "cluster_id": "193", "column": null, "row": "C" }, "geometry": { "type": "Point", "coordinates": [ 120.976925751431352, 14.305567286421001 ] } },
{ "type": "Feature", "properties": { "fid": 26, "id": 26, "cluster_id": "193", "column": null, "row": "C" }, "geometry": { "type": "Point", "coordinates": [ 120.976933053379639, 14.305567556863529 ] } },
{ "type": "Feature", "properties": { "fid": 27, "id": 27, "cluster_id": "193", "column": null, "row": "C" }, "geometry": { "type": "Point", "coordinates": [ 120.976945223293441, 14.305568638633646 ] } },
{ "type": "Feature", "properties": { "fid": 28, "id": 28, "cluster_id": "193", "column": null, "row": "C" }, "geometry": { "type": "Point", "coordinates": [ 120.976955229667027, 14.305569449961235 ] } },
{ "type": "Feature", "properties": { "fid": 29, "id": 29, "cluster_id": "193", "column": null, "row": "C" }, "geometry": { "type": "Point", "coordinates": [ 120.976963613385422, 14.305570261288821 ] } },
{ "type": "Feature", "properties": { "fid": 30, "id": 30, "cluster_id": "193", "column": null, "row": "C" }, "geometry": { "type": "Point", "coordinates": [ 120.976973619759008, 14.305572965714113 ] } },
{ "type": "Feature", "properties": { "fid": 31, "id": 31, "cluster_id": "193", "column": null, "row": "C" }, "geometry": { "type": "Point", "coordinates": [ 120.976983626132579, 14.305571883943996 ] } },
{ "type": "Feature", "properties": { "fid": 32, "id": 32, "cluster_id": "193", "column": null, "row": "C" }, "geometry": { "type": "Point", "coordinates": [ 120.976993902948692, 14.305573777041699 ] } },
{ "type": "Feature", "properties": { "fid": 33, "id": 33, "cluster_id": "193", "column": null, "row": "C" }, "geometry": { "type": "Point", "coordinates": [ 120.97700553197744, 14.305575129254345 ] } },
{ "type": "Feature", "properties": { "fid": 34, "id": 34, "cluster_id": "193", "column": null, "row": "C" }, "geometry": { "type": "Point", "coordinates": [ 120.977019594988946, 14.305574858811816 ] } },
{ "type": "Feature", "properties": { "fid": 35, "id": 35, "cluster_id": "193", "column": null, "row": "C" }, "geometry": { "type": "Point", "coordinates": [ 120.977029601362531, 14.305577022352049 ] } },
{ "type": "Feature", "properties": { "fid": 36, "id": 36, "cluster_id": "193", "column": null, "row": "C" }, "geometry": { "type": "Point", "coordinates": [ 120.977042312161402, 14.305577022352049 ] } },
{ "type": "Feature", "properties": { "fid": 37, "id": 37, "cluster_id": "193", "column": null, "row": "C" }, "geometry": { "type": "Point", "coordinates": [ 120.977052048092446, 14.305578374564694 ] } },
{ "type": "Feature", "properties": { "fid": 38, "id": 38, "cluster_id": "193", "column": null, "row": "C" }, "geometry": { "type": "Point", "coordinates": [ 120.977063947563721, 14.305578915449752 ] } },
{ "type": "Feature", "properties": { "fid": 39, "id": 39, "cluster_id": "193", "column": null, "row": "C" }, "geometry": { "type": "Point", "coordinates": [ 120.977071249512008, 14.305579997219869 ] } },
{ "type": "Feature", "properties": { "fid": 40, "id": 40, "cluster_id": "193", "column": null, "row": "C" }, "geometry": { "type": "Point", "coordinates": [ 120.977082878540756, 14.305579997219869 ] } }
]
}
