{
    "type": "FeatureCollection",
    "name": "cltr-id-160-e-row",
    "crs": {
        "type": "name",
        "properties": { "name": "urn:ogc:def:crs:OGC:1.3:CRS84" }
    },
    "features": [
        {
            "type": "Feature",
            "properties": {
                "fid": 1,
                "id": 1,
                "cluster_id": "160",
                "column": null,
                "row": "E"
            },
            "geometry": {
                "type": "Point",
                "coordinates": [120.976382470843404, 14.305834939845088]
            }
        },
        {
            "type": "Feature",
            "properties": {
                "fid": 2,
                "id": 2,
                "cluster_id": "160",
                "column": null,
                "row": "E"
            },
            "geometry": {
                "type": "Point",
                "coordinates": [120.976393918146229, 14.305835575806356]
            }
        },
        {
            "type": "Feature",
            "properties": {
                "fid": 3,
                "id": 3,
                "cluster_id": "160",
                "column": null,
                "row": "E"
            },
            "geometry": {
                "type": "Point",
                "coordinates": [120.976404835481318, 14.305836317761168]
            }
        },
        {
            "type": "Feature",
            "properties": {
                "fid": 4,
                "id": 4,
                "cluster_id": "160",
                "column": null,
                "row": "E"
            },
            "geometry": {
                "type": "Point",
                "coordinates": [120.976417342719586, 14.305837589683703]
            }
        },
        {
            "type": "Feature",
            "properties": {
                "fid": 5,
                "id": 5,
                "cluster_id": "160",
                "column": null,
                "row": "E"
            },
            "geometry": {
                "type": "Point",
                "coordinates": [120.97642614018379, 14.305838119651426]
            }
        },
        {
            "type": "Feature",
            "properties": {
                "fid": 6,
                "id": 6,
                "cluster_id": "160",
                "column": null,
                "row": "E"
            },
            "geometry": {
                "type": "Point",
                "coordinates": [120.976434513673823, 14.305838225644971]
            }
        },
        {
            "type": "Feature",
            "properties": {
                "fid": 7,
                "id": 7,
                "cluster_id": "160",
                "column": null,
                "row": "E"
            },
            "geometry": {
                "type": "Point",
                "coordinates": [120.976442887163842, 14.305838967599783]
            }
        },
        {
            "type": "Feature",
            "properties": {
                "fid": 8,
                "id": 8,
                "cluster_id": "160",
                "column": null,
                "row": "E"
            },
            "geometry": {
                "type": "Point",
                "coordinates": [120.976449458763611, 14.305840027535231]
            }
        },
        {
            "type": "Feature",
            "properties": {
                "fid": 9,
                "id": 9,
                "cluster_id": "160",
                "column": null,
                "row": "E"
            },
            "geometry": {
                "type": "Point",
                "coordinates": [120.976458786195536, 14.305840451509409]
            }
        },
        {
            "type": "Feature",
            "properties": {
                "fid": 10,
                "id": 10,
                "cluster_id": "160",
                "column": null,
                "row": "E"
            },
            "geometry": {
                "type": "Point",
                "coordinates": [120.976466629717848, 14.305840663496499]
            }
        },
        {
            "type": "Feature",
            "properties": {
                "fid": 11,
                "id": 11,
                "cluster_id": "160",
                "column": null,
                "row": "E"
            },
            "geometry": {
                "type": "Point",
                "coordinates": [120.976475957149773, 14.305841511444855]
            }
        },
        {
            "type": "Feature",
            "properties": {
                "fid": 12,
                "id": 12,
                "cluster_id": "160",
                "column": null,
                "row": "E"
            },
            "geometry": {
                "type": "Point",
                "coordinates": [120.976483800672071, 14.305842571380301]
            }
        },
        {
            "type": "Feature",
            "properties": {
                "fid": 13,
                "id": 13,
                "cluster_id": "160",
                "column": null,
                "row": "E"
            },
            "geometry": {
                "type": "Point",
                "coordinates": [120.976491432207297, 14.305843843302837]
            }
        },
        {
            "type": "Feature",
            "properties": {
                "fid": 14,
                "id": 14,
                "cluster_id": "160",
                "column": null,
                "row": "E"
            },
            "geometry": {
                "type": "Point",
                "coordinates": [120.976494294033003, 14.305838755612694]
            }
        },
        {
            "type": "Feature",
            "properties": {
                "fid": 15,
                "id": 15,
                "cluster_id": "160",
                "column": null,
                "row": "E"
            },
            "geometry": {
                "type": "Point",
                "coordinates": [120.97649492999426, 14.305831760038748]
            }
        }
    ]
}
