{
"type": "FeatureCollection",
"name": "cltr-id-190-b-row",
"crs": { "type": "name", "properties": { "name": "urn:ogc:def:crs:OGC:1.3:CRS84" } },
"features": [
{ "type": "Feature", "properties": { "fid": 1, "id": 1, "cluster_id": "190", "column": null, "row": "B" }, "geometry": { "type": "Point", "coordinates": [ 120.976781335120833, 14.305460461622005 ] } },
{ "type": "Feature", "properties": { "fid": 2, "id": 2, "cluster_id": "190", "column": null, "row": "B" }, "geometry": { "type": "Point", "coordinates": [ 120.976791611936932, 14.305462084277181 ] } },
{ "type": "Feature", "properties": { "fid": 3, "id": 3, "cluster_id": "190", "column": null, "row": "B" }, "geometry": { "type": "Point", "coordinates": [ 120.976796479902461, 14.305462625162239 ] } },
{ "type": "Feature", "properties": { "fid": 4, "id": 4, "cluster_id": "190", "column": null, "row": "B" }, "geometry": { "type": "Point", "coordinates": [ 120.976806215833506, 14.305462625162239 ] } },
{ "type": "Feature", "properties": { "fid": 5, "id": 5, "cluster_id": "190", "column": null, "row": "B" }, "geometry": { "type": "Point", "coordinates": [ 120.976816492649618, 14.305465870472588 ] } },
{ "type": "Feature", "properties": { "fid": 6, "id": 6, "cluster_id": "190", "column": null, "row": "B" }, "geometry": { "type": "Point", "coordinates": [ 120.976825687695609, 14.305466952242703 ] } },
{ "type": "Feature", "properties": { "fid": 7, "id": 7, "cluster_id": "190", "column": null, "row": "B" }, "geometry": { "type": "Point", "coordinates": [ 120.97683704628183, 14.305467493127763 ] } },
{ "type": "Feature", "properties": { "fid": 8, "id": 8, "cluster_id": "190", "column": null, "row": "B" }, "geometry": { "type": "Point", "coordinates": [ 120.976848945753119, 14.305468574897878 ] } },
{ "type": "Feature", "properties": { "fid": 9, "id": 9, "cluster_id": "190", "column": null, "row": "B" }, "geometry": { "type": "Point", "coordinates": [ 120.976860304339326, 14.305470738438112 ] } },
{ "type": "Feature", "properties": { "fid": 10, "id": 10, "cluster_id": "190", "column": null, "row": "B" }, "geometry": { "type": "Point", "coordinates": [ 120.976872203810615, 14.305472361093287 ] } },
{ "type": "Feature", "properties": { "fid": 11, "id": 11, "cluster_id": "190", "column": null, "row": "B" }, "geometry": { "type": "Point", "coordinates": [ 120.976883021511782, 14.305472901978344 ] } },
{ "type": "Feature", "properties": { "fid": 12, "id": 12, "cluster_id": "190", "column": null, "row": "B" }, "geometry": { "type": "Point", "coordinates": [ 120.97689329832788, 14.305472901978344 ] } },
{ "type": "Feature", "properties": { "fid": 13, "id": 13, "cluster_id": "190", "column": null, "row": "B" }, "geometry": { "type": "Point", "coordinates": [ 120.976904656914101, 14.305476147288694 ] } },
{ "type": "Feature", "properties": { "fid": 14, "id": 14, "cluster_id": "190", "column": null, "row": "B" }, "geometry": { "type": "Point", "coordinates": [ 120.976917097270444, 14.305475065518577 ] } },
{ "type": "Feature", "properties": { "fid": 15, "id": 15, "cluster_id": "190", "column": null, "row": "B" }, "geometry": { "type": "Point", "coordinates": [ 120.976928455856665, 14.305476688173751 ] } },
{ "type": "Feature", "properties": { "fid": 16, "id": 16, "cluster_id": "190", "column": null, "row": "B" }, "geometry": { "type": "Point", "coordinates": [ 120.976939273557832, 14.305476688173751 ] } },
{ "type": "Feature", "properties": { "fid": 17, "id": 17, "cluster_id": "190", "column": null, "row": "B" }, "geometry": { "type": "Point", "coordinates": [ 120.976949009488877, 14.305478851713985 ] } },
{ "type": "Feature", "properties": { "fid": 18, "id": 18, "cluster_id": "190", "column": null, "row": "B" }, "geometry": { "type": "Point", "coordinates": [ 120.976958745419921, 14.305479933484101 ] } },
{ "type": "Feature", "properties": { "fid": 19, "id": 19, "cluster_id": "190", "column": null, "row": "B" }, "geometry": { "type": "Point", "coordinates": [ 120.97697064489121, 14.305482637909392 ] } },
{ "type": "Feature", "properties": { "fid": 20, "id": 20, "cluster_id": "190", "column": null, "row": "B" }, "geometry": { "type": "Point", "coordinates": [ 120.976979299052132, 14.305482637909392 ] } },
{ "type": "Feature", "properties": { "fid": 21, "id": 21, "cluster_id": "190", "column": null, "row": "B" }, "geometry": { "type": "Point", "coordinates": [ 120.976986871442946, 14.305484260564567 ] } },
{ "type": "Feature", "properties": { "fid": 22, "id": 22, "cluster_id": "190", "column": null, "row": "B" }, "geometry": { "type": "Point", "coordinates": [ 120.976997148259059, 14.305484801449625 ] } },
{ "type": "Feature", "properties": { "fid": 23, "id": 23, "cluster_id": "190", "column": null, "row": "B" }, "geometry": { "type": "Point", "coordinates": [ 120.977005802419995, 14.305486424104799 ] } },
{ "type": "Feature", "properties": { "fid": 24, "id": 24, "cluster_id": "190", "column": null, "row": "B" }, "geometry": { "type": "Point", "coordinates": [ 120.977016079236094, 14.305487505874916 ] } },
{ "type": "Feature", "properties": { "fid": 25, "id": 25, "cluster_id": "190", "column": null, "row": "B" }, "geometry": { "type": "Point", "coordinates": [ 120.977025815167138, 14.305486964989857 ] } },
{ "type": "Feature", "properties": { "fid": 26, "id": 26, "cluster_id": "190", "column": null, "row": "B" }, "geometry": { "type": "Point", "coordinates": [ 120.977035010213129, 14.305489128530091 ] } },
{ "type": "Feature", "properties": { "fid": 27, "id": 27, "cluster_id": "190", "column": null, "row": "B" }, "geometry": { "type": "Point", "coordinates": [ 120.977043123489011, 14.305487505874916 ] } },
{ "type": "Feature", "properties": { "fid": 28, "id": 28, "cluster_id": "190", "column": null, "row": "B" }, "geometry": { "type": "Point", "coordinates": [ 120.977051236764879, 14.305491832955381 ] } },
{ "type": "Feature", "properties": { "fid": 29, "id": 29, "cluster_id": "190", "column": null, "row": "B" }, "geometry": { "type": "Point", "coordinates": [ 120.977057186500517, 14.305490751185266 ] } },
{ "type": "Feature", "properties": { "fid": 30, "id": 30, "cluster_id": "190", "column": null, "row": "B" }, "geometry": { "type": "Point", "coordinates": [ 120.977066922431575, 14.305489669415149 ] } },
{ "type": "Feature", "properties": { "fid": 31, "id": 31, "cluster_id": "190", "column": null, "row": "B" }, "geometry": { "type": "Point", "coordinates": [ 120.977076117477552, 14.305491292070323 ] } },
{ "type": "Feature", "properties": { "fid": 32, "id": 32, "cluster_id": "190", "column": null, "row": "B" }, "geometry": { "type": "Point", "coordinates": [ 120.977082067213203, 14.305491832955381 ] } },
{ "type": "Feature", "properties": { "fid": 33, "id": 33, "cluster_id": "190", "column": null, "row": "B" }, "geometry": { "type": "Point", "coordinates": [ 120.977088557833895, 14.305492914725498 ] } },
{ "type": "Feature", "properties": { "fid": 34, "id": 34, "cluster_id": "190", "column": null, "row": "B" }, "geometry": { "type": "Point", "coordinates": [ 120.977094507569532, 14.30549237384044 ] } },
{ "type": "Feature", "properties": { "fid": 35, "id": 35, "cluster_id": "190", "column": null, "row": "B" }, "geometry": { "type": "Point", "coordinates": [ 120.977099375535062, 14.30548047436916 ] } },
{ "type": "Feature", "properties": { "fid": 36, "id": 36, "cluster_id": "190", "column": null, "row": "B" }, "geometry": { "type": "Point", "coordinates": [ 120.977100998190238, 14.305471820208227 ] } }
]
}
