{
"type": "FeatureCollection",
"name": "cltr-id-151-a-row",
"crs": { "type": "name", "properties": { "name": "urn:ogc:def:crs:OGC:1.3:CRS84" } },
"features": [
{ "type": "Feature", "properties": { "fid": 1, "id": 1, "cluster_id": "151", "column": null, "row": "A" }, "geometry": { "type": "Point", "coordinates": [ 120.976034212079128, 14.305643793524091 ] } },
{ "type": "Feature", "properties": { "fid": 2, "id": 2, "cluster_id": "151", "column": null, "row": "A" }, "geometry": { "type": "Point", "coordinates": [ 120.976034772996968, 14.305635940674355 ] } },
{ "type": "Feature", "properties": { "fid": 3, "id": 3, "cluster_id": "151", "column": null, "row": "A" }, "geometry": { "type": "Point", "coordinates": [ 120.976049356860784, 14.305629209660294 ] } },
{ "type": "Feature", "properties": { "fid": 4, "id": 4, "cluster_id": "151", "column": null, "row": "A" }, "geometry": { "type": "Point", "coordinates": [ 120.976062070998452, 14.305630331495971 ] } },
{ "type": "Feature", "properties": { "fid": 5, "id": 5, "cluster_id": "151", "column": null, "row": "A" }, "geometry": { "type": "Point", "coordinates": [ 120.97607478513612, 14.305631079386421 ] } },
{ "type": "Feature", "properties": { "fid": 6, "id": 6, "cluster_id": "151", "column": null, "row": "A" }, "geometry": { "type": "Point", "coordinates": [ 120.976087873219015, 14.305631827276873 ] } },
{ "type": "Feature", "properties": { "fid": 7, "id": 7, "cluster_id": "151", "column": null, "row": "A" }, "geometry": { "type": "Point", "coordinates": [ 120.976098343685322, 14.305632201222098 ] } },
{ "type": "Feature", "properties": { "fid": 8, "id": 8, "cluster_id": "151", "column": null, "row": "A" }, "geometry": { "type": "Point", "coordinates": [ 120.976108814151644, 14.30563294911255 ] } },
{ "type": "Feature", "properties": { "fid": 9, "id": 9, "cluster_id": "151", "column": null, "row": "A" }, "geometry": { "type": "Point", "coordinates": [ 120.976117040946605, 14.305634070948225 ] } },
{ "type": "Feature", "properties": { "fid": 10, "id": 10, "cluster_id": "151", "column": null, "row": "A" }, "geometry": { "type": "Point", "coordinates": [ 120.976127511412912, 14.305634070948225 ] } },
{ "type": "Feature", "properties": { "fid": 11, "id": 11, "cluster_id": "151", "column": null, "row": "A" }, "geometry": { "type": "Point", "coordinates": [ 120.976137607934007, 14.305634444893451 ] } },
{ "type": "Feature", "properties": { "fid": 12, "id": 12, "cluster_id": "151", "column": null, "row": "A" }, "geometry": { "type": "Point", "coordinates": [ 120.976147704455087, 14.305635940674353 ] } },
{ "type": "Feature", "properties": { "fid": 13, "id": 13, "cluster_id": "151", "column": null, "row": "A" }, "geometry": { "type": "Point", "coordinates": [ 120.976157053085728, 14.305636314619578 ] } },
{ "type": "Feature", "properties": { "fid": 14, "id": 14, "cluster_id": "151", "column": null, "row": "A" }, "geometry": { "type": "Point", "coordinates": [ 120.976167523552036, 14.305637062510028 ] } },
{ "type": "Feature", "properties": { "fid": 15, "id": 15, "cluster_id": "151", "column": null, "row": "A" }, "geometry": { "type": "Point", "coordinates": [ 120.97617649823745, 14.30563781040048 ] } },
{ "type": "Feature", "properties": { "fid": 16, "id": 16, "cluster_id": "151", "column": null, "row": "A" }, "geometry": { "type": "Point", "coordinates": [ 120.976185846868091, 14.305638184345705 ] } },
{ "type": "Feature", "properties": { "fid": 17, "id": 17, "cluster_id": "151", "column": null, "row": "A" }, "geometry": { "type": "Point", "coordinates": [ 120.976195569443945, 14.30563855829093 ] } },
{ "type": "Feature", "properties": { "fid": 18, "id": 18, "cluster_id": "151", "column": null, "row": "A" }, "geometry": { "type": "Point", "coordinates": [ 120.976204544129359, 14.305639680126607 ] } },
{ "type": "Feature", "properties": { "fid": 19, "id": 19, "cluster_id": "151", "column": null, "row": "A" }, "geometry": { "type": "Point", "coordinates": [ 120.976215014595681, 14.305640428017059 ] } },
{ "type": "Feature", "properties": { "fid": 20, "id": 20, "cluster_id": "151", "column": null, "row": "A" }, "geometry": { "type": "Point", "coordinates": [ 120.976223241390628, 14.305641549852735 ] } },
{ "type": "Feature", "properties": { "fid": 21, "id": 21, "cluster_id": "151", "column": null, "row": "A" }, "geometry": { "type": "Point", "coordinates": [ 120.976232216076042, 14.30564267168841 ] } },
{ "type": "Feature", "properties": { "fid": 22, "id": 22, "cluster_id": "151", "column": null, "row": "A" }, "geometry": { "type": "Point", "coordinates": [ 120.97624193865191, 14.305643045633637 ] } },
{ "type": "Feature", "properties": { "fid": 23, "id": 23, "cluster_id": "151", "column": null, "row": "A" }, "geometry": { "type": "Point", "coordinates": [ 120.976250539392097, 14.305643793524087 ] } },
{ "type": "Feature", "properties": { "fid": 24, "id": 24, "cluster_id": "151", "column": null, "row": "A" }, "geometry": { "type": "Point", "coordinates": [ 120.976258766187058, 14.305644541414539 ] } },
{ "type": "Feature", "properties": { "fid": 25, "id": 25, "cluster_id": "151", "column": null, "row": "A" }, "geometry": { "type": "Point", "coordinates": [ 120.976266619036792, 14.305644167469312 ] } },
{ "type": "Feature", "properties": { "fid": 26, "id": 26, "cluster_id": "151", "column": null, "row": "A" }, "geometry": { "type": "Point", "coordinates": [ 120.9762740979413, 14.305645289304989 ] } },
{ "type": "Feature", "properties": { "fid": 27, "id": 27, "cluster_id": "151", "column": null, "row": "A" }, "geometry": { "type": "Point", "coordinates": [ 120.976281576845807, 14.305645663250214 ] } },
{ "type": "Feature", "properties": { "fid": 28, "id": 28, "cluster_id": "151", "column": null, "row": "A" }, "geometry": { "type": "Point", "coordinates": [ 120.976289803640768, 14.305646037195441 ] } },
{ "type": "Feature", "properties": { "fid": 29, "id": 29, "cluster_id": "151", "column": null, "row": "A" }, "geometry": { "type": "Point", "coordinates": [ 120.976297656490502, 14.305647159031118 ] } },
{ "type": "Feature", "properties": { "fid": 30, "id": 30, "cluster_id": "151", "column": null, "row": "A" }, "geometry": { "type": "Point", "coordinates": [ 120.976304761449782, 14.305647532976343 ] } },
{ "type": "Feature", "properties": { "fid": 31, "id": 31, "cluster_id": "151", "column": null, "row": "A" }, "geometry": { "type": "Point", "coordinates": [ 120.976311866409077, 14.305648280866793 ] } },
{ "type": "Feature", "properties": { "fid": 32, "id": 32, "cluster_id": "151", "column": null, "row": "A" }, "geometry": { "type": "Point", "coordinates": [ 120.976318971368357, 14.305648654812019 ] } },
{ "type": "Feature", "properties": { "fid": 33, "id": 33, "cluster_id": "151", "column": null, "row": "A" }, "geometry": { "type": "Point", "coordinates": [ 120.976326450272865, 14.305649402702469 ] } },
{ "type": "Feature", "properties": { "fid": 34, "id": 34, "cluster_id": "151", "column": null, "row": "A" }, "geometry": { "type": "Point", "coordinates": [ 120.976332807341706, 14.305649776647694 ] } },
{ "type": "Feature", "properties": { "fid": 35, "id": 35, "cluster_id": "151", "column": null, "row": "A" }, "geometry": { "type": "Point", "coordinates": [ 120.976339912300986, 14.305650898483371 ] } },
{ "type": "Feature", "properties": { "fid": 36, "id": 36, "cluster_id": "151", "column": null, "row": "A" }, "geometry": { "type": "Point", "coordinates": [ 120.97634776515072, 14.305651272428596 ] } }
]
}
