{
"type": "FeatureCollection",
"name": "cltr-id-150-d-row",
"crs": { "type": "name", "properties": { "name": "urn:ogc:def:crs:OGC:1.3:CRS84" } },
"features": [
{ "type": "Feature", "properties": { "fid": 1, "id": 1, "cluster_id": "150", "column": null, "row": "D" }, "geometry": { "type": "Point", "coordinates": [ 120.976036851142553, 14.305668043919166 ] } },
{ "type": "Feature", "properties": { "fid": 2, "id": 2, "cluster_id": "150", "column": null, "row": "D" }, "geometry": { "type": "Point", "coordinates": [ 120.976046386745807, 14.305668043919166 ] } },
{ "type": "Feature", "properties": { "fid": 3, "id": 3, "cluster_id": "150", "column": null, "row": "D" }, "geometry": { "type": "Point", "coordinates": [ 120.976057605102568, 14.30567028759052 ] } },
{ "type": "Feature", "properties": { "fid": 4, "id": 4, "cluster_id": "150", "column": null, "row": "D" }, "geometry": { "type": "Point", "coordinates": [ 120.976069384377169, 14.30567309217971 ] } },
{ "type": "Feature", "properties": { "fid": 5, "id": 5, "cluster_id": "150", "column": null, "row": "D" }, "geometry": { "type": "Point", "coordinates": [ 120.976080041816104, 14.305672531261871 ] } },
{ "type": "Feature", "properties": { "fid": 6, "id": 6, "cluster_id": "150", "column": null, "row": "D" }, "geometry": { "type": "Point", "coordinates": [ 120.976090138337184, 14.30567309217971 ] } },
{ "type": "Feature", "properties": { "fid": 7, "id": 7, "cluster_id": "150", "column": null, "row": "D" }, "geometry": { "type": "Point", "coordinates": [ 120.976101356693945, 14.305674774933225 ] } },
{ "type": "Feature", "properties": { "fid": 8, "id": 8, "cluster_id": "150", "column": null, "row": "D" }, "geometry": { "type": "Point", "coordinates": [ 120.97611257505072, 14.305675335851063 ] } },
{ "type": "Feature", "properties": { "fid": 9, "id": 9, "cluster_id": "150", "column": null, "row": "D" }, "geometry": { "type": "Point", "coordinates": [ 120.976120427900455, 14.305676457686738 ] } },
{ "type": "Feature", "properties": { "fid": 10, "id": 10, "cluster_id": "150", "column": null, "row": "D" }, "geometry": { "type": "Point", "coordinates": [ 120.976129963503695, 14.305677018604577 ] } },
{ "type": "Feature", "properties": { "fid": 11, "id": 11, "cluster_id": "150", "column": null, "row": "D" }, "geometry": { "type": "Point", "coordinates": [ 120.97614006002479, 14.305677579522415 ] } },
{ "type": "Feature", "properties": { "fid": 12, "id": 12, "cluster_id": "150", "column": null, "row": "D" }, "geometry": { "type": "Point", "coordinates": [ 120.97615015654587, 14.305678701358092 ] } },
{ "type": "Feature", "properties": { "fid": 13, "id": 13, "cluster_id": "150", "column": null, "row": "D" }, "geometry": { "type": "Point", "coordinates": [ 120.976159131231285, 14.305681505947282 ] } },
{ "type": "Feature", "properties": { "fid": 14, "id": 14, "cluster_id": "150", "column": null, "row": "D" }, "geometry": { "type": "Point", "coordinates": [ 120.976168666834539, 14.30567926227593 ] } },
{ "type": "Feature", "properties": { "fid": 15, "id": 15, "cluster_id": "150", "column": null, "row": "D" }, "geometry": { "type": "Point", "coordinates": [ 120.976177080602113, 14.305680384111607 ] } },
{ "type": "Feature", "properties": { "fid": 16, "id": 16, "cluster_id": "150", "column": null, "row": "D" }, "geometry": { "type": "Point", "coordinates": [ 120.976188298958874, 14.305682627782959 ] } },
{ "type": "Feature", "properties": { "fid": 17, "id": 17, "cluster_id": "150", "column": null, "row": "D" }, "geometry": { "type": "Point", "coordinates": [ 120.976197273644289, 14.305682627782959 ] } },
{ "type": "Feature", "properties": { "fid": 18, "id": 18, "cluster_id": "150", "column": null, "row": "D" }, "geometry": { "type": "Point", "coordinates": [ 120.976207931083209, 14.305682627782959 ] } },
{ "type": "Feature", "properties": { "fid": 19, "id": 19, "cluster_id": "150", "column": null, "row": "D" }, "geometry": { "type": "Point", "coordinates": [ 120.976217466686464, 14.305685432372151 ] } },
{ "type": "Feature", "properties": { "fid": 20, "id": 20, "cluster_id": "150", "column": null, "row": "D" }, "geometry": { "type": "Point", "coordinates": [ 120.976228124125385, 14.305683749618636 ] } },
{ "type": "Feature", "properties": { "fid": 21, "id": 21, "cluster_id": "150", "column": null, "row": "D" }, "geometry": { "type": "Point", "coordinates": [ 120.976236537892959, 14.305685432372151 ] } },
{ "type": "Feature", "properties": { "fid": 22, "id": 22, "cluster_id": "150", "column": null, "row": "D" }, "geometry": { "type": "Point", "coordinates": [ 120.976245512578373, 14.305686554207828 ] } },
{ "type": "Feature", "properties": { "fid": 23, "id": 23, "cluster_id": "150", "column": null, "row": "D" }, "geometry": { "type": "Point", "coordinates": [ 120.976255048181613, 14.305685432372151 ] } },
{ "type": "Feature", "properties": { "fid": 24, "id": 24, "cluster_id": "150", "column": null, "row": "D" }, "geometry": { "type": "Point", "coordinates": [ 120.976262340113522, 14.305685993289989 ] } },
{ "type": "Feature", "properties": { "fid": 25, "id": 25, "cluster_id": "150", "column": null, "row": "D" }, "geometry": { "type": "Point", "coordinates": [ 120.976272436634602, 14.305685993289989 ] } },
{ "type": "Feature", "properties": { "fid": 26, "id": 26, "cluster_id": "150", "column": null, "row": "D" }, "geometry": { "type": "Point", "coordinates": [ 120.976280289484336, 14.305687676043503 ] } },
{ "type": "Feature", "properties": { "fid": 27, "id": 27, "cluster_id": "150", "column": null, "row": "D" }, "geometry": { "type": "Point", "coordinates": [ 120.976290386005431, 14.305686554207828 ] } },
{ "type": "Feature", "properties": { "fid": 28, "id": 28, "cluster_id": "150", "column": null, "row": "D" }, "geometry": { "type": "Point", "coordinates": [ 120.976299921608671, 14.30568879787918 ] } },
{ "type": "Feature", "properties": { "fid": 29, "id": 29, "cluster_id": "150", "column": null, "row": "D" }, "geometry": { "type": "Point", "coordinates": [ 120.976307213540579, 14.30568879787918 ] } },
{ "type": "Feature", "properties": { "fid": 30, "id": 30, "cluster_id": "150", "column": null, "row": "D" }, "geometry": { "type": "Point", "coordinates": [ 120.976314505472473, 14.305692724304047 ] } },
{ "type": "Feature", "properties": { "fid": 31, "id": 31, "cluster_id": "150", "column": null, "row": "D" }, "geometry": { "type": "Point", "coordinates": [ 120.976322919240047, 14.30568879787918 ] } },
{ "type": "Feature", "properties": { "fid": 32, "id": 32, "cluster_id": "150", "column": null, "row": "D" }, "geometry": { "type": "Point", "coordinates": [ 120.976330211171941, 14.305692163386208 ] } },
{ "type": "Feature", "properties": { "fid": 33, "id": 33, "cluster_id": "150", "column": null, "row": "D" }, "geometry": { "type": "Point", "coordinates": [ 120.976338064021675, 14.305694407057562 ] } },
{ "type": "Feature", "properties": { "fid": 34, "id": 34, "cluster_id": "150", "column": null, "row": "D" }, "geometry": { "type": "Point", "coordinates": [ 120.976345355953569, 14.305695528893239 ] } },
{ "type": "Feature", "properties": { "fid": 35, "id": 35, "cluster_id": "150", "column": null, "row": "D" }, "geometry": { "type": "Point", "coordinates": [ 120.976348721460596, 14.305691041550533 ] } },
{ "type": "Feature", "properties": { "fid": 36, "id": 36, "cluster_id": "150", "column": null, "row": "D" }, "geometry": { "type": "Point", "coordinates": [ 120.976349282378436, 14.305683749618636 ] } }
]
}
