{
"type": "FeatureCollection",
"name": "cltr-id-192-b-row",
"crs": { "type": "name", "properties": { "name": "urn:ogc:def:crs:OGC:1.3:CRS84" } },
"features": [
{ "type": "Feature", "properties": { "fid": 1, "id": 1, "cluster_id": "192", "column": null, "row": "B" }, "geometry": { "type": "Point", "coordinates": [ 120.976736847324716, 14.305593789788858 ] } },
{ "type": "Feature", "properties": { "fid": 2, "id": 2, "cluster_id": "192", "column": null, "row": "B" }, "geometry": { "type": "Point", "coordinates": [ 120.976744149273003, 14.305594871558974 ] } },
{ "type": "Feature", "properties": { "fid": 3, "id": 3, "cluster_id": "192", "column": null, "row": "B" }, "geometry": { "type": "Point", "coordinates": [ 120.97675145122129, 14.305595412444033 ] } },
{ "type": "Feature", "properties": { "fid": 4, "id": 4, "cluster_id": "192", "column": null, "row": "B" }, "geometry": { "type": "Point", "coordinates": [ 120.976759834939699, 14.305597846426794 ] } },
{ "type": "Feature", "properties": { "fid": 5, "id": 5, "cluster_id": "192", "column": null, "row": "B" }, "geometry": { "type": "Point", "coordinates": [ 120.976768759543162, 14.305598657754382 ] } },
{ "type": "Feature", "properties": { "fid": 6, "id": 6, "cluster_id": "192", "column": null, "row": "B" }, "geometry": { "type": "Point", "coordinates": [ 120.97678038857191, 14.305600009967028 ] } },
{ "type": "Feature", "properties": { "fid": 7, "id": 7, "cluster_id": "192", "column": null, "row": "B" }, "geometry": { "type": "Point", "coordinates": [ 120.976789313175374, 14.305601632622203 ] } },
{ "type": "Feature", "properties": { "fid": 8, "id": 8, "cluster_id": "192", "column": null, "row": "B" }, "geometry": { "type": "Point", "coordinates": [ 120.976798508221364, 14.305601362179672 ] } },
{ "type": "Feature", "properties": { "fid": 9, "id": 9, "cluster_id": "192", "column": null, "row": "B" }, "geometry": { "type": "Point", "coordinates": [ 120.976806621497232, 14.305603255277378 ] } },
{ "type": "Feature", "properties": { "fid": 10, "id": 10, "cluster_id": "192", "column": null, "row": "B" }, "geometry": { "type": "Point", "coordinates": [ 120.976819332296103, 14.305604607490022 ] } },
{ "type": "Feature", "properties": { "fid": 11, "id": 11, "cluster_id": "192", "column": null, "row": "B" }, "geometry": { "type": "Point", "coordinates": [ 120.976830690882323, 14.30560541881761 ] } },
{ "type": "Feature", "properties": { "fid": 12, "id": 12, "cluster_id": "192", "column": null, "row": "B" }, "geometry": { "type": "Point", "coordinates": [ 120.976843131238667, 14.305606500587727 ] } },
{ "type": "Feature", "properties": { "fid": 13, "id": 13, "cluster_id": "192", "column": null, "row": "B" }, "geometry": { "type": "Point", "coordinates": [ 120.976850162744412, 14.305607582357842 ] } },
{ "type": "Feature", "properties": { "fid": 14, "id": 14, "cluster_id": "192", "column": null, "row": "B" }, "geometry": { "type": "Point", "coordinates": [ 120.976862603100756, 14.305609475455546 ] } },
{ "type": "Feature", "properties": { "fid": 15, "id": 15, "cluster_id": "192", "column": null, "row": "B" }, "geometry": { "type": "Point", "coordinates": [ 120.976872879916868, 14.305609205013017 ] } },
{ "type": "Feature", "properties": { "fid": 16, "id": 16, "cluster_id": "192", "column": null, "row": "B" }, "geometry": { "type": "Point", "coordinates": [ 120.97688640204332, 14.30561109811072 ] } },
{ "type": "Feature", "properties": { "fid": 17, "id": 17, "cluster_id": "192", "column": null, "row": "B" }, "geometry": { "type": "Point", "coordinates": [ 120.976898031072068, 14.30561163899578 ] } },
{ "type": "Feature", "properties": { "fid": 18, "id": 18, "cluster_id": "192", "column": null, "row": "B" }, "geometry": { "type": "Point", "coordinates": [ 120.976906414790477, 14.305612720765895 ] } },
{ "type": "Feature", "properties": { "fid": 19, "id": 19, "cluster_id": "192", "column": null, "row": "B" }, "geometry": { "type": "Point", "coordinates": [ 120.976913716738764, 14.305613532093483 ] } },
{ "type": "Feature", "properties": { "fid": 20, "id": 20, "cluster_id": "192", "column": null, "row": "B" }, "geometry": { "type": "Point", "coordinates": [ 120.976923723112336, 14.305613261650954 ] } },
{ "type": "Feature", "properties": { "fid": 21, "id": 21, "cluster_id": "192", "column": null, "row": "B" }, "geometry": { "type": "Point", "coordinates": [ 120.976935622583611, 14.305615154748658 ] } },
{ "type": "Feature", "properties": { "fid": 22, "id": 22, "cluster_id": "192", "column": null, "row": "B" }, "geometry": { "type": "Point", "coordinates": [ 120.976947251612373, 14.305614613863598 ] } },
{ "type": "Feature", "properties": { "fid": 23, "id": 23, "cluster_id": "192", "column": null, "row": "B" }, "geometry": { "type": "Point", "coordinates": [ 120.976956987543417, 14.305616236518773 ] } },
{ "type": "Feature", "properties": { "fid": 24, "id": 24, "cluster_id": "192", "column": null, "row": "B" }, "geometry": { "type": "Point", "coordinates": [ 120.976965641704339, 14.305616777403833 ] } },
{ "type": "Feature", "properties": { "fid": 25, "id": 25, "cluster_id": "192", "column": null, "row": "B" }, "geometry": { "type": "Point", "coordinates": [ 120.976970780112396, 14.305617588731419 ] } },
{ "type": "Feature", "properties": { "fid": 26, "id": 26, "cluster_id": "192", "column": null, "row": "B" }, "geometry": { "type": "Point", "coordinates": [ 120.976976729848033, 14.305617859173948 ] } },
{ "type": "Feature", "properties": { "fid": 27, "id": 27, "cluster_id": "192", "column": null, "row": "B" }, "geometry": { "type": "Point", "coordinates": [ 120.976982409141144, 14.305618940944065 ] } },
{ "type": "Feature", "properties": { "fid": 28, "id": 28, "cluster_id": "192", "column": null, "row": "B" }, "geometry": { "type": "Point", "coordinates": [ 120.976987277106673, 14.305620022714182 ] } },
{ "type": "Feature", "properties": { "fid": 29, "id": 29, "cluster_id": "192", "column": null, "row": "B" }, "geometry": { "type": "Point", "coordinates": [ 120.976995119940014, 14.305620834041768 ] } },
{ "type": "Feature", "properties": { "fid": 30, "id": 30, "cluster_id": "192", "column": null, "row": "B" }, "geometry": { "type": "Point", "coordinates": [ 120.97700025834807, 14.305620834041768 ] } },
{ "type": "Feature", "properties": { "fid": 31, "id": 31, "cluster_id": "192", "column": null, "row": "B" }, "geometry": { "type": "Point", "coordinates": [ 120.977007019411303, 14.305621915811885 ] } },
{ "type": "Feature", "properties": { "fid": 32, "id": 32, "cluster_id": "192", "column": null, "row": "B" }, "geometry": { "type": "Point", "coordinates": [ 120.977014050917063, 14.305621915811885 ] } },
{ "type": "Feature", "properties": { "fid": 33, "id": 33, "cluster_id": "192", "column": null, "row": "B" }, "geometry": { "type": "Point", "coordinates": [ 120.977021082422809, 14.305623268024531 ] } },
{ "type": "Feature", "properties": { "fid": 34, "id": 34, "cluster_id": "192", "column": null, "row": "B" }, "geometry": { "type": "Point", "coordinates": [ 120.977029736583745, 14.305623268024531 ] } },
{ "type": "Feature", "properties": { "fid": 35, "id": 35, "cluster_id": "192", "column": null, "row": "B" }, "geometry": { "type": "Point", "coordinates": [ 120.97703812030214, 14.305623808909589 ] } },
{ "type": "Feature", "properties": { "fid": 36, "id": 36, "cluster_id": "192", "column": null, "row": "B" }, "geometry": { "type": "Point", "coordinates": [ 120.977046774463076, 14.305623808909589 ] } },
{ "type": "Feature", "properties": { "fid": 37, "id": 37, "cluster_id": "192", "column": null, "row": "B" }, "geometry": { "type": "Point", "coordinates": [ 120.977054887738944, 14.305624349794646 ] } },
{ "type": "Feature", "properties": { "fid": 38, "id": 38, "cluster_id": "192", "column": null, "row": "B" }, "geometry": { "type": "Point", "coordinates": [ 120.9770627305723, 14.30562624289235 ] } },
{ "type": "Feature", "properties": { "fid": 39, "id": 39, "cluster_id": "192", "column": null, "row": "B" }, "geometry": { "type": "Point", "coordinates": [ 120.977078957124036, 14.305620293156711 ] } },
{ "type": "Feature", "properties": { "fid": 40, "id": 40, "cluster_id": "192", "column": null, "row": "B" }, "geometry": { "type": "Point", "coordinates": [ 120.977079498009104, 14.305614072978541 ] } }
]
}
