{
"type": "FeatureCollection",
"name": "cltr-id-146-e-row",
"crs": { "type": "name", "properties": { "name": "urn:ogc:def:crs:OGC:1.3:CRS84" } },
"features": [
{ "type": "Feature", "properties": { "fid": 1, "id": 1, "cluster_id": "146", "column": null, "row": "E" }, "geometry": { "type": "Point", "coordinates": [ 120.976062329722367, 14.30539278068427 ] } },
{ "type": "Feature", "properties": { "fid": 2, "id": 2, "cluster_id": "146", "column": null, "row": "E" }, "geometry": { "type": "Point", "coordinates": [ 120.976070743489942, 14.305393902519945 ] } },
{ "type": "Feature", "properties": { "fid": 3, "id": 3, "cluster_id": "146", "column": null, "row": "E" }, "geometry": { "type": "Point", "coordinates": [ 120.976078596339676, 14.305393902519945 ] } },
{ "type": "Feature", "properties": { "fid": 4, "id": 4, "cluster_id": "146", "column": null, "row": "E" }, "geometry": { "type": "Point", "coordinates": [ 120.97608701010725, 14.305394463437784 ] } },
{ "type": "Feature", "properties": { "fid": 5, "id": 5, "cluster_id": "146", "column": null, "row": "E" }, "geometry": { "type": "Point", "coordinates": [ 120.976094302039144, 14.305394463437784 ] } },
{ "type": "Feature", "properties": { "fid": 6, "id": 6, "cluster_id": "146", "column": null, "row": "E" }, "geometry": { "type": "Point", "coordinates": [ 120.976101593971052, 14.305394463437784 ] } },
{ "type": "Feature", "properties": { "fid": 7, "id": 7, "cluster_id": "146", "column": null, "row": "E" }, "geometry": { "type": "Point", "coordinates": [ 120.976108885902946, 14.305396707109137 ] } },
{ "type": "Feature", "properties": { "fid": 8, "id": 8, "cluster_id": "146", "column": null, "row": "E" }, "geometry": { "type": "Point", "coordinates": [ 120.97611673875268, 14.305397268026976 ] } },
{ "type": "Feature", "properties": { "fid": 9, "id": 9, "cluster_id": "146", "column": null, "row": "E" }, "geometry": { "type": "Point", "coordinates": [ 120.976125713438094, 14.305397828944814 ] } },
{ "type": "Feature", "properties": { "fid": 10, "id": 10, "cluster_id": "146", "column": null, "row": "E" }, "geometry": { "type": "Point", "coordinates": [ 120.976133005369988, 14.305398389862653 ] } },
{ "type": "Feature", "properties": { "fid": 11, "id": 11, "cluster_id": "146", "column": null, "row": "E" }, "geometry": { "type": "Point", "coordinates": [ 120.976141980055402, 14.305401194451843 ] } },
{ "type": "Feature", "properties": { "fid": 12, "id": 12, "cluster_id": "146", "column": null, "row": "E" }, "geometry": { "type": "Point", "coordinates": [ 120.976149271987296, 14.305400072616166 ] } },
{ "type": "Feature", "properties": { "fid": 13, "id": 13, "cluster_id": "146", "column": null, "row": "E" }, "geometry": { "type": "Point", "coordinates": [ 120.97615712483703, 14.305400633534004 ] } },
{ "type": "Feature", "properties": { "fid": 14, "id": 14, "cluster_id": "146", "column": null, "row": "E" }, "geometry": { "type": "Point", "coordinates": [ 120.976167782275951, 14.305401194451843 ] } },
{ "type": "Feature", "properties": { "fid": 15, "id": 15, "cluster_id": "146", "column": null, "row": "E" }, "geometry": { "type": "Point", "coordinates": [ 120.976175635125685, 14.30540231628752 ] } },
{ "type": "Feature", "properties": { "fid": 16, "id": 16, "cluster_id": "146", "column": null, "row": "E" }, "geometry": { "type": "Point", "coordinates": [ 120.97618685348246, 14.30540231628752 ] } },
{ "type": "Feature", "properties": { "fid": 17, "id": 17, "cluster_id": "146", "column": null, "row": "E" }, "geometry": { "type": "Point", "coordinates": [ 120.976193023578674, 14.30540231628752 ] } },
{ "type": "Feature", "properties": { "fid": 18, "id": 18, "cluster_id": "146", "column": null, "row": "E" }, "geometry": { "type": "Point", "coordinates": [ 120.976201437346248, 14.305403999041033 ] } },
{ "type": "Feature", "properties": { "fid": 19, "id": 19, "cluster_id": "146", "column": null, "row": "E" }, "geometry": { "type": "Point", "coordinates": [ 120.976209851113822, 14.305404559958872 ] } },
{ "type": "Feature", "properties": { "fid": 20, "id": 20, "cluster_id": "146", "column": null, "row": "E" }, "geometry": { "type": "Point", "coordinates": [ 120.976217703963556, 14.305404559958872 ] } },
{ "type": "Feature", "properties": { "fid": 21, "id": 21, "cluster_id": "146", "column": null, "row": "E" }, "geometry": { "type": "Point", "coordinates": [ 120.97622555681329, 14.305405681794548 ] } },
{ "type": "Feature", "properties": { "fid": 22, "id": 22, "cluster_id": "146", "column": null, "row": "E" }, "geometry": { "type": "Point", "coordinates": [ 120.976233970580864, 14.305406803630225 ] } },
{ "type": "Feature", "properties": { "fid": 23, "id": 23, "cluster_id": "146", "column": null, "row": "E" }, "geometry": { "type": "Point", "coordinates": [ 120.976242384348438, 14.305406803630225 ] } },
{ "type": "Feature", "properties": { "fid": 24, "id": 24, "cluster_id": "146", "column": null, "row": "E" }, "geometry": { "type": "Point", "coordinates": [ 120.976250237198172, 14.305407925465902 ] } },
{ "type": "Feature", "properties": { "fid": 25, "id": 25, "cluster_id": "146", "column": null, "row": "E" }, "geometry": { "type": "Point", "coordinates": [ 120.976258090047907, 14.305407925465902 ] } },
{ "type": "Feature", "properties": { "fid": 26, "id": 26, "cluster_id": "146", "column": null, "row": "E" }, "geometry": { "type": "Point", "coordinates": [ 120.9762653819798, 14.30540848638374 ] } },
{ "type": "Feature", "properties": { "fid": 27, "id": 27, "cluster_id": "146", "column": null, "row": "E" }, "geometry": { "type": "Point", "coordinates": [ 120.976274917583055, 14.305407925465902 ] } },
{ "type": "Feature", "properties": { "fid": 28, "id": 28, "cluster_id": "146", "column": null, "row": "E" }, "geometry": { "type": "Point", "coordinates": [ 120.976285014104135, 14.305410169137254 ] } },
{ "type": "Feature", "properties": { "fid": 29, "id": 29, "cluster_id": "146", "column": null, "row": "E" }, "geometry": { "type": "Point", "coordinates": [ 120.97629286695387, 14.305410169137254 ] } },
{ "type": "Feature", "properties": { "fid": 30, "id": 30, "cluster_id": "146", "column": null, "row": "E" }, "geometry": { "type": "Point", "coordinates": [ 120.976301841639284, 14.305410730055092 ] } },
{ "type": "Feature", "properties": { "fid": 31, "id": 31, "cluster_id": "146", "column": null, "row": "E" }, "geometry": { "type": "Point", "coordinates": [ 120.976311377242524, 14.305411851890769 ] } },
{ "type": "Feature", "properties": { "fid": 32, "id": 32, "cluster_id": "146", "column": null, "row": "E" }, "geometry": { "type": "Point", "coordinates": [ 120.976321473763619, 14.305412973726446 ] } },
{ "type": "Feature", "properties": { "fid": 33, "id": 33, "cluster_id": "146", "column": null, "row": "E" }, "geometry": { "type": "Point", "coordinates": [ 120.9763315702847, 14.305415217397799 ] } },
{ "type": "Feature", "properties": { "fid": 34, "id": 34, "cluster_id": "146", "column": null, "row": "E" }, "geometry": { "type": "Point", "coordinates": [ 120.976343910477141, 14.305414656479961 ] } },
{ "type": "Feature", "properties": { "fid": 35, "id": 35, "cluster_id": "146", "column": null, "row": "E" }, "geometry": { "type": "Point", "coordinates": [ 120.97635681968012, 14.305421214483669 ] } },
{ "type": "Feature", "properties": { "fid": 36, "id": 36, "cluster_id": "146", "column": null, "row": "E" }, "geometry": { "type": "Point", "coordinates": [ 120.97635738059796, 14.305412239798256 ] } }
]
}
