{
"type": "FeatureCollection",
"name": "cltr-id-190-d-row",
"crs": { "type": "name", "properties": { "name": "urn:ogc:def:crs:OGC:1.3:CRS84" } },
"features": [
{ "type": "Feature", "properties": { "fid": 1, "id": 1, "cluster_id": "190", "column": null, "row": "D" }, "geometry": { "type": "Point", "coordinates": [ 120.976781876005887, 14.305453430116248 ] } },
{ "type": "Feature", "properties": { "fid": 2, "id": 2, "cluster_id": "190", "column": null, "row": "D" }, "geometry": { "type": "Point", "coordinates": [ 120.976790530166824, 14.305455593656482 ] } },
{ "type": "Feature", "properties": { "fid": 3, "id": 3, "cluster_id": "190", "column": null, "row": "D" }, "geometry": { "type": "Point", "coordinates": [ 120.976797020787515, 14.305456675426598 ] } },
{ "type": "Feature", "properties": { "fid": 4, "id": 4, "cluster_id": "190", "column": null, "row": "D" }, "geometry": { "type": "Point", "coordinates": [ 120.976807297603628, 14.305459920736947 ] } },
{ "type": "Feature", "properties": { "fid": 5, "id": 5, "cluster_id": "190", "column": null, "row": "D" }, "geometry": { "type": "Point", "coordinates": [ 120.976816492649618, 14.305462084277179 ] } },
{ "type": "Feature", "properties": { "fid": 6, "id": 6, "cluster_id": "190", "column": null, "row": "D" }, "geometry": { "type": "Point", "coordinates": [ 120.976825687695609, 14.305463166047296 ] } },
{ "type": "Feature", "properties": { "fid": 7, "id": 7, "cluster_id": "190", "column": null, "row": "D" }, "geometry": { "type": "Point", "coordinates": [ 120.976835964511707, 14.305463706932354 ] } },
{ "type": "Feature", "properties": { "fid": 8, "id": 8, "cluster_id": "190", "column": null, "row": "D" }, "geometry": { "type": "Point", "coordinates": [ 120.976848945753105, 14.305463706932354 ] } },
{ "type": "Feature", "properties": { "fid": 9, "id": 9, "cluster_id": "190", "column": null, "row": "D" }, "geometry": { "type": "Point", "coordinates": [ 120.976858681684163, 14.30546803401282 ] } },
{ "type": "Feature", "properties": { "fid": 10, "id": 10, "cluster_id": "190", "column": null, "row": "D" }, "geometry": { "type": "Point", "coordinates": [ 120.976872203810615, 14.305470197553053 ] } },
{ "type": "Feature", "properties": { "fid": 11, "id": 11, "cluster_id": "190", "column": null, "row": "D" }, "geometry": { "type": "Point", "coordinates": [ 120.976881939741659, 14.305467493127763 ] } },
{ "type": "Feature", "properties": { "fid": 12, "id": 12, "cluster_id": "190", "column": null, "row": "D" }, "geometry": { "type": "Point", "coordinates": [ 120.976892757442826, 14.305469115782937 ] } },
{ "type": "Feature", "properties": { "fid": 13, "id": 13, "cluster_id": "190", "column": null, "row": "D" }, "geometry": { "type": "Point", "coordinates": [ 120.9769073613394, 14.305470738438112 ] } },
{ "type": "Feature", "properties": { "fid": 14, "id": 14, "cluster_id": "190", "column": null, "row": "D" }, "geometry": { "type": "Point", "coordinates": [ 120.976918719925621, 14.30547127932317 ] } },
{ "type": "Feature", "properties": { "fid": 15, "id": 15, "cluster_id": "190", "column": null, "row": "D" }, "geometry": { "type": "Point", "coordinates": [ 120.976928455856665, 14.30547127932317 ] } },
{ "type": "Feature", "properties": { "fid": 16, "id": 16, "cluster_id": "190", "column": null, "row": "D" }, "geometry": { "type": "Point", "coordinates": [ 120.976937650902656, 14.305470738438112 ] } },
{ "type": "Feature", "properties": { "fid": 17, "id": 17, "cluster_id": "190", "column": null, "row": "D" }, "geometry": { "type": "Point", "coordinates": [ 120.976949550373931, 14.305476688173751 ] } },
{ "type": "Feature", "properties": { "fid": 18, "id": 18, "cluster_id": "190", "column": null, "row": "D" }, "geometry": { "type": "Point", "coordinates": [ 120.976958745419921, 14.305475065518577 ] } },
{ "type": "Feature", "properties": { "fid": 19, "id": 19, "cluster_id": "190", "column": null, "row": "D" }, "geometry": { "type": "Point", "coordinates": [ 120.976969563121088, 14.305476688173751 ] } },
{ "type": "Feature", "properties": { "fid": 20, "id": 20, "cluster_id": "190", "column": null, "row": "D" }, "geometry": { "type": "Point", "coordinates": [ 120.976980921707309, 14.305477229058811 ] } },
{ "type": "Feature", "properties": { "fid": 21, "id": 21, "cluster_id": "190", "column": null, "row": "D" }, "geometry": { "type": "Point", "coordinates": [ 120.976989575868245, 14.30548047436916 ] } },
{ "type": "Feature", "properties": { "fid": 22, "id": 22, "cluster_id": "190", "column": null, "row": "D" }, "geometry": { "type": "Point", "coordinates": [ 120.976996607374005, 14.305481015254218 ] } },
{ "type": "Feature", "properties": { "fid": 23, "id": 23, "cluster_id": "190", "column": null, "row": "D" }, "geometry": { "type": "Point", "coordinates": [ 120.977006884190104, 14.30548047436916 ] } },
{ "type": "Feature", "properties": { "fid": 24, "id": 24, "cluster_id": "190", "column": null, "row": "D" }, "geometry": { "type": "Point", "coordinates": [ 120.977016079236094, 14.305482097024335 ] } },
{ "type": "Feature", "properties": { "fid": 25, "id": 25, "cluster_id": "190", "column": null, "row": "D" }, "geometry": { "type": "Point", "coordinates": [ 120.977025274282084, 14.305483719679509 ] } },
{ "type": "Feature", "properties": { "fid": 26, "id": 26, "cluster_id": "190", "column": null, "row": "D" }, "geometry": { "type": "Point", "coordinates": [ 120.977035010213129, 14.305484260564567 ] } },
{ "type": "Feature", "properties": { "fid": 27, "id": 27, "cluster_id": "190", "column": null, "row": "D" }, "geometry": { "type": "Point", "coordinates": [ 120.977044205259119, 14.30548317879445 ] } },
{ "type": "Feature", "properties": { "fid": 28, "id": 28, "cluster_id": "190", "column": null, "row": "D" }, "geometry": { "type": "Point", "coordinates": [ 120.977051236764879, 14.305488046759974 ] } },
{ "type": "Feature", "properties": { "fid": 29, "id": 29, "cluster_id": "190", "column": null, "row": "D" }, "geometry": { "type": "Point", "coordinates": [ 120.977059350040747, 14.305485883219742 ] } },
{ "type": "Feature", "properties": { "fid": 30, "id": 30, "cluster_id": "190", "column": null, "row": "D" }, "geometry": { "type": "Point", "coordinates": [ 120.977067463316629, 14.305485342334684 ] } },
{ "type": "Feature", "properties": { "fid": 31, "id": 31, "cluster_id": "190", "column": null, "row": "D" }, "geometry": { "type": "Point", "coordinates": [ 120.977077199247674, 14.305486964989857 ] } },
{ "type": "Feature", "properties": { "fid": 32, "id": 32, "cluster_id": "190", "column": null, "row": "D" }, "geometry": { "type": "Point", "coordinates": [ 120.977083148983311, 14.305485883219742 ] } },
{ "type": "Feature", "properties": { "fid": 33, "id": 33, "cluster_id": "190", "column": null, "row": "D" }, "geometry": { "type": "Point", "coordinates": [ 120.977090180489071, 14.305490210300206 ] } },
{ "type": "Feature", "properties": { "fid": 34, "id": 34, "cluster_id": "190", "column": null, "row": "D" }, "geometry": { "type": "Point", "coordinates": [ 120.977093966684478, 14.305489128530091 ] } },
{ "type": "Feature", "properties": { "fid": 35, "id": 35, "cluster_id": "190", "column": null, "row": "D" }, "geometry": { "type": "Point", "coordinates": [ 120.977093966684478, 14.305481015254218 ] } },
{ "type": "Feature", "properties": { "fid": 36, "id": 36, "cluster_id": "190", "column": null, "row": "D" }, "geometry": { "type": "Point", "coordinates": [ 120.977096671109777, 14.305470197553053 ] } }
]
}
