{
"type": "FeatureCollection",
"name": "cltr-id-159-d-row",
"crs": { "type": "name", "properties": { "name": "urn:ogc:def:crs:OGC:1.3:CRS84" } },
"features": [
{ "type": "Feature", "properties": { "fid": 1, "id": 1, "cluster_id": "159", "column": null, "rows": "D" }, "geometry": { "type": "Point", "coordinates": [ 120.97637685318557, 14.305669059947732 ] } },
{ "type": "Feature", "properties": { "fid": 2, "id": 2, "cluster_id": "159", "column": null, "rows": "D" }, "geometry": { "type": "Point", "coordinates": [ 120.976377701133927, 14.305662064373786 ] } },
{ "type": "Feature", "properties": { "fid": 3, "id": 3, "cluster_id": "159", "column": null, "rows": "D" }, "geometry": { "type": "Point", "coordinates": [ 120.976380774946719, 14.305656976683643 ] } },
{ "type": "Feature", "properties": { "fid": 4, "id": 4, "cluster_id": "159", "column": null, "rows": "D" }, "geometry": { "type": "Point", "coordinates": [ 120.976389996385109, 14.305658036619089 ] } },
{ "type": "Feature", "properties": { "fid": 5, "id": 5, "cluster_id": "159", "column": null, "rows": "D" }, "geometry": { "type": "Point", "coordinates": [ 120.976400489746027, 14.305658566586812 ] } },
{ "type": "Feature", "properties": { "fid": 6, "id": 6, "cluster_id": "159", "column": null, "rows": "D" }, "geometry": { "type": "Point", "coordinates": [ 120.976411937048837, 14.305659414535171 ] } },
{ "type": "Feature", "properties": { "fid": 7, "id": 7, "cluster_id": "159", "column": null, "rows": "D" }, "geometry": { "type": "Point", "coordinates": [ 120.97642221842267, 14.305660368477072 ] } },
{ "type": "Feature", "properties": { "fid": 8, "id": 8, "cluster_id": "159", "column": null, "rows": "D" }, "geometry": { "type": "Point", "coordinates": [ 120.976430379925617, 14.305660898444795 ] } },
{ "type": "Feature", "properties": { "fid": 9, "id": 9, "cluster_id": "159", "column": null, "rows": "D" }, "geometry": { "type": "Point", "coordinates": [ 120.976439177389821, 14.305661640399608 ] } },
{ "type": "Feature", "properties": { "fid": 10, "id": 10, "cluster_id": "159", "column": null, "rows": "D" }, "geometry": { "type": "Point", "coordinates": [ 120.976447974854025, 14.305661852386697 ] } },
{ "type": "Feature", "properties": { "fid": 11, "id": 11, "cluster_id": "159", "column": null, "rows": "D" }, "geometry": { "type": "Point", "coordinates": [ 120.976455606389237, 14.305663124309232 ] } },
{ "type": "Feature", "properties": { "fid": 12, "id": 12, "cluster_id": "159", "column": null, "rows": "D" }, "geometry": { "type": "Point", "coordinates": [ 120.976463979879256, 14.305662912322143 ] } },
{ "type": "Feature", "properties": { "fid": 13, "id": 13, "cluster_id": "159", "column": null, "rows": "D" }, "geometry": { "type": "Point", "coordinates": [ 120.97647298933056, 14.305663230302777 ] } },
{ "type": "Feature", "properties": { "fid": 14, "id": 14, "cluster_id": "159", "column": null, "rows": "D" }, "geometry": { "type": "Point", "coordinates": [ 120.976480408878686, 14.305663972257589 ] } },
{ "type": "Feature", "properties": { "fid": 15, "id": 15, "cluster_id": "159", "column": null, "rows": "D" }, "geometry": { "type": "Point", "coordinates": [ 120.976489524323526, 14.305664608218857 ] } }
]
}
