{
"type": "FeatureCollection",
"name": "cltr-id-185-a-row",
"crs": { "type": "name", "properties": { "name": "urn:ogc:def:crs:OGC:1.3:CRS84" } },
"features": [
{ "type": "Feature", "properties": { "fid": 1, "id": 1, "cluster_id": null, "column": null, "row": null }, "geometry": { "type": "Point", "coordinates": [ 120.976609682993853, 14.305555499634121 ] } },
{ "type": "Feature", "properties": { "fid": 2, "id": 2, "cluster_id": null, "column": null, "row": null }, "geometry": { "type": "Point", "coordinates": [ 120.976611035206503, 14.30554982034101 ] } },
{ "type": "Feature", "properties": { "fid": 3, "id": 3, "cluster_id": null, "column": null, "row": null }, "geometry": { "type": "Point", "coordinates": [ 120.97661833715479, 14.305541977507666 ] } },
{ "type": "Feature", "properties": { "fid": 4, "id": 4, "cluster_id": null, "column": null, "row": null }, "geometry": { "type": "Point", "coordinates": [ 120.976627802643307, 14.305543059277783 ] } },
{ "type": "Feature", "properties": { "fid": 5, "id": 5, "cluster_id": null, "column": null, "row": null }, "geometry": { "type": "Point", "coordinates": [ 120.976636456804243, 14.305543329720312 ] } },
{ "type": "Feature", "properties": { "fid": 6, "id": 6, "cluster_id": null, "column": null, "row": null }, "geometry": { "type": "Point", "coordinates": [ 120.976644029195057, 14.305543870605369 ] } },
{ "type": "Feature", "properties": { "fid": 7, "id": 7, "cluster_id": null, "column": null, "row": null }, "geometry": { "type": "Point", "coordinates": [ 120.976652683355979, 14.305544141047898 ] } },
{ "type": "Feature", "properties": { "fid": 8, "id": 8, "cluster_id": null, "column": null, "row": null }, "geometry": { "type": "Point", "coordinates": [ 120.976660255746793, 14.305545222818015 ] } },
{ "type": "Feature", "properties": { "fid": 9, "id": 9, "cluster_id": null, "column": null, "row": null }, "geometry": { "type": "Point", "coordinates": [ 120.976670262120379, 14.305544411490427 ] } },
{ "type": "Feature", "properties": { "fid": 10, "id": 10, "cluster_id": null, "column": null, "row": null }, "geometry": { "type": "Point", "coordinates": [ 120.976677834511193, 14.305545763703073 ] } },
{ "type": "Feature", "properties": { "fid": 11, "id": 11, "cluster_id": null, "column": null, "row": null }, "geometry": { "type": "Point", "coordinates": [ 120.976686218229588, 14.305546575030661 ] } },
{ "type": "Feature", "properties": { "fid": 12, "id": 12, "cluster_id": null, "column": null, "row": null }, "geometry": { "type": "Point", "coordinates": [ 120.976694061062943, 14.305547115915719 ] } },
{ "type": "Feature", "properties": { "fid": 13, "id": 13, "cluster_id": null, "column": null, "row": null }, "geometry": { "type": "Point", "coordinates": [ 120.976702715223865, 14.305547927243307 ] } },
{ "type": "Feature", "properties": { "fid": 14, "id": 14, "cluster_id": null, "column": null, "row": null }, "geometry": { "type": "Point", "coordinates": [ 120.976709205844571, 14.305548468128364 ] } }
]
}
