{
"type": "FeatureCollection",
"name": "cltr-id-191-e-row",
"crs": { "type": "name", "properties": { "name": "urn:ogc:def:crs:OGC:1.3:CRS84" } },
"features": [
{ "type": "Feature", "properties": { "fid": 1, "id": 1, "cluster_id": "191", "column": null, "row": "E" }, "geometry": { "type": "Point", "coordinates": [ 120.976785121316254, 14.305433958254154 ] } },
{ "type": "Feature", "properties": { "fid": 2, "id": 2, "cluster_id": "191", "column": null, "row": "E" }, "geometry": { "type": "Point", "coordinates": [ 120.976785121316254, 14.305424763208165 ] } },
{ "type": "Feature", "properties": { "fid": 3, "id": 3, "cluster_id": "191", "column": null, "row": "E" }, "geometry": { "type": "Point", "coordinates": [ 120.976792152822014, 14.305420977012758 ] } },
{ "type": "Feature", "properties": { "fid": 4, "id": 4, "cluster_id": "191", "column": null, "row": "E" }, "geometry": { "type": "Point", "coordinates": [ 120.976802429638127, 14.305422870110462 ] } },
{ "type": "Feature", "properties": { "fid": 5, "id": 5, "cluster_id": "191", "column": null, "row": "E" }, "geometry": { "type": "Point", "coordinates": [ 120.976810542913995, 14.305422870110462 ] } },
{ "type": "Feature", "properties": { "fid": 6, "id": 6, "cluster_id": "191", "column": null, "row": "E" }, "geometry": { "type": "Point", "coordinates": [ 120.976821360615162, 14.305423140552991 ] } },
{ "type": "Feature", "properties": { "fid": 7, "id": 7, "cluster_id": "191", "column": null, "row": "E" }, "geometry": { "type": "Point", "coordinates": [ 120.976831096546206, 14.305424763208165 ] } },
{ "type": "Feature", "properties": { "fid": 8, "id": 8, "cluster_id": "191", "column": null, "row": "E" }, "geometry": { "type": "Point", "coordinates": [ 120.976839209822074, 14.305425574535752 ] } },
{ "type": "Feature", "properties": { "fid": 9, "id": 9, "cluster_id": "191", "column": null, "row": "E" }, "geometry": { "type": "Point", "coordinates": [ 120.976849486638187, 14.305425844978281 ] } },
{ "type": "Feature", "properties": { "fid": 10, "id": 10, "cluster_id": "191", "column": null, "row": "E" }, "geometry": { "type": "Point", "coordinates": [ 120.976857329471528, 14.305427197190927 ] } },
{ "type": "Feature", "properties": { "fid": 11, "id": 11, "cluster_id": "191", "column": null, "row": "E" }, "geometry": { "type": "Point", "coordinates": [ 120.976868147172695, 14.305427467633455 ] } },
{ "type": "Feature", "properties": { "fid": 12, "id": 12, "cluster_id": "191", "column": null, "row": "E" }, "geometry": { "type": "Point", "coordinates": [ 120.976878964873862, 14.305429631173689 ] } },
{ "type": "Feature", "properties": { "fid": 13, "id": 13, "cluster_id": "191", "column": null, "row": "E" }, "geometry": { "type": "Point", "coordinates": [ 120.976888971247433, 14.305431253828864 ] } },
{ "type": "Feature", "properties": { "fid": 14, "id": 14, "cluster_id": "191", "column": null, "row": "E" }, "geometry": { "type": "Point", "coordinates": [ 120.97689762540837, 14.305432065156451 ] } },
{ "type": "Feature", "properties": { "fid": 15, "id": 15, "cluster_id": "191", "column": null, "row": "E" }, "geometry": { "type": "Point", "coordinates": [ 120.976907631781941, 14.305434228696685 ] } },
{ "type": "Feature", "properties": { "fid": 16, "id": 16, "cluster_id": "191", "column": null, "row": "E" }, "geometry": { "type": "Point", "coordinates": [ 120.976916556385405, 14.305433958254154 ] } },
{ "type": "Feature", "properties": { "fid": 17, "id": 17, "cluster_id": "191", "column": null, "row": "E" }, "geometry": { "type": "Point", "coordinates": [ 120.976926562758976, 14.305436662679446 ] } },
{ "type": "Feature", "properties": { "fid": 18, "id": 18, "cluster_id": "191", "column": null, "row": "E" }, "geometry": { "type": "Point", "coordinates": [ 120.976935216919912, 14.305435851351859 ] } },
{ "type": "Feature", "properties": { "fid": 19, "id": 19, "cluster_id": "191", "column": null, "row": "E" }, "geometry": { "type": "Point", "coordinates": [ 120.97694333019578, 14.305436933121975 ] } },
{ "type": "Feature", "properties": { "fid": 20, "id": 20, "cluster_id": "191", "column": null, "row": "E" }, "geometry": { "type": "Point", "coordinates": [ 120.976954418339474, 14.305438014892092 ] } },
{ "type": "Feature", "properties": { "fid": 21, "id": 21, "cluster_id": "191", "column": null, "row": "E" }, "geometry": { "type": "Point", "coordinates": [ 120.976963883827992, 14.305439907989795 ] } },
{ "type": "Feature", "properties": { "fid": 22, "id": 22, "cluster_id": "191", "column": null, "row": "E" }, "geometry": { "type": "Point", "coordinates": [ 120.976975512856754, 14.305439907989795 ] } },
{ "type": "Feature", "properties": { "fid": 23, "id": 23, "cluster_id": "191", "column": null, "row": "E" }, "geometry": { "type": "Point", "coordinates": [ 120.976984167017676, 14.305439907989795 ] } },
{ "type": "Feature", "properties": { "fid": 24, "id": 24, "cluster_id": "191", "column": null, "row": "E" }, "geometry": { "type": "Point", "coordinates": [ 120.976994714276316, 14.305440719317382 ] } },
{ "type": "Feature", "properties": { "fid": 25, "id": 25, "cluster_id": "191", "column": null, "row": "E" }, "geometry": { "type": "Point", "coordinates": [ 120.977001475339549, 14.305443153300144 ] } },
{ "type": "Feature", "properties": { "fid": 26, "id": 26, "cluster_id": "191", "column": null, "row": "E" }, "geometry": { "type": "Point", "coordinates": [ 120.977015267908527, 14.305443153300144 ] } },
{ "type": "Feature", "properties": { "fid": 27, "id": 27, "cluster_id": "191", "column": null, "row": "E" }, "geometry": { "type": "Point", "coordinates": [ 120.977024462954518, 14.305442882857616 ] } },
{ "type": "Feature", "properties": { "fid": 28, "id": 28, "cluster_id": "191", "column": null, "row": "E" }, "geometry": { "type": "Point", "coordinates": [ 120.977032846672913, 14.305444775955319 ] } },
{ "type": "Feature", "properties": { "fid": 29, "id": 29, "cluster_id": "191", "column": null, "row": "E" }, "geometry": { "type": "Point", "coordinates": [ 120.977043393931552, 14.305445316840377 ] } },
{ "type": "Feature", "properties": { "fid": 30, "id": 30, "cluster_id": "191", "column": null, "row": "E" }, "geometry": { "type": "Point", "coordinates": [ 120.977052318535016, 14.30544720993808 ] } },
{ "type": "Feature", "properties": { "fid": 31, "id": 31, "cluster_id": "191", "column": null, "row": "E" }, "geometry": { "type": "Point", "coordinates": [ 120.977061513581006, 14.30544720993808 ] } },
{ "type": "Feature", "properties": { "fid": 32, "id": 32, "cluster_id": "191", "column": null, "row": "E" }, "geometry": { "type": "Point", "coordinates": [ 120.977070708626997, 14.30544775082314 ] } },
{ "type": "Feature", "properties": { "fid": 33, "id": 33, "cluster_id": "191", "column": null, "row": "E" }, "geometry": { "type": "Point", "coordinates": [ 120.97707828101781, 14.305449643920843 ] } },
{ "type": "Feature", "properties": { "fid": 34, "id": 34, "cluster_id": "191", "column": null, "row": "E" }, "geometry": { "type": "Point", "coordinates": [ 120.977087205621274, 14.305450184805901 ] } },
{ "type": "Feature", "properties": { "fid": 35, "id": 35, "cluster_id": "191", "column": null, "row": "E" }, "geometry": { "type": "Point", "coordinates": [ 120.977093425799438, 14.305451807461075 ] } },
{ "type": "Feature", "properties": { "fid": 36, "id": 36, "cluster_id": "191", "column": null, "row": "E" }, "geometry": { "type": "Point", "coordinates": [ 120.977100186862671, 14.305452348346135 ] } }
]
}
