{
"type": "FeatureCollection",
"name": "cltr-id-184-a-row",
"crs": { "type": "name", "properties": { "name": "urn:ogc:def:crs:OGC:1.3:CRS84" } },
"features": [
{ "type": "Feature", "properties": { "fid": 1, "id": 1, "cluster_id": "184", "column": null, "row": "A" }, "geometry": { "type": "Point", "coordinates": [ 120.976612116976611, 14.305584707427265 ] } },
{ "type": "Feature", "properties": { "fid": 2, "id": 2, "cluster_id": "184", "column": null, "row": "A" }, "geometry": { "type": "Point", "coordinates": [ 120.976620771137547, 14.305584977869794 ] } },
{ "type": "Feature", "properties": { "fid": 3, "id": 3, "cluster_id": "184", "column": null, "row": "A" }, "geometry": { "type": "Point", "coordinates": [ 120.976629154855956, 14.30558633008244 ] } },
{ "type": "Feature", "properties": { "fid": 4, "id": 4, "cluster_id": "184", "column": null, "row": "A" }, "geometry": { "type": "Point", "coordinates": [ 120.976637538574352, 14.305586600524968 ] } },
{ "type": "Feature", "properties": { "fid": 5, "id": 5, "cluster_id": "184", "column": null, "row": "A" }, "geometry": { "type": "Point", "coordinates": [ 120.976647274505396, 14.305587682295085 ] } },
{ "type": "Feature", "properties": { "fid": 6, "id": 6, "cluster_id": "184", "column": null, "row": "A" }, "geometry": { "type": "Point", "coordinates": [ 120.976656199108859, 14.30558930495026 ] } },
{ "type": "Feature", "properties": { "fid": 7, "id": 7, "cluster_id": "184", "column": null, "row": "A" }, "geometry": { "type": "Point", "coordinates": [ 120.9766640419422, 14.305589575392789 ] } },
{ "type": "Feature", "properties": { "fid": 8, "id": 8, "cluster_id": "184", "column": null, "row": "A" }, "geometry": { "type": "Point", "coordinates": [ 120.976671343890487, 14.305590386720375 ] } },
{ "type": "Feature", "properties": { "fid": 9, "id": 9, "cluster_id": "184", "column": null, "row": "A" }, "geometry": { "type": "Point", "coordinates": [ 120.976678645838774, 14.305590386720375 ] } },
{ "type": "Feature", "properties": { "fid": 10, "id": 10, "cluster_id": "184", "column": null, "row": "A" }, "geometry": { "type": "Point", "coordinates": [ 120.976684866016953, 14.305591198047964 ] } },
{ "type": "Feature", "properties": { "fid": 11, "id": 11, "cluster_id": "184", "column": null, "row": "A" }, "geometry": { "type": "Point", "coordinates": [ 120.976690545310063, 14.305591468490492 ] } },
{ "type": "Feature", "properties": { "fid": 12, "id": 12, "cluster_id": "184", "column": null, "row": "A" }, "geometry": { "type": "Point", "coordinates": [ 120.976697035930755, 14.305591468490492 ] } },
{ "type": "Feature", "properties": { "fid": 13, "id": 13, "cluster_id": "184", "column": null, "row": "A" }, "geometry": { "type": "Point", "coordinates": [ 120.976711098942275, 14.305585518754851 ] } },
{ "type": "Feature", "properties": { "fid": 14, "id": 14, "cluster_id": "184", "column": null, "row": "A" }, "geometry": { "type": "Point", "coordinates": [ 120.976712992039978, 14.305579028134153 ] } }
]
}
