{
"type": "FeatureCollection",
"name": "cltr-id-196-b-row",
"crs": { "type": "name", "properties": { "name": "urn:ogc:def:crs:OGC:1.3:CRS84" } },
"features": [
{ "type": "Feature", "properties": { "fid": 1, "id": 1, "cluster_id": "196", "column": null, "row": "B" }, "geometry": { "type": "Point", "coordinates": [ 120.97670554360198, 14.305858553024873 ] } },
{ "type": "Feature", "properties": { "fid": 2, "id": 2, "cluster_id": "196", "column": null, "row": "B" }, "geometry": { "type": "Point", "coordinates": [ 120.976712439886455, 14.305858958688669 ] } },
{ "type": "Feature", "properties": { "fid": 3, "id": 3, "cluster_id": "196", "column": null, "row": "B" }, "geometry": { "type": "Point", "coordinates": [ 120.976719944666641, 14.305859972848152 ] } },
{ "type": "Feature", "properties": { "fid": 4, "id": 4, "cluster_id": "196", "column": null, "row": "B" }, "geometry": { "type": "Point", "coordinates": [ 120.976732114580457, 14.30586139267143 ] } },
{ "type": "Feature", "properties": { "fid": 5, "id": 5, "cluster_id": "196", "column": null, "row": "B" }, "geometry": { "type": "Point", "coordinates": [ 120.976741444847718, 14.305863015326604 ] } },
{ "type": "Feature", "properties": { "fid": 6, "id": 6, "cluster_id": "196", "column": null, "row": "B" }, "geometry": { "type": "Point", "coordinates": [ 120.976750775114965, 14.305863623822294 ] } },
{ "type": "Feature", "properties": { "fid": 7, "id": 7, "cluster_id": "196", "column": null, "row": "B" }, "geometry": { "type": "Point", "coordinates": [ 120.976761525205504, 14.305864232317985 ] } },
{ "type": "Feature", "properties": { "fid": 8, "id": 8, "cluster_id": "196", "column": null, "row": "B" }, "geometry": { "type": "Point", "coordinates": [ 120.976769029985689, 14.305864435149884 ] } },
{ "type": "Feature", "properties": { "fid": 9, "id": 9, "cluster_id": "196", "column": null, "row": "B" }, "geometry": { "type": "Point", "coordinates": [ 120.976776940429659, 14.305865043645573 ] } },
{ "type": "Feature", "properties": { "fid": 10, "id": 10, "cluster_id": "196", "column": null, "row": "B" }, "geometry": { "type": "Point", "coordinates": [ 120.97678424237796, 14.305866260636956 ] } },
{ "type": "Feature", "properties": { "fid": 11, "id": 11, "cluster_id": "196", "column": null, "row": "B" }, "geometry": { "type": "Point", "coordinates": [ 120.976791747158131, 14.305867680460233 ] } },
{ "type": "Feature", "properties": { "fid": 12, "id": 12, "cluster_id": "196", "column": null, "row": "B" }, "geometry": { "type": "Point", "coordinates": [ 120.976799657602115, 14.305867477628336 ] } },
{ "type": "Feature", "properties": { "fid": 13, "id": 13, "cluster_id": "196", "column": null, "row": "B" }, "geometry": { "type": "Point", "coordinates": [ 120.976806553886604, 14.30586849178782 ] } },
{ "type": "Feature", "properties": { "fid": 14, "id": 14, "cluster_id": "196", "column": null, "row": "B" }, "geometry": { "type": "Point", "coordinates": [ 120.97681304450731, 14.305868086124027 ] } },
{ "type": "Feature", "properties": { "fid": 15, "id": 15, "cluster_id": "196", "column": null, "row": "B" }, "geometry": { "type": "Point", "coordinates": [ 120.97682075211938, 14.305869708779202 ] } },
{ "type": "Feature", "properties": { "fid": 16, "id": 16, "cluster_id": "196", "column": null, "row": "B" }, "geometry": { "type": "Point", "coordinates": [ 120.976827039908187, 14.305871331434377 ] } },
{ "type": "Feature", "properties": { "fid": 17, "id": 17, "cluster_id": "196", "column": null, "row": "B" }, "geometry": { "type": "Point", "coordinates": [ 120.976835153184069, 14.305871331434377 ] } },
{ "type": "Feature", "properties": { "fid": 18, "id": 18, "cluster_id": "196", "column": null, "row": "B" }, "geometry": { "type": "Point", "coordinates": [ 120.976843469291836, 14.305872345593862 ] } },
{ "type": "Feature", "properties": { "fid": 19, "id": 19, "cluster_id": "196", "column": null, "row": "B" }, "geometry": { "type": "Point", "coordinates": [ 120.976854422214288, 14.305873562585242 ] } },
{ "type": "Feature", "properties": { "fid": 20, "id": 20, "cluster_id": "196", "column": null, "row": "B" }, "geometry": { "type": "Point", "coordinates": [ 120.976862738322041, 14.305874576744728 ] } },
{ "type": "Feature", "properties": { "fid": 21, "id": 21, "cluster_id": "196", "column": null, "row": "B" }, "geometry": { "type": "Point", "coordinates": [ 120.976872879916883, 14.305874982408518 ] } },
{ "type": "Feature", "properties": { "fid": 22, "id": 22, "cluster_id": "196", "column": null, "row": "B" }, "geometry": { "type": "Point", "coordinates": [ 120.976882818679826, 14.305876402231799 ] } },
{ "type": "Feature", "properties": { "fid": 23, "id": 23, "cluster_id": "196", "column": null, "row": "B" }, "geometry": { "type": "Point", "coordinates": [ 120.976892351778986, 14.305877213559386 ] } },
{ "type": "Feature", "properties": { "fid": 24, "id": 24, "cluster_id": "196", "column": null, "row": "B" }, "geometry": { "type": "Point", "coordinates": [ 120.976900870718652, 14.305878633382665 ] } },
{ "type": "Feature", "properties": { "fid": 25, "id": 25, "cluster_id": "196", "column": null, "row": "B" }, "geometry": { "type": "Point", "coordinates": [ 120.97690898399452, 14.305879241878355 ] } },
{ "type": "Feature", "properties": { "fid": 26, "id": 26, "cluster_id": "196", "column": null, "row": "B" }, "geometry": { "type": "Point", "coordinates": [ 120.976919936916943, 14.305881270197325 ] } },
{ "type": "Feature", "properties": { "fid": 27, "id": 27, "cluster_id": "196", "column": null, "row": "B" }, "geometry": { "type": "Point", "coordinates": [ 120.976929064352305, 14.305881878693015 ] } },
{ "type": "Feature", "properties": { "fid": 28, "id": 28, "cluster_id": "196", "column": null, "row": "B" }, "geometry": { "type": "Point", "coordinates": [ 120.976940625770439, 14.30588208152491 ] } },
{ "type": "Feature", "properties": { "fid": 29, "id": 29, "cluster_id": "196", "column": null, "row": "B" }, "geometry": { "type": "Point", "coordinates": [ 120.976950767365281, 14.305882690020601 ] } },
{ "type": "Feature", "properties": { "fid": 30, "id": 30, "cluster_id": "196", "column": null, "row": "B" }, "geometry": { "type": "Point", "coordinates": [ 120.976962531615314, 14.305883907011983 ] } },
{ "type": "Feature", "properties": { "fid": 31, "id": 31, "cluster_id": "196", "column": null, "row": "B" }, "geometry": { "type": "Point", "coordinates": [ 120.976972267546358, 14.305884921171465 ] } },
{ "type": "Feature", "properties": { "fid": 32, "id": 32, "cluster_id": "196", "column": null, "row": "B" }, "geometry": { "type": "Point", "coordinates": [ 120.976985654451539, 14.305886543826642 ] } },
{ "type": "Feature", "properties": { "fid": 33, "id": 33, "cluster_id": "196", "column": null, "row": "B" }, "geometry": { "type": "Point", "coordinates": [ 120.976997418701558, 14.305886340994746 ] } },
{ "type": "Feature", "properties": { "fid": 34, "id": 34, "cluster_id": "196", "column": null, "row": "B" }, "geometry": { "type": "Point", "coordinates": [ 120.977005734809325, 14.305881067365426 ] } },
{ "type": "Feature", "properties": { "fid": 35, "id": 35, "cluster_id": "196", "column": null, "row": "B" }, "geometry": { "type": "Point", "coordinates": [ 120.977005937641223, 14.305878227718871 ] } }
]
}
