{
"type": "FeatureCollection",
"name": "cltr-id-189-a-row",
"crs": { "type": "name", "properties": { "name": "urn:ogc:def:crs:OGC:1.3:CRS84" } },
"features": [
{ "type": "Feature", "properties": { "fid": 1, "id": 1, "cluster_id": "189", "column": null, "row": "A" }, "geometry": { "type": "Point", "coordinates": [ 120.976577421453911, 14.305815958326512 ] } },
{ "type": "Feature", "properties": { "fid": 2, "id": 2, "cluster_id": "189", "column": null, "row": "A" }, "geometry": { "type": "Point", "coordinates": [ 120.976577962338965, 14.305810549475931 ] } },
{ "type": "Feature", "properties": { "fid": 3, "id": 3, "cluster_id": "189", "column": null, "row": "A" }, "geometry": { "type": "Point", "coordinates": [ 120.976587022163685, 14.305802436200056 ] } },
{ "type": "Feature", "properties": { "fid": 4, "id": 4, "cluster_id": "189", "column": null, "row": "A" }, "geometry": { "type": "Point", "coordinates": [ 120.976594459333242, 14.305803517970174 ] } },
{ "type": "Feature", "properties": { "fid": 5, "id": 5, "cluster_id": "189", "column": null, "row": "A" }, "geometry": { "type": "Point", "coordinates": [ 120.976602031724056, 14.305803788412703 ] } },
{ "type": "Feature", "properties": { "fid": 6, "id": 6, "cluster_id": "189", "column": null, "row": "A" }, "geometry": { "type": "Point", "coordinates": [ 120.976608792787289, 14.30580459974029 ] } },
{ "type": "Feature", "properties": { "fid": 7, "id": 7, "cluster_id": "189", "column": null, "row": "A" }, "geometry": { "type": "Point", "coordinates": [ 120.976617176505698, 14.305804870182818 ] } },
{ "type": "Feature", "properties": { "fid": 8, "id": 8, "cluster_id": "189", "column": null, "row": "A" }, "geometry": { "type": "Point", "coordinates": [ 120.976622855798809, 14.305805140625349 ] } },
{ "type": "Feature", "properties": { "fid": 9, "id": 9, "cluster_id": "189", "column": null, "row": "A" }, "geometry": { "type": "Point", "coordinates": [ 120.976632186066055, 14.305805681510405 ] } },
{ "type": "Feature", "properties": { "fid": 10, "id": 10, "cluster_id": "189", "column": null, "row": "A" }, "geometry": { "type": "Point", "coordinates": [ 120.976640705005721, 14.305806763280524 ] } },
{ "type": "Feature", "properties": { "fid": 11, "id": 11, "cluster_id": "189", "column": null, "row": "A" }, "geometry": { "type": "Point", "coordinates": [ 120.976650035272982, 14.305807574608108 ] } },
{ "type": "Feature", "properties": { "fid": 12, "id": 12, "cluster_id": "189", "column": null, "row": "A" }, "geometry": { "type": "Point", "coordinates": [ 120.976661258637918, 14.305808521156964 ] } },
{ "type": "Feature", "properties": { "fid": 13, "id": 13, "cluster_id": "189", "column": null, "row": "A" }, "geometry": { "type": "Point", "coordinates": [ 120.976671265011518, 14.30580906204202 ] } },
{ "type": "Feature", "properties": { "fid": 14, "id": 14, "cluster_id": "189", "column": null, "row": "A" }, "geometry": { "type": "Point", "coordinates": [ 120.976680595278779, 14.305809602927079 ] } }
]
}
