{
"type": "FeatureCollection",
"name": "cltr-id-195-b-row",
"crs": { "type": "name", "properties": { "name": "urn:ogc:def:crs:OGC:1.3:CRS84" } },
"features": [
{ "type": "Feature", "properties": { "fid": 1, "id": 1, "cluster_id": "195", "column": null, "row": "B" }, "geometry": { "type": "Point", "coordinates": [ 120.976732790686697, 14.305696828392438 ] } },
{ "type": "Feature", "properties": { "fid": 2, "id": 2, "cluster_id": "195", "column": null, "row": "B" }, "geometry": { "type": "Point", "coordinates": [ 120.976733872456819, 14.305691149099326 ] } },
{ "type": "Feature", "properties": { "fid": 3, "id": 3, "cluster_id": "195", "column": null, "row": "B" }, "geometry": { "type": "Point", "coordinates": [ 120.976743337945337, 14.305700073702788 ] } },
{ "type": "Feature", "properties": { "fid": 4, "id": 4, "cluster_id": "195", "column": null, "row": "B" }, "geometry": { "type": "Point", "coordinates": [ 120.976750099008569, 14.305700885030374 ] } },
{ "type": "Feature", "properties": { "fid": 5, "id": 5, "cluster_id": "195", "column": null, "row": "B" }, "geometry": { "type": "Point", "coordinates": [ 120.976758753169491, 14.305702778128078 ] } },
{ "type": "Feature", "properties": { "fid": 6, "id": 6, "cluster_id": "195", "column": null, "row": "B" }, "geometry": { "type": "Point", "coordinates": [ 120.976768489100536, 14.305703319013137 ] } },
{ "type": "Feature", "properties": { "fid": 7, "id": 7, "cluster_id": "195", "column": null, "row": "B" }, "geometry": { "type": "Point", "coordinates": [ 120.97677606149135, 14.305703048570608 ] } },
{ "type": "Feature", "properties": { "fid": 8, "id": 8, "cluster_id": "195", "column": null, "row": "B" }, "geometry": { "type": "Point", "coordinates": [ 120.976780929456879, 14.305704400783252 ] } },
{ "type": "Feature", "properties": { "fid": 9, "id": 9, "cluster_id": "195", "column": null, "row": "B" }, "geometry": { "type": "Point", "coordinates": [ 120.976789042732747, 14.305704941668312 ] } },
{ "type": "Feature", "properties": { "fid": 10, "id": 10, "cluster_id": "195", "column": null, "row": "B" }, "geometry": { "type": "Point", "coordinates": [ 120.976794722025872, 14.305706023438427 ] } },
{ "type": "Feature", "properties": { "fid": 11, "id": 11, "cluster_id": "195", "column": null, "row": "B" }, "geometry": { "type": "Point", "coordinates": [ 120.976802294416686, 14.30570791653613 ] } },
{ "type": "Feature", "properties": { "fid": 12, "id": 12, "cluster_id": "195", "column": null, "row": "B" }, "geometry": { "type": "Point", "coordinates": [ 120.976810678135081, 14.30570791653613 ] } },
{ "type": "Feature", "properties": { "fid": 13, "id": 13, "cluster_id": "195", "column": null, "row": "B" }, "geometry": { "type": "Point", "coordinates": [ 120.976818520968422, 14.305708998306248 ] } },
{ "type": "Feature", "properties": { "fid": 14, "id": 14, "cluster_id": "195", "column": null, "row": "B" }, "geometry": { "type": "Point", "coordinates": [ 120.976825552474182, 14.305709539191305 ] } },
{ "type": "Feature", "properties": { "fid": 15, "id": 15, "cluster_id": "195", "column": null, "row": "B" }, "geometry": { "type": "Point", "coordinates": [ 120.976832854422469, 14.305709539191305 ] } },
{ "type": "Feature", "properties": { "fid": 16, "id": 16, "cluster_id": "195", "column": null, "row": "B" }, "geometry": { "type": "Point", "coordinates": [ 120.976841238140878, 14.30571116184648 ] } },
{ "type": "Feature", "properties": { "fid": 17, "id": 17, "cluster_id": "195", "column": null, "row": "B" }, "geometry": { "type": "Point", "coordinates": [ 120.97684772876157, 14.305712243616597 ] } },
{ "type": "Feature", "properties": { "fid": 18, "id": 18, "cluster_id": "195", "column": null, "row": "B" }, "geometry": { "type": "Point", "coordinates": [ 120.976860710002967, 14.30571467759936 ] } },
{ "type": "Feature", "properties": { "fid": 19, "id": 19, "cluster_id": "195", "column": null, "row": "B" }, "geometry": { "type": "Point", "coordinates": [ 120.976871798146661, 14.305715218484417 ] } },
{ "type": "Feature", "properties": { "fid": 20, "id": 20, "cluster_id": "195", "column": null, "row": "B" }, "geometry": { "type": "Point", "coordinates": [ 120.976884779388058, 14.30571738202465 ] } },
{ "type": "Feature", "properties": { "fid": 21, "id": 21, "cluster_id": "195", "column": null, "row": "B" }, "geometry": { "type": "Point", "coordinates": [ 120.976896408416806, 14.305718193352238 ] } },
{ "type": "Feature", "properties": { "fid": 22, "id": 22, "cluster_id": "195", "column": null, "row": "B" }, "geometry": { "type": "Point", "coordinates": [ 120.976908578330622, 14.305718463794767 ] } },
{ "type": "Feature", "properties": { "fid": 23, "id": 23, "cluster_id": "195", "column": null, "row": "B" }, "geometry": { "type": "Point", "coordinates": [ 120.976918314261667, 14.30572035689247 ] } },
{ "type": "Feature", "properties": { "fid": 24, "id": 24, "cluster_id": "195", "column": null, "row": "B" }, "geometry": { "type": "Point", "coordinates": [ 120.976924263997304, 14.30572035689247 ] } },
{ "type": "Feature", "properties": { "fid": 25, "id": 25, "cluster_id": "195", "column": null, "row": "B" }, "geometry": { "type": "Point", "coordinates": [ 120.976931836388118, 14.305721438662587 ] } },
{ "type": "Feature", "properties": { "fid": 26, "id": 26, "cluster_id": "195", "column": null, "row": "B" }, "geometry": { "type": "Point", "coordinates": [ 120.976942924531812, 14.305722520432703 ] } },
{ "type": "Feature", "properties": { "fid": 27, "id": 27, "cluster_id": "195", "column": null, "row": "B" }, "geometry": { "type": "Point", "coordinates": [ 120.97695590577321, 14.305724143087877 ] } },
{ "type": "Feature", "properties": { "fid": 28, "id": 28, "cluster_id": "195", "column": null, "row": "B" }, "geometry": { "type": "Point", "coordinates": [ 120.976970509669783, 14.305724143087877 ] } },
{ "type": "Feature", "properties": { "fid": 29, "id": 29, "cluster_id": "195", "column": null, "row": "B" }, "geometry": { "type": "Point", "coordinates": [ 120.97698484312383, 14.30572657707064 ] } },
{ "type": "Feature", "properties": { "fid": 30, "id": 30, "cluster_id": "195", "column": null, "row": "B" }, "geometry": { "type": "Point", "coordinates": [ 120.976999717462931, 14.305728470168344 ] } },
{ "type": "Feature", "properties": { "fid": 31, "id": 31, "cluster_id": "195", "column": null, "row": "B" }, "geometry": { "type": "Point", "coordinates": [ 120.977011076049152, 14.305727117955698 ] } },
{ "type": "Feature", "properties": { "fid": 32, "id": 32, "cluster_id": "195", "column": null, "row": "B" }, "geometry": { "type": "Point", "coordinates": [ 120.9770227050779, 14.305728199725815 ] } },
{ "type": "Feature", "properties": { "fid": 33, "id": 33, "cluster_id": "195", "column": null, "row": "B" }, "geometry": { "type": "Point", "coordinates": [ 120.977031629681363, 14.305727658840755 ] } }
]
}
