{
    "type": "FeatureCollection",
    "name": "cltr-id-159-e-row",
    "crs": {
        "type": "name",
        "properties": { "name": "urn:ogc:def:crs:OGC:1.3:CRS84" }
    },
    "features": [
        {
            "type": "Feature",
            "properties": {
                "fid": 1,
                "id": 1,
                "cluster_id": "159",
                "column": null,
                "row": "E"
            },
            "geometry": {
                "type": "Point",
                "coordinates": [120.976377277159742, 14.305669059947732]
            }
        },
        {
            "type": "Feature",
            "properties": {
                "fid": 2,
                "id": 2,
                "cluster_id": "159",
                "column": null,
                "row": "E"
            },
            "geometry": {
                "type": "Point",
                "coordinates": [120.976378125108099, 14.305661958380242]
            }
        },
        {
            "type": "Feature",
            "properties": {
                "fid": 3,
                "id": 3,
                "cluster_id": "159",
                "column": null,
                "row": "E"
            },
            "geometry": {
                "type": "Point",
                "coordinates": [120.976380880940269, 14.305657400657822]
            }
        },
        {
            "type": "Feature",
            "properties": {
                "fid": 4,
                "id": 4,
                "cluster_id": "159",
                "column": null,
                "row": "E"
            },
            "geometry": {
                "type": "Point",
                "coordinates": [120.976389996385109, 14.305658566586812]
            }
        },
        {
            "type": "Feature",
            "properties": {
                "fid": 5,
                "id": 5,
                "cluster_id": "159",
                "column": null,
                "row": "E"
            },
            "geometry": {
                "type": "Point",
                "coordinates": [120.976400383752477, 14.305659308541626]
            }
        },
        {
            "type": "Feature",
            "properties": {
                "fid": 6,
                "id": 6,
                "cluster_id": "159",
                "column": null,
                "row": "E"
            },
            "geometry": {
                "type": "Point",
                "coordinates": [120.976411831055302, 14.305660050496439]
            }
        },
        {
            "type": "Feature",
            "properties": {
                "fid": 7,
                "id": 7,
                "cluster_id": "159",
                "column": null,
                "row": "E"
            },
            "geometry": {
                "type": "Point",
                "coordinates": [120.97642221842267, 14.305661110431885]
            }
        },
        {
            "type": "Feature",
            "properties": {
                "fid": 8,
                "id": 8,
                "cluster_id": "159",
                "column": null,
                "row": "E"
            },
            "geometry": {
                "type": "Point",
                "coordinates": [120.976430485919153, 14.305661428412519]
            }
        },
        {
            "type": "Feature",
            "properties": {
                "fid": 9,
                "id": 9,
                "cluster_id": "159",
                "column": null,
                "row": "E"
            },
            "geometry": {
                "type": "Point",
                "coordinates": [120.976439283383357, 14.305662170367331]
            }
        },
        {
            "type": "Feature",
            "properties": {
                "fid": 10,
                "id": 10,
                "cluster_id": "159",
                "column": null,
                "row": "E"
            },
            "geometry": {
                "type": "Point",
                "coordinates": [120.976448080847561, 14.305662276360875]
            }
        },
        {
            "type": "Feature",
            "properties": {
                "fid": 11,
                "id": 11,
                "cluster_id": "159",
                "column": null,
                "row": "E"
            },
            "geometry": {
                "type": "Point",
                "coordinates": [120.976455712382773, 14.305663972257589]
            }
        },
        {
            "type": "Feature",
            "properties": {
                "fid": 12,
                "id": 12,
                "cluster_id": "159",
                "column": null,
                "row": "E"
            },
            "geometry": {
                "type": "Point",
                "coordinates": [120.976464191866356, 14.305663654276955]
            }
        },
        {
            "type": "Feature",
            "properties": {
                "fid": 13,
                "id": 13,
                "cluster_id": "159",
                "column": null,
                "row": "E"
            },
            "geometry": {
                "type": "Point",
                "coordinates": [120.97647288333701, 14.305664078251134]
            }
        },
        {
            "type": "Feature",
            "properties": {
                "fid": 14,
                "id": 14,
                "cluster_id": "159",
                "column": null,
                "row": "E"
            },
            "geometry": {
                "type": "Point",
                "coordinates": [120.976480408878686, 14.305664714212401]
            }
        },
        {
            "type": "Feature",
            "properties": {
                "fid": 15,
                "id": 15,
                "cluster_id": "159",
                "column": null,
                "row": "E"
            },
            "geometry": {
                "type": "Point",
                "coordinates": [120.976489418329976, 14.305665350173671]
            }
        }
    ]
}
