{
    "type": "FeatureCollection",
    "name": "cltr-id-161-a-row",
    "crs": {
        "type": "name",
        "properties": { "name": "urn:ogc:def:crs:OGC:1.3:CRS84" }
    },
    "features": [
        {
            "type": "Feature",
            "properties": {
                "fid": 1,
                "id": 1,
                "cluster_id": "161",
                "column": null,
                "row": "A"
            },
            "geometry": {
                "type": "Point",
                "coordinates": [120.976379185043555, 14.305803353768786]
            }
        },
        {
            "type": "Feature",
            "properties": {
                "fid": 2,
                "id": 2,
                "cluster_id": "161",
                "column": null,
                "row": "A"
            },
            "geometry": {
                "type": "Point",
                "coordinates": [120.976380244978998, 14.305795192265848]
            }
        },
        {
            "type": "Feature",
            "properties": {
                "fid": 3,
                "id": 3,
                "cluster_id": "161",
                "column": null,
                "row": "A"
            },
            "geometry": {
                "type": "Point",
                "coordinates": [120.976386286611046, 14.305789362620892]
            }
        },
        {
            "type": "Feature",
            "properties": {
                "fid": 4,
                "id": 4,
                "cluster_id": "161",
                "column": null,
                "row": "A"
            },
            "geometry": {
                "type": "Point",
                "coordinates": [120.976395932023607, 14.305789786595072]
            }
        },
        {
            "type": "Feature",
            "properties": {
                "fid": 5,
                "id": 5,
                "cluster_id": "161",
                "column": null,
                "row": "A"
            },
            "geometry": {
                "type": "Point",
                "coordinates": [120.976406107403889, 14.305790210569251]
            }
        },
        {
            "type": "Feature",
            "properties": {
                "fid": 6,
                "id": 6,
                "cluster_id": "161",
                "column": null,
                "row": "A"
            },
            "geometry": {
                "type": "Point",
                "coordinates": [120.976415328842279, 14.305790846530519]
            }
        },
        {
            "type": "Feature",
            "properties": {
                "fid": 7,
                "id": 7,
                "cluster_id": "161",
                "column": null,
                "row": "A"
            },
            "geometry": {
                "type": "Point",
                "coordinates": [120.976424126306483, 14.305791482491786]
            }
        },
        {
            "type": "Feature",
            "properties": {
                "fid": 8,
                "id": 8,
                "cluster_id": "161",
                "column": null,
                "row": "A"
            },
            "geometry": {
                "type": "Point",
                "coordinates": [120.976432499796516, 14.305792012459509]
            }
        },
        {
            "type": "Feature",
            "properties": {
                "fid": 9,
                "id": 9,
                "cluster_id": "161",
                "column": null,
                "row": "A"
            },
            "geometry": {
                "type": "Point",
                "coordinates": [120.976440555305899, 14.305792542427232]
            }
        },
        {
            "type": "Feature",
            "properties": {
                "fid": 10,
                "id": 10,
                "cluster_id": "161",
                "column": null,
                "row": "A"
            },
            "geometry": {
                "type": "Point",
                "coordinates": [120.976448928795932, 14.3057931783885]
            }
        },
        {
            "type": "Feature",
            "properties": {
                "fid": 11,
                "id": 11,
                "cluster_id": "161",
                "column": null,
                "row": "A"
            },
            "geometry": {
                "type": "Point",
                "coordinates": [120.976458044240758, 14.305793602362678]
            }
        },
        {
            "type": "Feature",
            "properties": {
                "fid": 12,
                "id": 12,
                "cluster_id": "161",
                "column": null,
                "row": "A"
            },
            "geometry": {
                "type": "Point",
                "coordinates": [120.976466735711426, 14.305794026336857]
            }
        },
        {
            "type": "Feature",
            "properties": {
                "fid": 13,
                "id": 13,
                "cluster_id": "161",
                "column": null,
                "row": "A"
            },
            "geometry": {
                "type": "Point",
                "coordinates": [120.976475215194995, 14.305794450311035]
            }
        },
        {
            "type": "Feature",
            "properties": {
                "fid": 14,
                "id": 14,
                "cluster_id": "161",
                "column": null,
                "row": "A"
            },
            "geometry": {
                "type": "Point",
                "coordinates": [120.976484330639821, 14.305795086272303]
            }
        },
        {
            "type": "Feature",
            "properties": {
                "fid": 15,
                "id": 15,
                "cluster_id": "161",
                "column": null,
                "row": "A"
            },
            "geometry": {
                "type": "Point",
                "coordinates": [120.976491856181511, 14.305795510246483]
            }
        }
    ]
}
