{
"type": "FeatureCollection",
"name": "cltr-id-199-a-row",
"crs": { "type": "name", "properties": { "name": "urn:ogc:def:crs:OGC:1.3:CRS84" } },
"features": [
{ "type": "Feature", "properties": { "fid": 1, "id": 1, "cluster_id": "199", "column": null, "row": "A" }, "geometry": { "type": "Point", "coordinates": [ 120.976637944238192, 14.305334818530378 ] } },
{ "type": "Feature", "properties": { "fid": 2, "id": 2, "cluster_id": "199", "column": null, "row": "A" }, "geometry": { "type": "Point", "coordinates": [ 120.976647680169236, 14.305336170743024 ] } },
{ "type": "Feature", "properties": { "fid": 3, "id": 3, "cluster_id": "199", "column": null, "row": "A" }, "geometry": { "type": "Point", "coordinates": [ 120.976659038755457, 14.305336711628081 ] } },
{ "type": "Feature", "properties": { "fid": 4, "id": 4, "cluster_id": "199", "column": null, "row": "A" }, "geometry": { "type": "Point", "coordinates": [ 120.976668233801448, 14.30533752295567 ] } },
{ "type": "Feature", "properties": { "fid": 5, "id": 5, "cluster_id": "199", "column": null, "row": "A" }, "geometry": { "type": "Point", "coordinates": [ 120.976676887962384, 14.305338063840727 ] } },
{ "type": "Feature", "properties": { "fid": 6, "id": 6, "cluster_id": "199", "column": null, "row": "A" }, "geometry": { "type": "Point", "coordinates": [ 120.976685812565847, 14.305338875168315 ] } },
{ "type": "Feature", "properties": { "fid": 7, "id": 7, "cluster_id": "199", "column": null, "row": "A" }, "geometry": { "type": "Point", "coordinates": [ 120.976692573629066, 14.305339145610844 ] } },
{ "type": "Feature", "properties": { "fid": 8, "id": 8, "cluster_id": "199", "column": null, "row": "A" }, "geometry": { "type": "Point", "coordinates": [ 120.976701227790002, 14.305339416053373 ] } },
{ "type": "Feature", "properties": { "fid": 9, "id": 9, "cluster_id": "199", "column": null, "row": "A" }, "geometry": { "type": "Point", "coordinates": [ 120.976708529738289, 14.305340768266019 ] } },
{ "type": "Feature", "properties": { "fid": 10, "id": 10, "cluster_id": "199", "column": null, "row": "A" }, "geometry": { "type": "Point", "coordinates": [ 120.976717183899225, 14.305342120478665 ] } }
]
}
