{
    "type": "FeatureCollection",
    "name": "cltr-id-156-e-row",
    "crs": {
        "type": "name",
        "properties": { "name": "urn:ogc:def:crs:OGC:1.3:CRS84" }
    },
    "features": [
        {
            "type": "Feature",
            "properties": {
                "fid": 1,
                "id": 1,
                "cluster_id": "156",
                "column": null,
                "row": "E"
            },
            "geometry": {
                "type": "Point",
                "coordinates": [120.976405895416775, 14.305564232332079]
            }
        },
        {
            "type": "Feature",
            "properties": {
                "fid": 2,
                "id": 2,
                "cluster_id": "156",
                "column": null,
                "row": "E"
            },
            "geometry": {
                "type": "Point",
                "coordinates": [120.976416282784143, 14.305565716241704]
            }
        },
        {
            "type": "Feature",
            "properties": {
                "fid": 3,
                "id": 3,
                "cluster_id": "156",
                "column": null,
                "row": "E"
            },
            "geometry": {
                "type": "Point",
                "coordinates": [120.97642624617734, 14.305565928228795]
            }
        },
        {
            "type": "Feature",
            "properties": {
                "fid": 4,
                "id": 4,
                "cluster_id": "156",
                "column": null,
                "row": "E"
            },
            "geometry": {
                "type": "Point",
                "coordinates": [120.97643536162218, 14.305566776177152]
            }
        },
        {
            "type": "Feature",
            "properties": {
                "fid": 5,
                "id": 5,
                "cluster_id": "156",
                "column": null,
                "row": "E"
            },
            "geometry": {
                "type": "Point",
                "coordinates": [120.976443841105763, 14.305566564190062]
            }
        },
        {
            "type": "Feature",
            "properties": {
                "fid": 6,
                "id": 6,
                "cluster_id": "156",
                "column": null,
                "row": "E"
            },
            "geometry": {
                "type": "Point",
                "coordinates": [120.976453168537688, 14.305567624125509]
            }
        },
        {
            "type": "Feature",
            "properties": {
                "fid": 7,
                "id": 7,
                "cluster_id": "156",
                "column": null,
                "row": "E"
            },
            "geometry": {
                "type": "Point",
                "coordinates": [120.976461224047071, 14.305568472073865]
            }
        },
        {
            "type": "Feature",
            "properties": {
                "fid": 8,
                "id": 8,
                "cluster_id": "156",
                "column": null,
                "row": "E"
            },
            "geometry": {
                "type": "Point",
                "coordinates": [120.976469703530654, 14.305569532009311]
            }
        },
        {
            "type": "Feature",
            "properties": {
                "fid": 9,
                "id": 9,
                "cluster_id": "156",
                "column": null,
                "row": "E"
            },
            "geometry": {
                "type": "Point",
                "coordinates": [120.976477971027137, 14.305570167970579]
            }
        },
        {
            "type": "Feature",
            "properties": {
                "fid": 10,
                "id": 10,
                "cluster_id": "156",
                "column": null,
                "row": "E"
            },
            "geometry": {
                "type": "Point",
                "coordinates": [120.976487510446148, 14.305570379957668]
            }
        },
        {
            "type": "Feature",
            "properties": {
                "fid": 11,
                "id": 11,
                "cluster_id": "156",
                "column": null,
                "row": "E"
            },
            "geometry": {
                "type": "Point",
                "coordinates": [120.976496413903902, 14.305571439893114]
            }
        },
        {
            "type": "Feature",
            "properties": {
                "fid": 12,
                "id": 12,
                "cluster_id": "156",
                "column": null,
                "row": "E"
            },
            "geometry": {
                "type": "Point",
                "coordinates": [120.976503197490757, 14.305571439893114]
            }
        },
        {
            "type": "Feature",
            "properties": {
                "fid": 13,
                "id": 13,
                "cluster_id": "156",
                "column": null,
                "row": "E"
            },
            "geometry": {
                "type": "Point",
                "coordinates": [120.976512100948511, 14.305572923802741]
            }
        },
        {
            "type": "Feature",
            "properties": {
                "fid": 14,
                "id": 14,
                "cluster_id": "156",
                "column": null,
                "row": "E"
            },
            "geometry": {
                "type": "Point",
                "coordinates": [120.976516128703196, 14.305571439893114]
            }
        },
        {
            "type": "Feature",
            "properties": {
                "fid": 15,
                "id": 15,
                "cluster_id": "156",
                "column": null,
                "row": "E"
            },
            "geometry": {
                "type": "Point",
                "coordinates": [120.976516552677381, 14.305563596370812]
            }
        }
    ]
}
