{
    "type": "FeatureCollection",
    "name": "cltr-id-161-e-row",
    "crs": {
        "type": "name",
        "properties": { "name": "urn:ogc:def:crs:OGC:1.3:CRS84" }
    },
    "features": [
        {
            "type": "Feature",
            "properties": {
                "fid": 1,
                "id": 1,
                "cluster_id": "161",
                "column": null,
                "row": "E"
            },
            "geometry": {
                "type": "Point",
                "coordinates": [120.97638151690154, 14.305803035788152]
            }
        },
        {
            "type": "Feature",
            "properties": {
                "fid": 2,
                "id": 2,
                "cluster_id": "161",
                "column": null,
                "row": "E"
            },
            "geometry": {
                "type": "Point",
                "coordinates": [120.976382152862811, 14.305795192265848]
            }
        },
        {
            "type": "Feature",
            "properties": {
                "fid": 3,
                "id": 3,
                "cluster_id": "161",
                "column": null,
                "row": "E"
            },
            "geometry": {
                "type": "Point",
                "coordinates": [120.976386180617496, 14.30579180047242]
            }
        },
        {
            "type": "Feature",
            "properties": {
                "fid": 4,
                "id": 4,
                "cluster_id": "161",
                "column": null,
                "row": "E"
            },
            "geometry": {
                "type": "Point",
                "coordinates": [120.976396250004242, 14.305791906465965]
            }
        },
        {
            "type": "Feature",
            "properties": {
                "fid": 5,
                "id": 5,
                "cluster_id": "161",
                "column": null,
                "row": "E"
            },
            "geometry": {
                "type": "Point",
                "coordinates": [120.976405471442632, 14.305792542427232]
            }
        },
        {
            "type": "Feature",
            "properties": {
                "fid": 6,
                "id": 6,
                "cluster_id": "161",
                "column": null,
                "row": "E"
            },
            "geometry": {
                "type": "Point",
                "coordinates": [120.976414904868093, 14.305793708356223]
            }
        },
        {
            "type": "Feature",
            "properties": {
                "fid": 7,
                "id": 7,
                "cluster_id": "161",
                "column": null,
                "row": "E"
            },
            "geometry": {
                "type": "Point",
                "coordinates": [120.976423808325848, 14.305794238323946]
            }
        },
        {
            "type": "Feature",
            "properties": {
                "fid": 8,
                "id": 8,
                "cluster_id": "161",
                "column": null,
                "row": "E"
            },
            "geometry": {
                "type": "Point",
                "coordinates": [120.976431969828781, 14.30579455630458]
            }
        },
        {
            "type": "Feature",
            "properties": {
                "fid": 9,
                "id": 9,
                "cluster_id": "161",
                "column": null,
                "row": "E"
            },
            "geometry": {
                "type": "Point",
                "coordinates": [120.976440449312364, 14.305795086272303]
            }
        },
        {
            "type": "Feature",
            "properties": {
                "fid": 10,
                "id": 10,
                "cluster_id": "161",
                "column": null,
                "row": "E"
            },
            "geometry": {
                "type": "Point",
                "coordinates": [120.976448610815297, 14.305795722233572]
            }
        },
        {
            "type": "Feature",
            "properties": {
                "fid": 11,
                "id": 11,
                "cluster_id": "161",
                "column": null,
                "row": "E"
            },
            "geometry": {
                "type": "Point",
                "coordinates": [120.976457620266586, 14.305796040214206]
            }
        },
        {
            "type": "Feature",
            "properties": {
                "fid": 12,
                "id": 12,
                "cluster_id": "161",
                "column": null,
                "row": "E"
            },
            "geometry": {
                "type": "Point",
                "coordinates": [120.976466205743705, 14.305796146207751]
            }
        },
        {
            "type": "Feature",
            "properties": {
                "fid": 13,
                "id": 13,
                "cluster_id": "161",
                "column": null,
                "row": "E"
            },
            "geometry": {
                "type": "Point",
                "coordinates": [120.976474897214359, 14.305797842104464]
            }
        },
        {
            "type": "Feature",
            "properties": {
                "fid": 14,
                "id": 14,
                "cluster_id": "161",
                "column": null,
                "row": "E"
            },
            "geometry": {
                "type": "Point",
                "coordinates": [120.976484118652749, 14.305798054091554]
            }
        },
        {
            "type": "Feature",
            "properties": {
                "fid": 15,
                "id": 15,
                "cluster_id": "161",
                "column": null,
                "row": "E"
            },
            "geometry": {
                "type": "Point",
                "coordinates": [120.97649122022024, 14.305797948098009]
            }
        }
    ]
}
