{
"type": "FeatureCollection",
"name": "cltr-id-209-a-row",
"crs": { "type": "name", "properties": { "name": "urn:ogc:def:crs:OGC:1.3:CRS84" } },
"features": [
{ "type": "Feature", "properties": { "fid": 1, "id": 1, "cluster_id": "209", "column": null, "row": "A" }, "geometry": { "type": "Point", "coordinates": [ 120.976758617948406, 14.305344982662074 ] } },
{ "type": "Feature", "properties": { "fid": 2, "id": 2, "cluster_id": "209", "column": null, "row": "A" }, "geometry": { "type": "Point", "coordinates": [ 120.97676835387945, 14.305346064432191 ] } },
{ "type": "Feature", "properties": { "fid": 3, "id": 3, "cluster_id": "209", "column": null, "row": "A" }, "geometry": { "type": "Point", "coordinates": [ 120.976779171580617, 14.305347687087366 ] } },
{ "type": "Feature", "properties": { "fid": 4, "id": 4, "cluster_id": "209", "column": null, "row": "A" }, "geometry": { "type": "Point", "coordinates": [ 120.976789989281784, 14.305346605317251 ] } },
{ "type": "Feature", "properties": { "fid": 5, "id": 5, "cluster_id": "209", "column": null, "row": "A" }, "geometry": { "type": "Point", "coordinates": [ 120.976799184327774, 14.305347146202308 ] } },
{ "type": "Feature", "properties": { "fid": 6, "id": 6, "cluster_id": "209", "column": null, "row": "A" }, "geometry": { "type": "Point", "coordinates": [ 120.976806756718588, 14.305348768857481 ] } },
{ "type": "Feature", "properties": { "fid": 7, "id": 7, "cluster_id": "209", "column": null, "row": "A" }, "geometry": { "type": "Point", "coordinates": [ 120.976816492649633, 14.3053498506276 ] } },
{ "type": "Feature", "properties": { "fid": 8, "id": 8, "cluster_id": "209", "column": null, "row": "A" }, "geometry": { "type": "Point", "coordinates": [ 120.976825687695623, 14.305348768857483 ] } },
{ "type": "Feature", "properties": { "fid": 9, "id": 9, "cluster_id": "209", "column": null, "row": "A" }, "geometry": { "type": "Point", "coordinates": [ 120.976833260086437, 14.3053498506276 ] } },
{ "type": "Feature", "properties": { "fid": 10, "id": 10, "cluster_id": "209", "column": null, "row": "A" }, "geometry": { "type": "Point", "coordinates": [ 120.976842455132427, 14.305350932397715 ] } },
{ "type": "Feature", "properties": { "fid": 11, "id": 11, "cluster_id": "209", "column": null, "row": "A" }, "geometry": { "type": "Point", "coordinates": [ 120.976851650178418, 14.305352014167831 ] } },
{ "type": "Feature", "properties": { "fid": 12, "id": 12, "cluster_id": "209", "column": null, "row": "A" }, "geometry": { "type": "Point", "coordinates": [ 120.976862467879585, 14.305353636823007 ] } },
{ "type": "Feature", "properties": { "fid": 13, "id": 13, "cluster_id": "209", "column": null, "row": "A" }, "geometry": { "type": "Point", "coordinates": [ 120.976873285580751, 14.305354177708065 ] } },
{ "type": "Feature", "properties": { "fid": 14, "id": 14, "cluster_id": "209", "column": null, "row": "A" }, "geometry": { "type": "Point", "coordinates": [ 120.976881398856619, 14.305354718593124 ] } },
{ "type": "Feature", "properties": { "fid": 15, "id": 15, "cluster_id": "209", "column": null, "row": "A" }, "geometry": { "type": "Point", "coordinates": [ 120.976891675672718, 14.305355259478182 ] } },
{ "type": "Feature", "properties": { "fid": 16, "id": 16, "cluster_id": "209", "column": null, "row": "A" }, "geometry": { "type": "Point", "coordinates": [ 120.976900329833654, 14.305356341248299 ] } },
{ "type": "Feature", "properties": { "fid": 17, "id": 17, "cluster_id": "209", "column": null, "row": "A" }, "geometry": { "type": "Point", "coordinates": [ 120.976908983994591, 14.305357963903473 ] } },
{ "type": "Feature", "properties": { "fid": 18, "id": 18, "cluster_id": "209", "column": null, "row": "A" }, "geometry": { "type": "Point", "coordinates": [ 120.976917097270459, 14.305357963903473 ] } },
{ "type": "Feature", "properties": { "fid": 19, "id": 19, "cluster_id": "209", "column": null, "row": "A" }, "geometry": { "type": "Point", "coordinates": [ 120.976927914971625, 14.305358504788531 ] } },
{ "type": "Feature", "properties": { "fid": 20, "id": 20, "cluster_id": "209", "column": null, "row": "A" }, "geometry": { "type": "Point", "coordinates": [ 120.976937110017616, 14.305359045673589 ] } },
{ "type": "Feature", "properties": { "fid": 21, "id": 21, "cluster_id": "209", "column": null, "row": "A" }, "geometry": { "type": "Point", "coordinates": [ 120.97694468240843, 14.305359045673589 ] } },
{ "type": "Feature", "properties": { "fid": 22, "id": 22, "cluster_id": "209", "column": null, "row": "A" }, "geometry": { "type": "Point", "coordinates": [ 120.97695387745442, 14.305359586558648 ] } },
{ "type": "Feature", "properties": { "fid": 23, "id": 23, "cluster_id": "209", "column": null, "row": "A" }, "geometry": { "type": "Point", "coordinates": [ 120.976961990730302, 14.305359586558648 ] } },
{ "type": "Feature", "properties": { "fid": 24, "id": 24, "cluster_id": "209", "column": null, "row": "A" }, "geometry": { "type": "Point", "coordinates": [ 120.976973349316509, 14.30536175009888 ] } },
{ "type": "Feature", "properties": { "fid": 25, "id": 25, "cluster_id": "209", "column": null, "row": "A" }, "geometry": { "type": "Point", "coordinates": [ 120.976982544362514, 14.305362290983938 ] } },
{ "type": "Feature", "properties": { "fid": 26, "id": 26, "cluster_id": "209", "column": null, "row": "A" }, "geometry": { "type": "Point", "coordinates": [ 120.976991739408504, 14.305363913639113 ] } },
{ "type": "Feature", "properties": { "fid": 27, "id": 27, "cluster_id": "209", "column": null, "row": "A" }, "geometry": { "type": "Point", "coordinates": [ 120.977005261534956, 14.30536445452417 ] } },
{ "type": "Feature", "properties": { "fid": 28, "id": 28, "cluster_id": "209", "column": null, "row": "A" }, "geometry": { "type": "Point", "coordinates": [ 120.977014997466, 14.305366077179347 ] } },
{ "type": "Feature", "properties": { "fid": 29, "id": 29, "cluster_id": "209", "column": null, "row": "A" }, "geometry": { "type": "Point", "coordinates": [ 120.977025274282099, 14.305366618064404 ] } },
{ "type": "Feature", "properties": { "fid": 30, "id": 30, "cluster_id": "209", "column": null, "row": "A" }, "geometry": { "type": "Point", "coordinates": [ 120.97703176490279, 14.305367158949462 ] } },
{ "type": "Feature", "properties": { "fid": 31, "id": 31, "cluster_id": "209", "column": null, "row": "A" }, "geometry": { "type": "Point", "coordinates": [ 120.977041500833849, 14.305367158949462 ] } },
{ "type": "Feature", "properties": { "fid": 32, "id": 32, "cluster_id": "209", "column": null, "row": "A" }, "geometry": { "type": "Point", "coordinates": [ 120.977049614109731, 14.305368240719579 ] } },
{ "type": "Feature", "properties": { "fid": 33, "id": 33, "cluster_id": "209", "column": null, "row": "A" }, "geometry": { "type": "Point", "coordinates": [ 120.977057186500545, 14.305368781604637 ] } },
{ "type": "Feature", "properties": { "fid": 34, "id": 34, "cluster_id": "209", "column": null, "row": "A" }, "geometry": { "type": "Point", "coordinates": [ 120.977065299776413, 14.305368781604637 ] } },
{ "type": "Feature", "properties": { "fid": 35, "id": 35, "cluster_id": "209", "column": null, "row": "A" }, "geometry": { "type": "Point", "coordinates": [ 120.977072872167241, 14.305369863374754 ] } }
]
}
