{
"type": "FeatureCollection",
"name": "cltr-id-163-b-row",
"crs": { "type": "name", "properties": { "name": "urn:ogc:def:crs:OGC:1.3:CRS84" } },
"features": [
{ "type": "Feature", "properties": { "fid": 1, "id": 1, "cluster_id": "163", "column": null, "row": "B" }, "geometry": { "type": "Point", "coordinates": [ 120.976063812368238, 14.305304655888264 ] } },
{ "type": "Feature", "properties": { "fid": 2, "id": 2, "cluster_id": "163", "column": null, "row": "B" }, "geometry": { "type": "Point", "coordinates": [ 120.976073908889319, 14.305305403778716 ] } },
{ "type": "Feature", "properties": { "fid": 3, "id": 3, "cluster_id": "163", "column": null, "row": "B" }, "geometry": { "type": "Point", "coordinates": [ 120.97608624908176, 14.305305403778716 ] } },
{ "type": "Feature", "properties": { "fid": 4, "id": 4, "cluster_id": "163", "column": null, "row": "B" }, "geometry": { "type": "Point", "coordinates": [ 120.976097093493308, 14.305306525614391 ] } },
{ "type": "Feature", "properties": { "fid": 5, "id": 5, "cluster_id": "163", "column": null, "row": "B" }, "geometry": { "type": "Point", "coordinates": [ 120.976107937904843, 14.305308769285745 ] } },
{ "type": "Feature", "properties": { "fid": 6, "id": 6, "cluster_id": "163", "column": null, "row": "B" }, "geometry": { "type": "Point", "coordinates": [ 120.97611766048071, 14.305309517176195 ] } },
{ "type": "Feature", "properties": { "fid": 7, "id": 7, "cluster_id": "163", "column": null, "row": "B" }, "geometry": { "type": "Point", "coordinates": [ 120.976127757001791, 14.305310639011871 ] } },
{ "type": "Feature", "properties": { "fid": 8, "id": 8, "cluster_id": "163", "column": null, "row": "B" }, "geometry": { "type": "Point", "coordinates": [ 120.976136731687205, 14.305311012957096 ] } },
{ "type": "Feature", "properties": { "fid": 9, "id": 9, "cluster_id": "163", "column": null, "row": "B" }, "geometry": { "type": "Point", "coordinates": [ 120.976144584536939, 14.305312134792773 ] } },
{ "type": "Feature", "properties": { "fid": 10, "id": 10, "cluster_id": "163", "column": null, "row": "B" }, "geometry": { "type": "Point", "coordinates": [ 120.976154681058034, 14.305312508738 ] } },
{ "type": "Feature", "properties": { "fid": 11, "id": 11, "cluster_id": "163", "column": null, "row": "B" }, "geometry": { "type": "Point", "coordinates": [ 120.976162533907768, 14.305314752409352 ] } },
{ "type": "Feature", "properties": { "fid": 12, "id": 12, "cluster_id": "163", "column": null, "row": "B" }, "geometry": { "type": "Point", "coordinates": [ 120.976171882538395, 14.305314378464127 ] } },
{ "type": "Feature", "properties": { "fid": 13, "id": 13, "cluster_id": "163", "column": null, "row": "B" }, "geometry": { "type": "Point", "coordinates": [ 120.976181231169036, 14.305315126354577 ] } },
{ "type": "Feature", "properties": { "fid": 14, "id": 14, "cluster_id": "163", "column": null, "row": "B" }, "geometry": { "type": "Point", "coordinates": [ 120.976189457963997, 14.305315874245029 ] } },
{ "type": "Feature", "properties": { "fid": 15, "id": 15, "cluster_id": "163", "column": null, "row": "B" }, "geometry": { "type": "Point", "coordinates": [ 120.976196562923278, 14.305316622135479 ] } },
{ "type": "Feature", "properties": { "fid": 16, "id": 16, "cluster_id": "163", "column": null, "row": "B" }, "geometry": { "type": "Point", "coordinates": [ 120.976205537608692, 14.305316622135479 ] } },
{ "type": "Feature", "properties": { "fid": 17, "id": 17, "cluster_id": "163", "column": null, "row": "B" }, "geometry": { "type": "Point", "coordinates": [ 120.97621413834888, 14.305316996080705 ] } },
{ "type": "Feature", "properties": { "fid": 18, "id": 18, "cluster_id": "163", "column": null, "row": "B" }, "geometry": { "type": "Point", "coordinates": [ 120.976222739089067, 14.305319613697284 ] } },
{ "type": "Feature", "properties": { "fid": 19, "id": 19, "cluster_id": "163", "column": null, "row": "B" }, "geometry": { "type": "Point", "coordinates": [ 120.976232087719708, 14.305319987642509 ] } },
{ "type": "Feature", "properties": { "fid": 20, "id": 20, "cluster_id": "163", "column": null, "row": "B" }, "geometry": { "type": "Point", "coordinates": [ 120.976238818733762, 14.305319987642509 ] } },
{ "type": "Feature", "properties": { "fid": 21, "id": 21, "cluster_id": "163", "column": null, "row": "B" }, "geometry": { "type": "Point", "coordinates": [ 120.976248915254843, 14.305321483423411 ] } },
{ "type": "Feature", "properties": { "fid": 22, "id": 22, "cluster_id": "163", "column": null, "row": "B" }, "geometry": { "type": "Point", "coordinates": [ 120.97625751599503, 14.305321109478186 ] } },
{ "type": "Feature", "properties": { "fid": 23, "id": 23, "cluster_id": "163", "column": null, "row": "B" }, "geometry": { "type": "Point", "coordinates": [ 120.976263873063871, 14.305322231313861 ] } },
{ "type": "Feature", "properties": { "fid": 24, "id": 24, "cluster_id": "163", "column": null, "row": "B" }, "geometry": { "type": "Point", "coordinates": [ 120.976273595639725, 14.305322231313861 ] } },
{ "type": "Feature", "properties": { "fid": 25, "id": 25, "cluster_id": "163", "column": null, "row": "B" }, "geometry": { "type": "Point", "coordinates": [ 120.97628070059902, 14.305323727094763 ] } },
{ "type": "Feature", "properties": { "fid": 26, "id": 26, "cluster_id": "163", "column": null, "row": "B" }, "geometry": { "type": "Point", "coordinates": [ 120.97628967528442, 14.305323727094763 ] } },
{ "type": "Feature", "properties": { "fid": 27, "id": 27, "cluster_id": "163", "column": null, "row": "B" }, "geometry": { "type": "Point", "coordinates": [ 120.976299023915061, 14.305323727094763 ] } },
{ "type": "Feature", "properties": { "fid": 28, "id": 28, "cluster_id": "163", "column": null, "row": "B" }, "geometry": { "type": "Point", "coordinates": [ 120.976307624655249, 14.305324848930439 ] } },
{ "type": "Feature", "properties": { "fid": 29, "id": 29, "cluster_id": "163", "column": null, "row": "B" }, "geometry": { "type": "Point", "coordinates": [ 120.976317721176329, 14.305325222875666 ] } },
{ "type": "Feature", "properties": { "fid": 30, "id": 30, "cluster_id": "163", "column": null, "row": "B" }, "geometry": { "type": "Point", "coordinates": [ 120.97632594797129, 14.305327092601793 ] } },
{ "type": "Feature", "properties": { "fid": 31, "id": 31, "cluster_id": "163", "column": null, "row": "B" }, "geometry": { "type": "Point", "coordinates": [ 120.976334548711478, 14.305327092601793 ] } },
{ "type": "Feature", "properties": { "fid": 32, "id": 32, "cluster_id": "163", "column": null, "row": "B" }, "geometry": { "type": "Point", "coordinates": [ 120.976343149451665, 14.305327840492243 ] } },
{ "type": "Feature", "properties": { "fid": 33, "id": 33, "cluster_id": "163", "column": null, "row": "B" }, "geometry": { "type": "Point", "coordinates": [ 120.976348758630053, 14.305327840492243 ] } },
{ "type": "Feature", "properties": { "fid": 34, "id": 34, "cluster_id": "163", "column": null, "row": "B" }, "geometry": { "type": "Point", "coordinates": [ 120.976355489644106, 14.30532821443747 ] } }
]
}
