{
"type": "FeatureCollection",
"name": "cltr-id-210-b-row",
"crs": { "type": "name", "properties": { "name": "urn:ogc:def:crs:OGC:1.3:CRS84" } },
"features": [
{ "type": "Feature", "properties": { "fid": 1, "id": 1, "cluster_id": null, "column": null, "row": null }, "geometry": { "type": "Point", "coordinates": [ 120.976744554936857, 14.305525097386459 ] } },
{ "type": "Feature", "properties": { "fid": 2, "id": 2, "cluster_id": null, "column": null, "row": null }, "geometry": { "type": "Point", "coordinates": [ 120.976752397770198, 14.305525908714046 ] } },
{ "type": "Feature", "properties": { "fid": 3, "id": 3, "cluster_id": null, "column": null, "row": null }, "geometry": { "type": "Point", "coordinates": [ 120.976761863258716, 14.30552753136922 ] } },
{ "type": "Feature", "properties": { "fid": 4, "id": 4, "cluster_id": null, "column": null, "row": null }, "geometry": { "type": "Point", "coordinates": [ 120.976772140074829, 14.30552753136922 ] } },
{ "type": "Feature", "properties": { "fid": 5, "id": 5, "cluster_id": null, "column": null, "row": null }, "geometry": { "type": "Point", "coordinates": [ 120.976781335120819, 14.305528613139337 ] } },
{ "type": "Feature", "properties": { "fid": 6, "id": 6, "cluster_id": null, "column": null, "row": null }, "geometry": { "type": "Point", "coordinates": [ 120.976789718839214, 14.305529154024395 ] } },
{ "type": "Feature", "properties": { "fid": 7, "id": 7, "cluster_id": null, "column": null, "row": null }, "geometry": { "type": "Point", "coordinates": [ 120.976797291230028, 14.305529694909453 ] } },
{ "type": "Feature", "properties": { "fid": 8, "id": 8, "cluster_id": null, "column": null, "row": null }, "geometry": { "type": "Point", "coordinates": [ 120.976805674948437, 14.305530506237041 ] } },
{ "type": "Feature", "properties": { "fid": 9, "id": 9, "cluster_id": null, "column": null, "row": null }, "geometry": { "type": "Point", "coordinates": [ 120.976811624684075, 14.305532128892215 ] } },
{ "type": "Feature", "properties": { "fid": 10, "id": 10, "cluster_id": null, "column": null, "row": null }, "geometry": { "type": "Point", "coordinates": [ 120.976820008402484, 14.305532399334744 ] } },
{ "type": "Feature", "properties": { "fid": 11, "id": 11, "cluster_id": null, "column": null, "row": null }, "geometry": { "type": "Point", "coordinates": [ 120.976828933005933, 14.305533210662333 ] } },
{ "type": "Feature", "properties": { "fid": 12, "id": 12, "cluster_id": null, "column": null, "row": null }, "geometry": { "type": "Point", "coordinates": [ 120.976835423626639, 14.30553375154739 ] } },
{ "type": "Feature", "properties": { "fid": 13, "id": 13, "cluster_id": null, "column": null, "row": null }, "geometry": { "type": "Point", "coordinates": [ 120.976842996017453, 14.305534021989919 ] } },
{ "type": "Feature", "properties": { "fid": 14, "id": 14, "cluster_id": null, "column": null, "row": null }, "geometry": { "type": "Point", "coordinates": [ 120.976849757080686, 14.305534292432448 ] } },
{ "type": "Feature", "properties": { "fid": 15, "id": 15, "cluster_id": null, "column": null, "row": null }, "geometry": { "type": "Point", "coordinates": [ 120.9768573294715, 14.305535644645094 ] } },
{ "type": "Feature", "properties": { "fid": 16, "id": 16, "cluster_id": null, "column": null, "row": null }, "geometry": { "type": "Point", "coordinates": [ 120.976864631419787, 14.305535915087622 ] } },
{ "type": "Feature", "properties": { "fid": 17, "id": 17, "cluster_id": null, "column": null, "row": null }, "geometry": { "type": "Point", "coordinates": [ 120.976874637793358, 14.305537537742797 ] } },
{ "type": "Feature", "properties": { "fid": 18, "id": 18, "cluster_id": null, "column": null, "row": null }, "geometry": { "type": "Point", "coordinates": [ 120.97688464416693, 14.305538349070385 ] } },
{ "type": "Feature", "properties": { "fid": 19, "id": 19, "cluster_id": null, "column": null, "row": null }, "geometry": { "type": "Point", "coordinates": [ 120.976892757442812, 14.305539701283029 ] } },
{ "type": "Feature", "properties": { "fid": 20, "id": 20, "cluster_id": null, "column": null, "row": null }, "geometry": { "type": "Point", "coordinates": [ 120.97690303425891, 14.305541864823264 ] } },
{ "type": "Feature", "properties": { "fid": 21, "id": 21, "cluster_id": null, "column": null, "row": null }, "geometry": { "type": "Point", "coordinates": [ 120.97691141797732, 14.305541053495675 ] } },
{ "type": "Feature", "properties": { "fid": 22, "id": 22, "cluster_id": null, "column": null, "row": null }, "geometry": { "type": "Point", "coordinates": [ 120.976922235678472, 14.305542405708321 ] } },
{ "type": "Feature", "properties": { "fid": 23, "id": 23, "cluster_id": null, "column": null, "row": null }, "geometry": { "type": "Point", "coordinates": [ 120.976931971609531, 14.305543487478438 ] } },
{ "type": "Feature", "properties": { "fid": 24, "id": 24, "cluster_id": null, "column": null, "row": null }, "geometry": { "type": "Point", "coordinates": [ 120.976944141523333, 14.305544569248553 ] } },
{ "type": "Feature", "properties": { "fid": 25, "id": 25, "cluster_id": null, "column": null, "row": null }, "geometry": { "type": "Point", "coordinates": [ 120.976953877454392, 14.305545380576142 ] } },
{ "type": "Feature", "properties": { "fid": 26, "id": 26, "cluster_id": null, "column": null, "row": null }, "geometry": { "type": "Point", "coordinates": [ 120.976963072500368, 14.305545921461199 ] } },
{ "type": "Feature", "properties": { "fid": 27, "id": 27, "cluster_id": null, "column": null, "row": null }, "geometry": { "type": "Point", "coordinates": [ 120.976972267546358, 14.305547544116374 ] } },
{ "type": "Feature", "properties": { "fid": 28, "id": 28, "cluster_id": null, "column": null, "row": null }, "geometry": { "type": "Point", "coordinates": [ 120.976983085247525, 14.305547814558903 ] } },
{ "type": "Feature", "properties": { "fid": 29, "id": 29, "cluster_id": null, "column": null, "row": null }, "geometry": { "type": "Point", "coordinates": [ 120.976993091621111, 14.305549707656608 ] } },
{ "type": "Feature", "properties": { "fid": 30, "id": 30, "cluster_id": null, "column": null, "row": null }, "geometry": { "type": "Point", "coordinates": [ 120.977004991092386, 14.305549978099137 ] } },
{ "type": "Feature", "properties": { "fid": 31, "id": 31, "cluster_id": null, "column": null, "row": null }, "geometry": { "type": "Point", "coordinates": [ 120.977014186138376, 14.305550518984194 ] } },
{ "type": "Feature", "properties": { "fid": 32, "id": 32, "cluster_id": null, "column": null, "row": null }, "geometry": { "type": "Point", "coordinates": [ 120.977023922069421, 14.305551600754312 ] } },
{ "type": "Feature", "properties": { "fid": 33, "id": 33, "cluster_id": null, "column": null, "row": null }, "geometry": { "type": "Point", "coordinates": [ 120.97703582154071, 14.305551330311783 ] } },
{ "type": "Feature", "properties": { "fid": 34, "id": 34, "cluster_id": null, "column": null, "row": null }, "geometry": { "type": "Point", "coordinates": [ 120.977044746144159, 14.305552682524427 ] } },
{ "type": "Feature", "properties": { "fid": 35, "id": 35, "cluster_id": null, "column": null, "row": null }, "geometry": { "type": "Point", "coordinates": [ 120.977056916057975, 14.305552141639369 ] } }
]
}
