{
"type": "FeatureCollection",
"name": "cltr-id-156-c-row",
"crs": { "type": "name", "properties": { "name": "urn:ogc:def:crs:OGC:1.3:CRS84" } },
"features": [
{ "type": "Feature", "properties": { "fid": 1, "id": 1, "cluster_id": "156", "column": null, "rows": "C" }, "geometry": { "type": "Point", "coordinates": [ 120.976406107403861, 14.305566988164241 ] } },
{ "type": "Feature", "properties": { "fid": 2, "id": 2, "cluster_id": "156", "column": null, "rows": "C" }, "geometry": { "type": "Point", "coordinates": [ 120.976415858809972, 14.305567836112598 ] } },
{ "type": "Feature", "properties": { "fid": 3, "id": 3, "cluster_id": "156", "column": null, "rows": "C" }, "geometry": { "type": "Point", "coordinates": [ 120.976425610216083, 14.305568260086776 ] } },
{ "type": "Feature", "properties": { "fid": 4, "id": 4, "cluster_id": "156", "column": null, "rows": "C" }, "geometry": { "type": "Point", "coordinates": [ 120.976434937648008, 14.305569108035133 ] } },
{ "type": "Feature", "properties": { "fid": 5, "id": 5, "cluster_id": "156", "column": null, "rows": "C" }, "geometry": { "type": "Point", "coordinates": [ 120.976443417131577, 14.305569320022222 ] } },
{ "type": "Feature", "properties": { "fid": 6, "id": 6, "cluster_id": "156", "column": null, "rows": "C" }, "geometry": { "type": "Point", "coordinates": [ 120.976452108602246, 14.305570379957668 ] } },
{ "type": "Feature", "properties": { "fid": 7, "id": 7, "cluster_id": "156", "column": null, "rows": "C" }, "geometry": { "type": "Point", "coordinates": [ 120.976461224047071, 14.305571227906025 ] } },
{ "type": "Feature", "properties": { "fid": 8, "id": 8, "cluster_id": "156", "column": null, "rows": "C" }, "geometry": { "type": "Point", "coordinates": [ 120.976469703530654, 14.305572287841473 ] } },
{ "type": "Feature", "properties": { "fid": 9, "id": 9, "cluster_id": "156", "column": null, "rows": "C" }, "geometry": { "type": "Point", "coordinates": [ 120.976478183014223, 14.305572499828562 ] } },
{ "type": "Feature", "properties": { "fid": 10, "id": 10, "cluster_id": "156", "column": null, "rows": "C" }, "geometry": { "type": "Point", "coordinates": [ 120.976487298459062, 14.305572711815651 ] } },
{ "type": "Feature", "properties": { "fid": 11, "id": 11, "cluster_id": "156", "column": null, "rows": "C" }, "geometry": { "type": "Point", "coordinates": [ 120.976495777942631, 14.305574195725276 ] } },
{ "type": "Feature", "properties": { "fid": 12, "id": 12, "cluster_id": "156", "column": null, "rows": "C" }, "geometry": { "type": "Point", "coordinates": [ 120.976502985503672, 14.305574195725276 ] } },
{ "type": "Feature", "properties": { "fid": 13, "id": 13, "cluster_id": "156", "column": null, "rows": "C" }, "geometry": { "type": "Point", "coordinates": [ 120.97651146498724, 14.305574831686544 ] } },
{ "type": "Feature", "properties": { "fid": 14, "id": 14, "cluster_id": "156", "column": null, "rows": "C" }, "geometry": { "type": "Point", "coordinates": [ 120.976518460561181, 14.305571651880205 ] } },
{ "type": "Feature", "properties": { "fid": 15, "id": 15, "cluster_id": "156", "column": null, "rows": "C" }, "geometry": { "type": "Point", "coordinates": [ 120.976519096522452, 14.305563596370812 ] } }
]
}
