{
    "type": "FeatureCollection",
    "name": "cltr-id-149-c-row",
    "crs": {
        "type": "name",
        "properties": { "name": "urn:ogc:def:crs:OGC:1.3:CRS84" }
    },
    "features": [
        {
            "type": "Feature",
            "properties": {
                "fid": 1,
                "id": 1,
                "cluster_id": "149",
                "column": null,
                "row": "C"
            },
            "geometry": {
                "type": "Point",
                "coordinates": [120.976044367216531, 14.305509203926599]
            }
        },
        {
            "type": "Feature",
            "properties": {
                "fid": 2,
                "id": 2,
                "cluster_id": "149",
                "column": null,
                "row": "C"
            },
            "geometry": {
                "type": "Point",
                "coordinates": [120.976043619326077, 14.305500977131638]
            }
        },
        {
            "type": "Feature",
            "properties": {
                "fid": 3,
                "id": 3,
                "cluster_id": "149",
                "column": null,
                "row": "C"
            },
            "geometry": {
                "type": "Point",
                "coordinates": [120.976055959518519, 14.305497611624608]
            }
        },
        {
            "type": "Feature",
            "properties": {
                "fid": 4,
                "id": 4,
                "cluster_id": "149",
                "column": null,
                "row": "C"
            },
            "geometry": {
                "type": "Point",
                "coordinates": [120.976067925765733, 14.305498733460285]
            }
        },
        {
            "type": "Feature",
            "properties": {
                "fid": 5,
                "id": 5,
                "cluster_id": "149",
                "column": null,
                "row": "C"
            },
            "geometry": {
                "type": "Point",
                "coordinates": [120.976081013848628, 14.305499855295961]
            }
        },
        {
            "type": "Feature",
            "properties": {
                "fid": 6,
                "id": 6,
                "cluster_id": "149",
                "column": null,
                "row": "C"
            },
            "geometry": {
                "type": "Point",
                "coordinates": [120.976094475876749, 14.305501351076863]
            }
        },
        {
            "type": "Feature",
            "properties": {
                "fid": 7,
                "id": 7,
                "cluster_id": "149",
                "column": null,
                "row": "C"
            },
            "geometry": {
                "type": "Point",
                "coordinates": [120.97610457239783, 14.305500977131638]
            }
        },
        {
            "type": "Feature",
            "properties": {
                "fid": 8,
                "id": 8,
                "cluster_id": "149",
                "column": null,
                "row": "C"
            },
            "geometry": {
                "type": "Point",
                "coordinates": [120.976114668918925, 14.30550247291254]
            }
        },
        {
            "type": "Feature",
            "properties": {
                "fid": 9,
                "id": 9,
                "cluster_id": "149",
                "column": null,
                "row": "C"
            },
            "geometry": {
                "type": "Point",
                "coordinates": [120.976123269659112, 14.305504716583892]
            }
        },
        {
            "type": "Feature",
            "properties": {
                "fid": 10,
                "id": 10,
                "cluster_id": "149",
                "column": null,
                "row": "C"
            },
            "geometry": {
                "type": "Point",
                "coordinates": [120.976134114070646, 14.305503594748217]
            }
        },
        {
            "type": "Feature",
            "properties": {
                "fid": 11,
                "id": 11,
                "cluster_id": "149",
                "column": null,
                "row": "C"
            },
            "geometry": {
                "type": "Point",
                "coordinates": [120.976144210591741, 14.305504716583892]
            }
        },
        {
            "type": "Feature",
            "properties": {
                "fid": 12,
                "id": 12,
                "cluster_id": "149",
                "column": null,
                "row": "C"
            },
            "geometry": {
                "type": "Point",
                "coordinates": [120.976153933167595, 14.305505090529119]
            }
        },
        {
            "type": "Feature",
            "properties": {
                "fid": 13,
                "id": 13,
                "cluster_id": "149",
                "column": null,
                "row": "C"
            },
            "geometry": {
                "type": "Point",
                "coordinates": [120.97616402968869, 14.30550733420047]
            }
        },
        {
            "type": "Feature",
            "properties": {
                "fid": 14,
                "id": 14,
                "cluster_id": "149",
                "column": null,
                "row": "C"
            },
            "geometry": {
                "type": "Point",
                "coordinates": [120.976173752264543, 14.30550658631002]
            }
        },
        {
            "type": "Feature",
            "properties": {
                "fid": 15,
                "id": 15,
                "cluster_id": "149",
                "column": null,
                "row": "C"
            },
            "geometry": {
                "type": "Point",
                "coordinates": [120.976182726949958, 14.305507708145697]
            }
        },
        {
            "type": "Feature",
            "properties": {
                "fid": 16,
                "id": 16,
                "cluster_id": "149",
                "column": null,
                "row": "C"
            },
            "geometry": {
                "type": "Point",
                "coordinates": [120.976192449525826, 14.305508082090922]
            }
        },
        {
            "type": "Feature",
            "properties": {
                "fid": 17,
                "id": 17,
                "cluster_id": "149",
                "column": null,
                "row": "C"
            },
            "geometry": {
                "type": "Point",
                "coordinates": [120.97620142421124, 14.305508456036147]
            }
        },
        {
            "type": "Feature",
            "properties": {
                "fid": 18,
                "id": 18,
                "cluster_id": "149",
                "column": null,
                "row": "C"
            },
            "geometry": {
                "type": "Point",
                "coordinates": [120.976210772841867, 14.305509577871824]
            }
        },
        {
            "type": "Feature",
            "properties": {
                "fid": 19,
                "id": 19,
                "cluster_id": "149",
                "column": null,
                "row": "C"
            },
            "geometry": {
                "type": "Point",
                "coordinates": [120.976220869362962, 14.305510699707501]
            }
        },
        {
            "type": "Feature",
            "properties": {
                "fid": 20,
                "id": 20,
                "cluster_id": "149",
                "column": null,
                "row": "C"
            },
            "geometry": {
                "type": "Point",
                "coordinates": [120.976229470103149, 14.305511073652726]
            }
        },
        {
            "type": "Feature",
            "properties": {
                "fid": 21,
                "id": 21,
                "cluster_id": "149",
                "column": null,
                "row": "C"
            },
            "geometry": {
                "type": "Point",
                "coordinates": [120.976239192679003, 14.305512195488403]
            }
        },
        {
            "type": "Feature",
            "properties": {
                "fid": 22,
                "id": 22,
                "cluster_id": "149",
                "column": null,
                "row": "C"
            },
            "geometry": {
                "type": "Point",
                "coordinates": [120.976247793419191, 14.305512569433628]
            }
        },
        {
            "type": "Feature",
            "properties": {
                "fid": 23,
                "id": 23,
                "cluster_id": "149",
                "column": null,
                "row": "C"
            },
            "geometry": {
                "type": "Point",
                "coordinates": [120.976256394159378, 14.305513317324078]
            }
        },
        {
            "type": "Feature",
            "properties": {
                "fid": 24,
                "id": 24,
                "cluster_id": "149",
                "column": null,
                "row": "C"
            },
            "geometry": {
                "type": "Point",
                "coordinates": [120.976265368844793, 14.305514439159754]
            }
        },
        {
            "type": "Feature",
            "properties": {
                "fid": 25,
                "id": 25,
                "cluster_id": "149",
                "column": null,
                "row": "C"
            },
            "geometry": {
                "type": "Point",
                "coordinates": [120.97627172591362, 14.305514065214529]
            }
        },
        {
            "type": "Feature",
            "properties": {
                "fid": 26,
                "id": 26,
                "cluster_id": "149",
                "column": null,
                "row": "C"
            },
            "geometry": {
                "type": "Point",
                "coordinates": [120.97627995270858, 14.305514439159754]
            }
        },
        {
            "type": "Feature",
            "properties": {
                "fid": 27,
                "id": 27,
                "cluster_id": "149",
                "column": null,
                "row": "C"
            },
            "geometry": {
                "type": "Point",
                "coordinates": [120.976287431613088, 14.305514813104981]
            }
        },
        {
            "type": "Feature",
            "properties": {
                "fid": 28,
                "id": 28,
                "cluster_id": "149",
                "column": null,
                "row": "C"
            },
            "geometry": {
                "type": "Point",
                "coordinates": [120.976295658408048, 14.305516308885883]
            }
        },
        {
            "type": "Feature",
            "properties": {
                "fid": 29,
                "id": 29,
                "cluster_id": "149",
                "column": null,
                "row": "C"
            },
            "geometry": {
                "type": "Point",
                "coordinates": [120.976303511257782, 14.305517056776333]
            }
        },
        {
            "type": "Feature",
            "properties": {
                "fid": 30,
                "id": 30,
                "cluster_id": "149",
                "column": null,
                "row": "C"
            },
            "geometry": {
                "type": "Point",
                "coordinates": [120.976310990162304, 14.305517430721558]
            }
        },
        {
            "type": "Feature",
            "properties": {
                "fid": 31,
                "id": 31,
                "cluster_id": "149",
                "column": null,
                "row": "C"
            },
            "geometry": {
                "type": "Point",
                "coordinates": [120.976318095121584, 14.305517056776333]
            }
        },
        {
            "type": "Feature",
            "properties": {
                "fid": 32,
                "id": 32,
                "cluster_id": "149",
                "column": null,
                "row": "C"
            },
            "geometry": {
                "type": "Point",
                "coordinates": [120.976325574026092, 14.30551817861201]
            }
        },
        {
            "type": "Feature",
            "properties": {
                "fid": 33,
                "id": 33,
                "cluster_id": "149",
                "column": null,
                "row": "C"
            },
            "geometry": {
                "type": "Point",
                "coordinates": [120.976332678985372, 14.305519674392912]
            }
        },
        {
            "type": "Feature",
            "properties": {
                "fid": 34,
                "id": 34,
                "cluster_id": "149",
                "column": null,
                "row": "C"
            },
            "geometry": {
                "type": "Point",
                "coordinates": [120.976339783944653, 14.305519300447687]
            }
        },
        {
            "type": "Feature",
            "properties": {
                "fid": 35,
                "id": 35,
                "cluster_id": "149",
                "column": null,
                "row": "C"
            },
            "geometry": {
                "type": "Point",
                "coordinates": [120.97634651495872, 14.305520422283362]
            }
        },
        {
            "type": "Feature",
            "properties": {
                "fid": 36,
                "id": 36,
                "cluster_id": "149",
                "column": null,
                "row": "C"
            },
            "geometry": {
                "type": "Point",
                "coordinates": [120.976354741753681, 14.305521170173813]
            }
        }
    ]
}
