{
    "type": "FeatureCollection",
    "name": "cltr-id-216-b-row",
    "crs": {
        "type": "name",
        "properties": { "name": "urn:ogc:def:crs:OGC:1.3:CRS84" }
    },
    "features": [
        {
            "type": "Feature",
            "properties": {
                "fid": 1,
                "id": 1,
                "cluster_id": "216",
                "column": null,
                "row": "B"
            },
            "geometry": {
                "type": "Point",
                "coordinates": [120.976702906787366, 14.305916157283596]
            }
        },
        {
            "type": "Feature",
            "properties": {
                "fid": 2,
                "id": 2,
                "cluster_id": "216",
                "column": null,
                "row": "B"
            },
            "geometry": {
                "type": "Point",
                "coordinates": [120.976714671037385, 14.305917779938772]
            }
        },
        {
            "type": "Feature",
            "properties": {
                "fid": 3,
                "id": 3,
                "cluster_id": "216",
                "column": null,
                "row": "B"
            },
            "geometry": {
                "type": "Point",
                "coordinates": [120.976724812632227, 14.305917374274978]
            }
        },
        {
            "type": "Feature",
            "properties": {
                "fid": 4,
                "id": 4,
                "cluster_id": "216",
                "column": null,
                "row": "B"
            },
            "geometry": {
                "type": "Point",
                "coordinates": [120.976734548563272, 14.305918996930153]
            }
        },
        {
            "type": "Feature",
            "properties": {
                "fid": 5,
                "id": 5,
                "cluster_id": "216",
                "column": null,
                "row": "B"
            },
            "geometry": {
                "type": "Point",
                "coordinates": [120.97674631281329, 14.305920213921533]
            }
        },
        {
            "type": "Feature",
            "properties": {
                "fid": 6,
                "id": 6,
                "cluster_id": "216",
                "column": null,
                "row": "B"
            },
            "geometry": {
                "type": "Point",
                "coordinates": [120.976753614761577, 14.305921836576708]
            }
        },
        {
            "type": "Feature",
            "properties": {
                "fid": 7,
                "id": 7,
                "cluster_id": "216",
                "column": null,
                "row": "B"
            },
            "geometry": {
                "type": "Point",
                "coordinates": [120.976765784675393, 14.30592305356809]
            }
        },
        {
            "type": "Feature",
            "properties": {
                "fid": 8,
                "id": 8,
                "cluster_id": "216",
                "column": null,
                "row": "B"
            },
            "geometry": {
                "type": "Point",
                "coordinates": [120.976772680959883, 14.305923864895677]
            }
        },
        {
            "type": "Feature",
            "properties": {
                "fid": 9,
                "id": 9,
                "cluster_id": "216",
                "column": null,
                "row": "B"
            },
            "geometry": {
                "type": "Point",
                "coordinates": [120.976783228218522, 14.305925893214646]
            }
        },
        {
            "type": "Feature",
            "properties": {
                "fid": 10,
                "id": 10,
                "cluster_id": "216",
                "column": null,
                "row": "B"
            },
            "geometry": {
                "type": "Point",
                "coordinates": [120.976791341494405, 14.305925487550853]
            }
        },
        {
            "type": "Feature",
            "properties": {
                "fid": 11,
                "id": 11,
                "cluster_id": "216",
                "column": null,
                "row": "B"
            },
            "geometry": {
                "type": "Point",
                "coordinates": [120.976799454770273, 14.30592751586982]
            }
        },
        {
            "type": "Feature",
            "properties": {
                "fid": 12,
                "id": 12,
                "cluster_id": "216",
                "column": null,
                "row": "B"
            },
            "geometry": {
                "type": "Point",
                "coordinates": [120.976809190701331, 14.305927921533614]
            }
        },
        {
            "type": "Feature",
            "properties": {
                "fid": 13,
                "id": 13,
                "cluster_id": "216",
                "column": null,
                "row": "B"
            },
            "geometry": {
                "type": "Point",
                "coordinates": [120.976818115304781, 14.305928732861203]
            }
        },
        {
            "type": "Feature",
            "properties": {
                "fid": 14,
                "id": 14,
                "cluster_id": "216",
                "column": null,
                "row": "B"
            },
            "geometry": {
                "type": "Point",
                "coordinates": [120.97682663424446, 14.305929544188789]
            }
        },
        {
            "type": "Feature",
            "properties": {
                "fid": 15,
                "id": 15,
                "cluster_id": "216",
                "column": null,
                "row": "B"
            },
            "geometry": {
                "type": "Point",
                "coordinates": [120.976835558847924, 14.305929544188789]
            }
        },
        {
            "type": "Feature",
            "properties": {
                "fid": 16,
                "id": 16,
                "cluster_id": "216",
                "column": null,
                "row": "B"
            },
            "geometry": {
                "type": "Point",
                "coordinates": [120.976844889115171, 14.305930761180171]
            }
        },
        {
            "type": "Feature",
            "properties": {
                "fid": 17,
                "id": 17,
                "cluster_id": "216",
                "column": null,
                "row": "B"
            },
            "geometry": {
                "type": "Point",
                "coordinates": [120.976855030710013, 14.30593278949914]
            }
        },
        {
            "type": "Feature",
            "properties": {
                "fid": 18,
                "id": 18,
                "cluster_id": "216",
                "column": null,
                "row": "B"
            },
            "geometry": {
                "type": "Point",
                "coordinates": [120.976863955313476, 14.305932383835346]
            }
        },
        {
            "type": "Feature",
            "properties": {
                "fid": 19,
                "id": 19,
                "cluster_id": "216",
                "column": null,
                "row": "B"
            },
            "geometry": {
                "type": "Point",
                "coordinates": [120.976870445934182, 14.305933195162934]
            }
        },
        {
            "type": "Feature",
            "properties": {
                "fid": 20,
                "id": 20,
                "cluster_id": "216",
                "column": null,
                "row": "B"
            },
            "geometry": {
                "type": "Point",
                "coordinates": [120.97687855921005, 14.305934006490521]
            }
        },
        {
            "type": "Feature",
            "properties": {
                "fid": 21,
                "id": 21,
                "cluster_id": "216",
                "column": null,
                "row": "B"
            },
            "geometry": {
                "type": "Point",
                "coordinates": [120.976885861158337, 14.305934006490521]
            }
        },
        {
            "type": "Feature",
            "properties": {
                "fid": 22,
                "id": 22,
                "cluster_id": "216",
                "column": null,
                "row": "B"
            },
            "geometry": {
                "type": "Point",
                "coordinates": [120.976893568770421, 14.305935223481901]
            }
        },
        {
            "type": "Feature",
            "properties": {
                "fid": 23,
                "id": 23,
                "cluster_id": "216",
                "column": null,
                "row": "B"
            },
            "geometry": {
                "type": "Point",
                "coordinates": [120.976901682046289, 14.305936034809489]
            }
        },
        {
            "type": "Feature",
            "properties": {
                "fid": 24,
                "id": 24,
                "cluster_id": "216",
                "column": null,
                "row": "B"
            },
            "geometry": {
                "type": "Point",
                "coordinates": [120.976910200985969, 14.305936440473284]
            }
        },
        {
            "type": "Feature",
            "properties": {
                "fid": 25,
                "id": 25,
                "cluster_id": "216",
                "column": null,
                "row": "B"
            },
            "geometry": {
                "type": "Point",
                "coordinates": [120.976918314261837, 14.30593725180087]
            }
        },
        {
            "type": "Feature",
            "properties": {
                "fid": 26,
                "id": 26,
                "cluster_id": "216",
                "column": null,
                "row": "B"
            },
            "geometry": {
                "type": "Point",
                "coordinates": [120.976925616210124, 14.30593725180087]
            }
        },
        {
            "type": "Feature",
            "properties": {
                "fid": 27,
                "id": 27,
                "cluster_id": "216",
                "column": null,
                "row": "B"
            },
            "geometry": {
                "type": "Point",
                "coordinates": [120.976933729486007, 14.305938063128458]
            }
        },
        {
            "type": "Feature",
            "properties": {
                "fid": 28,
                "id": 28,
                "cluster_id": "216",
                "column": null,
                "row": "B"
            },
            "geometry": {
                "type": "Point",
                "coordinates": [120.976943059753253, 14.305939685783633]
            }
        },
        {
            "type": "Feature",
            "properties": {
                "fid": 29,
                "id": 29,
                "cluster_id": "216",
                "column": null,
                "row": "B"
            },
            "geometry": {
                "type": "Point",
                "coordinates": [120.976949144710161, 14.305939685783633]
            }
        },
        {
            "type": "Feature",
            "properties": {
                "fid": 30,
                "id": 30,
                "cluster_id": "216",
                "column": null,
                "row": "B"
            },
            "geometry": {
                "type": "Point",
                "coordinates": [120.976962125951559, 14.305940497111221]
            }
        },
        {
            "type": "Feature",
            "properties": {
                "fid": 31,
                "id": 31,
                "cluster_id": "216",
                "column": null,
                "row": "B"
            },
            "geometry": {
                "type": "Point",
                "coordinates": [120.976969833563658, 14.305941714102602]
            }
        },
        {
            "type": "Feature",
            "properties": {
                "fid": 32,
                "id": 32,
                "cluster_id": "216",
                "column": null,
                "row": "B"
            },
            "geometry": {
                "type": "Point",
                "coordinates": [120.976978352503309, 14.305941714102602]
            }
        },
        {
            "type": "Feature",
            "properties": {
                "fid": 33,
                "id": 33,
                "cluster_id": "216",
                "column": null,
                "row": "B"
            },
            "geometry": {
                "type": "Point",
                "coordinates": [120.976991333744706, 14.305942525430192]
            }
        },
        {
            "type": "Feature",
            "properties": {
                "fid": 34,
                "id": 34,
                "cluster_id": "216",
                "column": null,
                "row": "B"
            },
            "geometry": {
                "type": "Point",
                "coordinates": [120.977001069675765, 14.305944148085365]
            }
        },
        {
            "type": "Feature",
            "properties": {
                "fid": 35,
                "id": 35,
                "cluster_id": "216",
                "column": null,
                "row": "B"
            },
            "geometry": {
                "type": "Point",
                "coordinates": [120.977010805606824, 14.305944553749159]
            }
        }
    ]
}
