{
"type": "FeatureCollection",
"name": "cltr-id-215-a-row",
"crs": { "type": "name", "properties": { "name": "urn:ogc:def:crs:OGC:1.3:CRS84" } },
"features": [
{ "type": "Feature", "properties": { "fid": 1, "id": 1, "cluster_id": "215", "column": null, "row": "A" }, "geometry": { "type": "Point", "coordinates": [ 120.9767122370545, 14.3057511873408 ] } },
{ "type": "Feature", "properties": { "fid": 2, "id": 2, "cluster_id": "215", "column": null, "row": "A" }, "geometry": { "type": "Point", "coordinates": [ 120.976718186790137, 14.305752269110917 ] } },
{ "type": "Feature", "properties": { "fid": 3, "id": 3, "cluster_id": "215", "column": null, "row": "A" }, "geometry": { "type": "Point", "coordinates": [ 120.976723595640721, 14.305752269110917 ] } },
{ "type": "Feature", "properties": { "fid": 4, "id": 4, "cluster_id": "215", "column": null, "row": "A" }, "geometry": { "type": "Point", "coordinates": [ 120.976734413341887, 14.305753891766091 ] } },
{ "type": "Feature", "properties": { "fid": 5, "id": 5, "cluster_id": "215", "column": null, "row": "A" }, "geometry": { "type": "Point", "coordinates": [ 120.976740363077525, 14.305754432651149 ] } },
{ "type": "Feature", "properties": { "fid": 6, "id": 6, "cluster_id": "215", "column": null, "row": "A" }, "geometry": { "type": "Point", "coordinates": [ 120.976749017238461, 14.305754973536208 ] } },
{ "type": "Feature", "properties": { "fid": 7, "id": 7, "cluster_id": "215", "column": null, "row": "A" }, "geometry": { "type": "Point", "coordinates": [ 120.976758212284452, 14.305755514421266 ] } },
{ "type": "Feature", "properties": { "fid": 8, "id": 8, "cluster_id": "215", "column": null, "row": "A" }, "geometry": { "type": "Point", "coordinates": [ 120.976765243790211, 14.305756055306324 ] } },
{ "type": "Feature", "properties": { "fid": 9, "id": 9, "cluster_id": "215", "column": null, "row": "A" }, "geometry": { "type": "Point", "coordinates": [ 120.976770652640795, 14.305757137076441 ] } },
{ "type": "Feature", "properties": { "fid": 10, "id": 10, "cluster_id": "215", "column": null, "row": "A" }, "geometry": { "type": "Point", "coordinates": [ 120.976780388571839, 14.305757677961498 ] } },
{ "type": "Feature", "properties": { "fid": 11, "id": 11, "cluster_id": "215", "column": null, "row": "A" }, "geometry": { "type": "Point", "coordinates": [ 120.97678958361783, 14.305759300616673 ] } },
{ "type": "Feature", "properties": { "fid": 12, "id": 12, "cluster_id": "215", "column": null, "row": "A" }, "geometry": { "type": "Point", "coordinates": [ 120.976797696893698, 14.30576038238679 ] } },
{ "type": "Feature", "properties": { "fid": 13, "id": 13, "cluster_id": "215", "column": null, "row": "A" }, "geometry": { "type": "Point", "coordinates": [ 120.976805810169566, 14.30576038238679 ] } },
{ "type": "Feature", "properties": { "fid": 14, "id": 14, "cluster_id": "215", "column": null, "row": "A" }, "geometry": { "type": "Point", "coordinates": [ 120.976812841675326, 14.305760923271848 ] } },
{ "type": "Feature", "properties": { "fid": 15, "id": 15, "cluster_id": "215", "column": null, "row": "A" }, "geometry": { "type": "Point", "coordinates": [ 120.976821495836262, 14.305760923271848 ] } },
{ "type": "Feature", "properties": { "fid": 16, "id": 16, "cluster_id": "215", "column": null, "row": "A" }, "geometry": { "type": "Point", "coordinates": [ 120.976831231767306, 14.305762005041965 ] } },
{ "type": "Feature", "properties": { "fid": 17, "id": 17, "cluster_id": "215", "column": null, "row": "A" }, "geometry": { "type": "Point", "coordinates": [ 120.976840426813297, 14.305762005041965 ] } },
{ "type": "Feature", "properties": { "fid": 18, "id": 18, "cluster_id": "215", "column": null, "row": "A" }, "geometry": { "type": "Point", "coordinates": [ 120.976847999204111, 14.305762005041965 ] } },
{ "type": "Feature", "properties": { "fid": 19, "id": 19, "cluster_id": "215", "column": null, "row": "A" }, "geometry": { "type": "Point", "coordinates": [ 120.976857194250101, 14.305763627697139 ] } },
{ "type": "Feature", "properties": { "fid": 20, "id": 20, "cluster_id": "215", "column": null, "row": "A" }, "geometry": { "type": "Point", "coordinates": [ 120.976867471066214, 14.305764168582197 ] } },
{ "type": "Feature", "properties": { "fid": 21, "id": 21, "cluster_id": "215", "column": null, "row": "A" }, "geometry": { "type": "Point", "coordinates": [ 120.976875584342082, 14.305764709467255 ] } },
{ "type": "Feature", "properties": { "fid": 22, "id": 22, "cluster_id": "215", "column": null, "row": "A" }, "geometry": { "type": "Point", "coordinates": [ 120.976882074962774, 14.305765250352314 ] } },
{ "type": "Feature", "properties": { "fid": 23, "id": 23, "cluster_id": "215", "column": null, "row": "A" }, "geometry": { "type": "Point", "coordinates": [ 120.976890188238656, 14.305765791237372 ] } },
{ "type": "Feature", "properties": { "fid": 24, "id": 24, "cluster_id": "215", "column": null, "row": "A" }, "geometry": { "type": "Point", "coordinates": [ 120.9768999241697, 14.305765791237372 ] } },
{ "type": "Feature", "properties": { "fid": 25, "id": 25, "cluster_id": "215", "column": null, "row": "A" }, "geometry": { "type": "Point", "coordinates": [ 120.976910741870853, 14.305766873007489 ] } },
{ "type": "Feature", "properties": { "fid": 26, "id": 26, "cluster_id": "215", "column": null, "row": "A" }, "geometry": { "type": "Point", "coordinates": [ 120.976918855146749, 14.305767413892546 ] } },
{ "type": "Feature", "properties": { "fid": 27, "id": 27, "cluster_id": "215", "column": null, "row": "A" }, "geometry": { "type": "Point", "coordinates": [ 120.976926968422603, 14.305768495662663 ] } },
{ "type": "Feature", "properties": { "fid": 28, "id": 28, "cluster_id": "215", "column": null, "row": "A" }, "geometry": { "type": "Point", "coordinates": [ 120.976936704353648, 14.305769036547721 ] } },
{ "type": "Feature", "properties": { "fid": 29, "id": 29, "cluster_id": "215", "column": null, "row": "A" }, "geometry": { "type": "Point", "coordinates": [ 120.976949685595045, 14.305770118317838 ] } },
{ "type": "Feature", "properties": { "fid": 30, "id": 30, "cluster_id": "215", "column": null, "row": "A" }, "geometry": { "type": "Point", "coordinates": [ 120.976956176215751, 14.305770118317836 ] } },
{ "type": "Feature", "properties": { "fid": 31, "id": 31, "cluster_id": "215", "column": null, "row": "A" }, "geometry": { "type": "Point", "coordinates": [ 120.976970239227271, 14.305770118317838 ] } },
{ "type": "Feature", "properties": { "fid": 32, "id": 32, "cluster_id": "215", "column": null, "row": "A" }, "geometry": { "type": "Point", "coordinates": [ 120.976983761353722, 14.305771740973013 ] } },
{ "type": "Feature", "properties": { "fid": 33, "id": 33, "cluster_id": "215", "column": null, "row": "A" }, "geometry": { "type": "Point", "coordinates": [ 120.976992956399712, 14.305772822743128 ] } },
{ "type": "Feature", "properties": { "fid": 34, "id": 34, "cluster_id": "215", "column": null, "row": "A" }, "geometry": { "type": "Point", "coordinates": [ 120.977005396756041, 14.305774445398303 ] } },
{ "type": "Feature", "properties": { "fid": 35, "id": 35, "cluster_id": "215", "column": null, "row": "A" }, "geometry": { "type": "Point", "coordinates": [ 120.977020000652615, 14.305775527168418 ] } }
]
}
