{
"type": "FeatureCollection",
"name": "cltr-id-172-b-row",
"crs": { "type": "name", "properties": { "name": "urn:ogc:def:crs:OGC:1.3:CRS84" } },
"features": [
{ "type": "Feature", "properties": { "fid": 1, "id": 1, "cluster_id": "172", "column": null, "rows": "B" }, "geometry": { "type": "Point", "coordinates": [ 120.976397097952542, 14.305417961240474 ] } },
{ "type": "Feature", "properties": { "fid": 2, "id": 2, "cluster_id": "172", "column": null, "rows": "B" }, "geometry": { "type": "Point", "coordinates": [ 120.976407909294096, 14.305418385214653 ] } },
{ "type": "Feature", "properties": { "fid": 3, "id": 3, "cluster_id": "172", "column": null, "rows": "B" }, "geometry": { "type": "Point", "coordinates": [ 120.976419144609835, 14.30541902117592 ] } },
{ "type": "Feature", "properties": { "fid": 4, "id": 4, "cluster_id": "172", "column": null, "rows": "B" }, "geometry": { "type": "Point", "coordinates": [ 120.976428048067575, 14.305419657137188 ] } },
{ "type": "Feature", "properties": { "fid": 5, "id": 5, "cluster_id": "172", "column": null, "rows": "B" }, "geometry": { "type": "Point", "coordinates": [ 120.976437163512415, 14.305420505085545 ] } },
{ "type": "Feature", "properties": { "fid": 6, "id": 6, "cluster_id": "172", "column": null, "rows": "B" }, "geometry": { "type": "Point", "coordinates": [ 120.976445854983083, 14.305420717072634 ] } },
{ "type": "Feature", "properties": { "fid": 7, "id": 7, "cluster_id": "172", "column": null, "rows": "B" }, "geometry": { "type": "Point", "coordinates": [ 120.97645327453121, 14.305421353033902 ] } },
{ "type": "Feature", "properties": { "fid": 8, "id": 8, "cluster_id": "172", "column": null, "rows": "B" }, "geometry": { "type": "Point", "coordinates": [ 120.97646217798895, 14.305421988995169 ] } },
{ "type": "Feature", "properties": { "fid": 9, "id": 9, "cluster_id": "172", "column": null, "rows": "B" }, "geometry": { "type": "Point", "coordinates": [ 120.976471081446704, 14.305422200982258 ] } },
{ "type": "Feature", "properties": { "fid": 10, "id": 10, "cluster_id": "172", "column": null, "rows": "B" }, "geometry": { "type": "Point", "coordinates": [ 120.976479984904458, 14.305422836943526 ] } },
{ "type": "Feature", "properties": { "fid": 11, "id": 11, "cluster_id": "172", "column": null, "rows": "B" }, "geometry": { "type": "Point", "coordinates": [ 120.976487828426755, 14.305423472904796 ] } },
{ "type": "Feature", "properties": { "fid": 12, "id": 12, "cluster_id": "172", "column": null, "rows": "B" }, "geometry": { "type": "Point", "coordinates": [ 120.976495459961967, 14.305424108866063 ] } },
{ "type": "Feature", "properties": { "fid": 13, "id": 13, "cluster_id": "172", "column": null, "rows": "B" }, "geometry": { "type": "Point", "coordinates": [ 120.976502667523008, 14.305424532840242 ] } }
]
}
