{
"type": "FeatureCollection",
"name": "cltr-id-177-a-row",
"crs": { "type": "name", "properties": { "name": "urn:ogc:def:crs:OGC:1.3:CRS84" } },
"features": [
{ "type": "Feature", "properties": { "fid": 1, "id": 1, "cluster_id": "177", "column": null, "row": "A" }, "geometry": { "type": "Point", "coordinates": [ 120.976385438662646, 14.305595182447112 ] } },
{ "type": "Feature", "properties": { "fid": 2, "id": 2, "cluster_id": "177", "column": null, "row": "A" }, "geometry": { "type": "Point", "coordinates": [ 120.976398157887999, 14.305596030395469 ] } },
{ "type": "Feature", "properties": { "fid": 3, "id": 3, "cluster_id": "177", "column": null, "row": "A" }, "geometry": { "type": "Point", "coordinates": [ 120.976409605190824, 14.305596454369647 ] } },
{ "type": "Feature", "properties": { "fid": 4, "id": 4, "cluster_id": "177", "column": null, "row": "A" }, "geometry": { "type": "Point", "coordinates": [ 120.976417448713121, 14.305597090330917 ] } },
{ "type": "Feature", "properties": { "fid": 5, "id": 5, "cluster_id": "177", "column": null, "row": "A" }, "geometry": { "type": "Point", "coordinates": [ 120.976425292235419, 14.305597726292184 ] } },
{ "type": "Feature", "properties": { "fid": 6, "id": 6, "cluster_id": "177", "column": null, "row": "A" }, "geometry": { "type": "Point", "coordinates": [ 120.976433347744816, 14.305598150266363 ] } },
{ "type": "Feature", "properties": { "fid": 7, "id": 7, "cluster_id": "177", "column": null, "row": "A" }, "geometry": { "type": "Point", "coordinates": [ 120.976441615241299, 14.305599846163076 ] } },
{ "type": "Feature", "properties": { "fid": 8, "id": 8, "cluster_id": "177", "column": null, "row": "A" }, "geometry": { "type": "Point", "coordinates": [ 120.976450094724868, 14.305600058150166 ] } },
{ "type": "Feature", "properties": { "fid": 9, "id": 9, "cluster_id": "177", "column": null, "row": "A" }, "geometry": { "type": "Point", "coordinates": [ 120.976457514272994, 14.305600906098523 ] } },
{ "type": "Feature", "properties": { "fid": 10, "id": 10, "cluster_id": "177", "column": null, "row": "A" }, "geometry": { "type": "Point", "coordinates": [ 120.976465993756563, 14.305601754046879 ] } },
{ "type": "Feature", "properties": { "fid": 11, "id": 11, "cluster_id": "177", "column": null, "row": "A" }, "geometry": { "type": "Point", "coordinates": [ 120.97647404926596, 14.305601966033969 ] } },
{ "type": "Feature", "properties": { "fid": 12, "id": 12, "cluster_id": "177", "column": null, "row": "A" }, "geometry": { "type": "Point", "coordinates": [ 120.976481256827, 14.305602178021058 ] } },
{ "type": "Feature", "properties": { "fid": 13, "id": 13, "cluster_id": "177", "column": null, "row": "A" }, "geometry": { "type": "Point", "coordinates": [ 120.976490796246011, 14.305602813982327 ] } }
]
}
