{
"type": "FeatureCollection",
"name": "cltr-id-217-b-row",
"crs": { "type": "name", "properties": { "name": "urn:ogc:def:crs:OGC:1.3:CRS84" } },
"features": [
{ "type": "Feature", "properties": { "fid": 1, "id": 1, "Cluster_ID": "217", "column": null, "row": "B" }, "geometry": { "type": "Point", "coordinates": [ 120.976704123778745, 14.305901147723228 ] } },
{ "type": "Feature", "properties": { "fid": 2, "id": 2, "Cluster_ID": "217", "column": null, "row": "B" }, "geometry": { "type": "Point", "coordinates": [ 120.976715888028764, 14.305902770378404 ] } },
{ "type": "Feature", "properties": { "fid": 3, "id": 3, "Cluster_ID": "217", "column": null, "row": "B" }, "geometry": { "type": "Point", "coordinates": [ 120.976726029623606, 14.30590236471461 ] } },
{ "type": "Feature", "properties": { "fid": 4, "id": 4, "Cluster_ID": "217", "column": null, "row": "B" }, "geometry": { "type": "Point", "coordinates": [ 120.97673576555465, 14.305903987369785 ] } },
{ "type": "Feature", "properties": { "fid": 5, "id": 5, "Cluster_ID": "217", "column": null, "row": "B" }, "geometry": { "type": "Point", "coordinates": [ 120.976747529804669, 14.305905204361165 ] } },
{ "type": "Feature", "properties": { "fid": 6, "id": 6, "Cluster_ID": "217", "column": null, "row": "B" }, "geometry": { "type": "Point", "coordinates": [ 120.976754831752956, 14.30590682701634 ] } },
{ "type": "Feature", "properties": { "fid": 7, "id": 7, "Cluster_ID": "217", "column": null, "row": "B" }, "geometry": { "type": "Point", "coordinates": [ 120.976767001666772, 14.305908044007722 ] } },
{ "type": "Feature", "properties": { "fid": 8, "id": 8, "Cluster_ID": "217", "column": null, "row": "B" }, "geometry": { "type": "Point", "coordinates": [ 120.976773897951261, 14.305908855335309 ] } },
{ "type": "Feature", "properties": { "fid": 9, "id": 9, "Cluster_ID": "217", "column": null, "row": "B" }, "geometry": { "type": "Point", "coordinates": [ 120.976784445209901, 14.305910883654278 ] } },
{ "type": "Feature", "properties": { "fid": 10, "id": 10, "Cluster_ID": "217", "column": null, "row": "B" }, "geometry": { "type": "Point", "coordinates": [ 120.976792558485784, 14.305910477990485 ] } },
{ "type": "Feature", "properties": { "fid": 11, "id": 11, "Cluster_ID": "217", "column": null, "row": "B" }, "geometry": { "type": "Point", "coordinates": [ 120.976800671761652, 14.305912506309452 ] } },
{ "type": "Feature", "properties": { "fid": 12, "id": 12, "Cluster_ID": "217", "column": null, "row": "B" }, "geometry": { "type": "Point", "coordinates": [ 120.97681040769271, 14.305912911973246 ] } },
{ "type": "Feature", "properties": { "fid": 13, "id": 13, "Cluster_ID": "217", "column": null, "row": "B" }, "geometry": { "type": "Point", "coordinates": [ 120.976819332296159, 14.305913723300835 ] } },
{ "type": "Feature", "properties": { "fid": 14, "id": 14, "Cluster_ID": "217", "column": null, "row": "B" }, "geometry": { "type": "Point", "coordinates": [ 120.976827851235839, 14.305914534628421 ] } },
{ "type": "Feature", "properties": { "fid": 15, "id": 15, "Cluster_ID": "217", "column": null, "row": "B" }, "geometry": { "type": "Point", "coordinates": [ 120.976836775839303, 14.305914534628421 ] } },
{ "type": "Feature", "properties": { "fid": 16, "id": 16, "Cluster_ID": "217", "column": null, "row": "B" }, "geometry": { "type": "Point", "coordinates": [ 120.976846106106549, 14.305915751619803 ] } },
{ "type": "Feature", "properties": { "fid": 17, "id": 17, "Cluster_ID": "217", "column": null, "row": "B" }, "geometry": { "type": "Point", "coordinates": [ 120.976856247701392, 14.305917779938772 ] } },
{ "type": "Feature", "properties": { "fid": 18, "id": 18, "Cluster_ID": "217", "column": null, "row": "B" }, "geometry": { "type": "Point", "coordinates": [ 120.976865172304855, 14.305917374274978 ] } },
{ "type": "Feature", "properties": { "fid": 19, "id": 19, "Cluster_ID": "217", "column": null, "row": "B" }, "geometry": { "type": "Point", "coordinates": [ 120.976871662925561, 14.305918185602566 ] } },
{ "type": "Feature", "properties": { "fid": 20, "id": 20, "Cluster_ID": "217", "column": null, "row": "B" }, "geometry": { "type": "Point", "coordinates": [ 120.976879776201429, 14.305918996930153 ] } },
{ "type": "Feature", "properties": { "fid": 21, "id": 21, "Cluster_ID": "217", "column": null, "row": "B" }, "geometry": { "type": "Point", "coordinates": [ 120.976887078149716, 14.305918996930153 ] } },
{ "type": "Feature", "properties": { "fid": 22, "id": 22, "Cluster_ID": "217", "column": null, "row": "B" }, "geometry": { "type": "Point", "coordinates": [ 120.9768947857618, 14.305920213921533 ] } },
{ "type": "Feature", "properties": { "fid": 23, "id": 23, "Cluster_ID": "217", "column": null, "row": "B" }, "geometry": { "type": "Point", "coordinates": [ 120.976902899037668, 14.305921025249122 ] } },
{ "type": "Feature", "properties": { "fid": 24, "id": 24, "Cluster_ID": "217", "column": null, "row": "B" }, "geometry": { "type": "Point", "coordinates": [ 120.976911417977348, 14.305921430912916 ] } },
{ "type": "Feature", "properties": { "fid": 25, "id": 25, "Cluster_ID": "217", "column": null, "row": "B" }, "geometry": { "type": "Point", "coordinates": [ 120.976919531253216, 14.305922242240502 ] } },
{ "type": "Feature", "properties": { "fid": 26, "id": 26, "Cluster_ID": "217", "column": null, "row": "B" }, "geometry": { "type": "Point", "coordinates": [ 120.976926833201503, 14.305922242240502 ] } },
{ "type": "Feature", "properties": { "fid": 27, "id": 27, "Cluster_ID": "217", "column": null, "row": "B" }, "geometry": { "type": "Point", "coordinates": [ 120.976934946477385, 14.30592305356809 ] } },
{ "type": "Feature", "properties": { "fid": 28, "id": 28, "Cluster_ID": "217", "column": null, "row": "B" }, "geometry": { "type": "Point", "coordinates": [ 120.976944276744632, 14.305924676223265 ] } },
{ "type": "Feature", "properties": { "fid": 29, "id": 29, "Cluster_ID": "217", "column": null, "row": "B" }, "geometry": { "type": "Point", "coordinates": [ 120.97695036170154, 14.305924676223265 ] } },
{ "type": "Feature", "properties": { "fid": 30, "id": 30, "Cluster_ID": "217", "column": null, "row": "B" }, "geometry": { "type": "Point", "coordinates": [ 120.976963342942938, 14.305925487550853 ] } },
{ "type": "Feature", "properties": { "fid": 31, "id": 31, "Cluster_ID": "217", "column": null, "row": "B" }, "geometry": { "type": "Point", "coordinates": [ 120.976971050555036, 14.305926704542234 ] } },
{ "type": "Feature", "properties": { "fid": 32, "id": 32, "Cluster_ID": "217", "column": null, "row": "B" }, "geometry": { "type": "Point", "coordinates": [ 120.976979569494688, 14.305926704542234 ] } },
{ "type": "Feature", "properties": { "fid": 33, "id": 33, "Cluster_ID": "217", "column": null, "row": "B" }, "geometry": { "type": "Point", "coordinates": [ 120.976992550736085, 14.305927515869824 ] } },
{ "type": "Feature", "properties": { "fid": 34, "id": 34, "Cluster_ID": "217", "column": null, "row": "B" }, "geometry": { "type": "Point", "coordinates": [ 120.977002286667144, 14.305929138524997 ] } },
{ "type": "Feature", "properties": { "fid": 35, "id": 35, "Cluster_ID": "217", "column": null, "row": "B" }, "geometry": { "type": "Point", "coordinates": [ 120.977012022598203, 14.305929544188791 ] } }
]
}
