{
"type": "FeatureCollection",
"name": "cltr-id-146-a-row",
"crs": { "type": "name", "properties": { "name": "urn:ogc:def:crs:OGC:1.3:CRS84" } },
"features": [
{ "type": "Feature", "properties": { "fid": 1, "id": 1, "cluster_id": "146", "column": null, "row": "A" }, "geometry": { "type": "Point", "coordinates": [ 120.976061835083712, 14.305408609121116 ] } },
{ "type": "Feature", "properties": { "fid": 2, "id": 2, "cluster_id": "146", "column": null, "row": "A" }, "geometry": { "type": "Point", "coordinates": [ 120.976070248851286, 14.305409730956791 ] } },
{ "type": "Feature", "properties": { "fid": 3, "id": 3, "cluster_id": "146", "column": null, "row": "A" }, "geometry": { "type": "Point", "coordinates": [ 120.97607810170102, 14.305409730956791 ] } },
{ "type": "Feature", "properties": { "fid": 4, "id": 4, "cluster_id": "146", "column": null, "row": "A" }, "geometry": { "type": "Point", "coordinates": [ 120.976086515468594, 14.30541029187463 ] } },
{ "type": "Feature", "properties": { "fid": 5, "id": 5, "cluster_id": "146", "column": null, "row": "A" }, "geometry": { "type": "Point", "coordinates": [ 120.976093807400488, 14.30541029187463 ] } },
{ "type": "Feature", "properties": { "fid": 6, "id": 6, "cluster_id": "146", "column": null, "row": "A" }, "geometry": { "type": "Point", "coordinates": [ 120.976101099332396, 14.30541029187463 ] } },
{ "type": "Feature", "properties": { "fid": 7, "id": 7, "cluster_id": "146", "column": null, "row": "A" }, "geometry": { "type": "Point", "coordinates": [ 120.97610839126429, 14.305412535545983 ] } },
{ "type": "Feature", "properties": { "fid": 8, "id": 8, "cluster_id": "146", "column": null, "row": "A" }, "geometry": { "type": "Point", "coordinates": [ 120.976116244114024, 14.305413096463822 ] } },
{ "type": "Feature", "properties": { "fid": 9, "id": 9, "cluster_id": "146", "column": null, "row": "A" }, "geometry": { "type": "Point", "coordinates": [ 120.976125218799439, 14.30541365738166 ] } },
{ "type": "Feature", "properties": { "fid": 10, "id": 10, "cluster_id": "146", "column": null, "row": "A" }, "geometry": { "type": "Point", "coordinates": [ 120.976132510731333, 14.305414218299498 ] } },
{ "type": "Feature", "properties": { "fid": 11, "id": 11, "cluster_id": "146", "column": null, "row": "A" }, "geometry": { "type": "Point", "coordinates": [ 120.976141485416747, 14.305417022888689 ] } },
{ "type": "Feature", "properties": { "fid": 12, "id": 12, "cluster_id": "146", "column": null, "row": "A" }, "geometry": { "type": "Point", "coordinates": [ 120.976148777348641, 14.305415901053012 ] } },
{ "type": "Feature", "properties": { "fid": 13, "id": 13, "cluster_id": "146", "column": null, "row": "A" }, "geometry": { "type": "Point", "coordinates": [ 120.976156630198375, 14.30541646197085 ] } },
{ "type": "Feature", "properties": { "fid": 14, "id": 14, "cluster_id": "146", "column": null, "row": "A" }, "geometry": { "type": "Point", "coordinates": [ 120.976167287637296, 14.305417022888689 ] } },
{ "type": "Feature", "properties": { "fid": 15, "id": 15, "cluster_id": "146", "column": null, "row": "A" }, "geometry": { "type": "Point", "coordinates": [ 120.97617514048703, 14.305418144724365 ] } },
{ "type": "Feature", "properties": { "fid": 16, "id": 16, "cluster_id": "146", "column": null, "row": "A" }, "geometry": { "type": "Point", "coordinates": [ 120.976186358843805, 14.305418144724365 ] } },
{ "type": "Feature", "properties": { "fid": 17, "id": 17, "cluster_id": "146", "column": null, "row": "A" }, "geometry": { "type": "Point", "coordinates": [ 120.976192528940018, 14.305418144724365 ] } },
{ "type": "Feature", "properties": { "fid": 18, "id": 18, "cluster_id": "146", "column": null, "row": "A" }, "geometry": { "type": "Point", "coordinates": [ 120.976200942707592, 14.305419827477879 ] } },
{ "type": "Feature", "properties": { "fid": 19, "id": 19, "cluster_id": "146", "column": null, "row": "A" }, "geometry": { "type": "Point", "coordinates": [ 120.976209356475167, 14.305420388395717 ] } },
{ "type": "Feature", "properties": { "fid": 20, "id": 20, "cluster_id": "146", "column": null, "row": "A" }, "geometry": { "type": "Point", "coordinates": [ 120.976217209324901, 14.305420388395717 ] } },
{ "type": "Feature", "properties": { "fid": 21, "id": 21, "cluster_id": "146", "column": null, "row": "A" }, "geometry": { "type": "Point", "coordinates": [ 120.976225062174635, 14.305421510231394 ] } },
{ "type": "Feature", "properties": { "fid": 22, "id": 22, "cluster_id": "146", "column": null, "row": "A" }, "geometry": { "type": "Point", "coordinates": [ 120.976233475942209, 14.305422632067071 ] } },
{ "type": "Feature", "properties": { "fid": 23, "id": 23, "cluster_id": "146", "column": null, "row": "A" }, "geometry": { "type": "Point", "coordinates": [ 120.976241889709783, 14.305422632067071 ] } },
{ "type": "Feature", "properties": { "fid": 24, "id": 24, "cluster_id": "146", "column": null, "row": "A" }, "geometry": { "type": "Point", "coordinates": [ 120.976249742559517, 14.305423753902748 ] } },
{ "type": "Feature", "properties": { "fid": 25, "id": 25, "cluster_id": "146", "column": null, "row": "A" }, "geometry": { "type": "Point", "coordinates": [ 120.976257595409251, 14.305423753902748 ] } },
{ "type": "Feature", "properties": { "fid": 26, "id": 26, "cluster_id": "146", "column": null, "row": "A" }, "geometry": { "type": "Point", "coordinates": [ 120.976264887341145, 14.305424314820586 ] } },
{ "type": "Feature", "properties": { "fid": 27, "id": 27, "cluster_id": "146", "column": null, "row": "A" }, "geometry": { "type": "Point", "coordinates": [ 120.9762744229444, 14.305423753902748 ] } },
{ "type": "Feature", "properties": { "fid": 28, "id": 28, "cluster_id": "146", "column": null, "row": "A" }, "geometry": { "type": "Point", "coordinates": [ 120.97628451946548, 14.305425997574099 ] } },
{ "type": "Feature", "properties": { "fid": 29, "id": 29, "cluster_id": "146", "column": null, "row": "A" }, "geometry": { "type": "Point", "coordinates": [ 120.976292372315214, 14.305425997574099 ] } },
{ "type": "Feature", "properties": { "fid": 30, "id": 30, "cluster_id": "146", "column": null, "row": "A" }, "geometry": { "type": "Point", "coordinates": [ 120.976301347000629, 14.305426558491938 ] } },
{ "type": "Feature", "properties": { "fid": 31, "id": 31, "cluster_id": "146", "column": null, "row": "A" }, "geometry": { "type": "Point", "coordinates": [ 120.976310882603869, 14.305427680327615 ] } },
{ "type": "Feature", "properties": { "fid": 32, "id": 32, "cluster_id": "146", "column": null, "row": "A" }, "geometry": { "type": "Point", "coordinates": [ 120.976320979124964, 14.305428802163291 ] } },
{ "type": "Feature", "properties": { "fid": 33, "id": 33, "cluster_id": "146", "column": null, "row": "A" }, "geometry": { "type": "Point", "coordinates": [ 120.976331075646044, 14.305431045834645 ] } },
{ "type": "Feature", "properties": { "fid": 34, "id": 34, "cluster_id": "146", "column": null, "row": "A" }, "geometry": { "type": "Point", "coordinates": [ 120.976343415838485, 14.305430484916807 ] } },
{ "type": "Feature", "properties": { "fid": 35, "id": 35, "cluster_id": "146", "column": null, "row": "A" }, "geometry": { "type": "Point", "coordinates": [ 120.976372153478323, 14.305422698399623 ] } },
{ "type": "Feature", "properties": { "fid": 36, "id": 36, "cluster_id": "146", "column": null, "row": "A" }, "geometry": { "type": "Point", "coordinates": [ 120.976372714396163, 14.30541372371421 ] } }
]
}
