{
"type": "FeatureCollection",
"name": "cltr-id-189-b-row",
"crs": { "type": "name", "properties": { "name": "urn:ogc:def:crs:OGC:1.3:CRS84" } },
"features": [
{ "type": "Feature", "properties": { "fid": 1, "id": 1, "cluster_id": "189", "column": null, "row": "B" }, "geometry": { "type": "Point", "coordinates": [ 120.976578503224033, 14.305815958326512 ] } },
{ "type": "Feature", "properties": { "fid": 2, "id": 2, "cluster_id": "189", "column": null, "row": "B" }, "geometry": { "type": "Point", "coordinates": [ 120.976579044109087, 14.305810684697196 ] } },
{ "type": "Feature", "properties": { "fid": 3, "id": 3, "cluster_id": "189", "column": null, "row": "B" }, "geometry": { "type": "Point", "coordinates": [ 120.976587157384955, 14.305803382748909 ] } },
{ "type": "Feature", "properties": { "fid": 4, "id": 4, "cluster_id": "189", "column": null, "row": "B" }, "geometry": { "type": "Point", "coordinates": [ 120.976594729775769, 14.305804329297761 ] } },
{ "type": "Feature", "properties": { "fid": 5, "id": 5, "cluster_id": "189", "column": null, "row": "B" }, "geometry": { "type": "Point", "coordinates": [ 120.976601761281529, 14.305804870182818 ] } },
{ "type": "Feature", "properties": { "fid": 6, "id": 6, "cluster_id": "189", "column": null, "row": "B" }, "geometry": { "type": "Point", "coordinates": [ 120.976608792787289, 14.305805681510407 ] } },
{ "type": "Feature", "properties": { "fid": 7, "id": 7, "cluster_id": "189", "column": null, "row": "B" }, "geometry": { "type": "Point", "coordinates": [ 120.97661663562063, 14.305805951952935 ] } },
{ "type": "Feature", "properties": { "fid": 8, "id": 8, "cluster_id": "189", "column": null, "row": "B" }, "geometry": { "type": "Point", "coordinates": [ 120.976622991020065, 14.305806087174199 ] } },
{ "type": "Feature", "properties": { "fid": 9, "id": 9, "cluster_id": "189", "column": null, "row": "B" }, "geometry": { "type": "Point", "coordinates": [ 120.976631915623543, 14.305806898501789 ] } },
{ "type": "Feature", "properties": { "fid": 10, "id": 10, "cluster_id": "189", "column": null, "row": "B" }, "geometry": { "type": "Point", "coordinates": [ 120.976640164120667, 14.305807845050639 ] } },
{ "type": "Feature", "properties": { "fid": 11, "id": 11, "cluster_id": "189", "column": null, "row": "B" }, "geometry": { "type": "Point", "coordinates": [ 120.976649900051711, 14.305808791599491 ] } },
{ "type": "Feature", "properties": { "fid": 12, "id": 12, "cluster_id": "189", "column": null, "row": "B" }, "geometry": { "type": "Point", "coordinates": [ 120.976660988195405, 14.305809332484548 ] } },
{ "type": "Feature", "properties": { "fid": 13, "id": 13, "cluster_id": "189", "column": null, "row": "B" }, "geometry": { "type": "Point", "coordinates": [ 120.976671265011518, 14.305810279033402 ] } },
{ "type": "Feature", "properties": { "fid": 14, "id": 14, "cluster_id": "189", "column": null, "row": "B" }, "geometry": { "type": "Point", "coordinates": [ 120.976680460057494, 14.305810819918458 ] } }
]
}
