{
"type": "FeatureCollection",
"name": "cltr-id-170-b-row",
"crs": { "type": "name", "properties": { "name": "urn:ogc:def:crs:OGC:1.3:CRS84" } },
"features": [
{ "type": "Feature", "properties": { "fid": 1, "id": 1, "cluster_id": "170", "column": null, "row": "B" }, "geometry": { "type": "Point", "coordinates": [ 120.976021104894727, 14.305861284995242 ] } },
{ "type": "Feature", "properties": { "fid": 2, "id": 2, "cluster_id": "170", "column": null, "row": "B" }, "geometry": { "type": "Point", "coordinates": [ 120.976028957744461, 14.305864089584432 ] } },
{ "type": "Feature", "properties": { "fid": 3, "id": 3, "cluster_id": "170", "column": null, "row": "B" }, "geometry": { "type": "Point", "coordinates": [ 120.976039615183382, 14.305864089584432 ] } },
{ "type": "Feature", "properties": { "fid": 4, "id": 4, "cluster_id": "170", "column": null, "row": "B" }, "geometry": { "type": "Point", "coordinates": [ 120.976048028950956, 14.30586465050227 ] } },
{ "type": "Feature", "properties": { "fid": 5, "id": 5, "cluster_id": "170", "column": null, "row": "B" }, "geometry": { "type": "Point", "coordinates": [ 120.97605588180069, 14.305864089584432 ] } },
{ "type": "Feature", "properties": { "fid": 6, "id": 6, "cluster_id": "170", "column": null, "row": "B" }, "geometry": { "type": "Point", "coordinates": [ 120.976066539239611, 14.305865211420109 ] } },
{ "type": "Feature", "properties": { "fid": 7, "id": 7, "cluster_id": "170", "column": null, "row": "B" }, "geometry": { "type": "Point", "coordinates": [ 120.976077196678546, 14.305866333255786 ] } },
{ "type": "Feature", "properties": { "fid": 8, "id": 8, "cluster_id": "170", "column": null, "row": "B" }, "geometry": { "type": "Point", "coordinates": [ 120.97608617136396, 14.305868016009299 ] } },
{ "type": "Feature", "properties": { "fid": 9, "id": 9, "cluster_id": "170", "column": null, "row": "B" }, "geometry": { "type": "Point", "coordinates": [ 120.97609458513152, 14.305868576927137 ] } },
{ "type": "Feature", "properties": { "fid": 10, "id": 10, "cluster_id": "170", "column": null, "row": "B" }, "geometry": { "type": "Point", "coordinates": [ 120.976101877063428, 14.305868016009299 ] } },
{ "type": "Feature", "properties": { "fid": 11, "id": 11, "cluster_id": "170", "column": null, "row": "B" }, "geometry": { "type": "Point", "coordinates": [ 120.976108047159642, 14.305869137844976 ] } },
{ "type": "Feature", "properties": { "fid": 12, "id": 12, "cluster_id": "170", "column": null, "row": "B" }, "geometry": { "type": "Point", "coordinates": [ 120.976114217255869, 14.305869698762814 ] } },
{ "type": "Feature", "properties": { "fid": 13, "id": 13, "cluster_id": "170", "column": null, "row": "B" }, "geometry": { "type": "Point", "coordinates": [ 120.976121509187763, 14.305870259680653 ] } },
{ "type": "Feature", "properties": { "fid": 14, "id": 14, "cluster_id": "170", "column": null, "row": "B" }, "geometry": { "type": "Point", "coordinates": [ 120.976127118366136, 14.305872503352004 ] } },
{ "type": "Feature", "properties": { "fid": 15, "id": 15, "cluster_id": "170", "column": null, "row": "B" }, "geometry": { "type": "Point", "coordinates": [ 120.976137214887245, 14.305873064269843 ] } },
{ "type": "Feature", "properties": { "fid": 16, "id": 16, "cluster_id": "170", "column": null, "row": "B" }, "geometry": { "type": "Point", "coordinates": [ 120.976145628654805, 14.305873064269845 ] } },
{ "type": "Feature", "properties": { "fid": 17, "id": 17, "cluster_id": "170", "column": null, "row": "B" }, "geometry": { "type": "Point", "coordinates": [ 120.976152920586699, 14.305875307941198 ] } },
{ "type": "Feature", "properties": { "fid": 18, "id": 18, "cluster_id": "170", "column": null, "row": "B" }, "geometry": { "type": "Point", "coordinates": [ 120.976159651600767, 14.305876990694712 ] } },
{ "type": "Feature", "properties": { "fid": 19, "id": 19, "cluster_id": "170", "column": null, "row": "B" }, "geometry": { "type": "Point", "coordinates": [ 120.976167504450487, 14.305875307941195 ] } },
{ "type": "Feature", "properties": { "fid": 20, "id": 20, "cluster_id": "170", "column": null, "row": "B" }, "geometry": { "type": "Point", "coordinates": [ 120.976177600971582, 14.305876429776873 ] } },
{ "type": "Feature", "properties": { "fid": 21, "id": 21, "cluster_id": "170", "column": null, "row": "B" }, "geometry": { "type": "Point", "coordinates": [ 120.976188258410502, 14.305876990694712 ] } },
{ "type": "Feature", "properties": { "fid": 22, "id": 22, "cluster_id": "170", "column": null, "row": "B" }, "geometry": { "type": "Point", "coordinates": [ 120.976199476767263, 14.305879234366063 ] } },
{ "type": "Feature", "properties": { "fid": 23, "id": 23, "cluster_id": "170", "column": null, "row": "B" }, "geometry": { "type": "Point", "coordinates": [ 120.976209573288358, 14.305878673448225 ] } },
{ "type": "Feature", "properties": { "fid": 24, "id": 24, "cluster_id": "170", "column": null, "row": "B" }, "geometry": { "type": "Point", "coordinates": [ 120.976219669809439, 14.305881478037417 ] } },
{ "type": "Feature", "properties": { "fid": 25, "id": 25, "cluster_id": "170", "column": null, "row": "B" }, "geometry": { "type": "Point", "coordinates": [ 120.97623257091972, 14.305882038955254 ] } },
{ "type": "Feature", "properties": { "fid": 26, "id": 26, "cluster_id": "170", "column": null, "row": "B" }, "geometry": { "type": "Point", "coordinates": [ 120.976242106522974, 14.305883721708769 ] } },
{ "type": "Feature", "properties": { "fid": 27, "id": 27, "cluster_id": "170", "column": null, "row": "B" }, "geometry": { "type": "Point", "coordinates": [ 120.976254446715416, 14.305883721708771 ] } },
{ "type": "Feature", "properties": { "fid": 28, "id": 28, "cluster_id": "170", "column": null, "row": "B" }, "geometry": { "type": "Point", "coordinates": [ 120.97626398231867, 14.305883721708771 ] } },
{ "type": "Feature", "properties": { "fid": 29, "id": 29, "cluster_id": "170", "column": null, "row": "B" }, "geometry": { "type": "Point", "coordinates": [ 120.976271835168404, 14.305884282626607 ] } },
{ "type": "Feature", "properties": { "fid": 30, "id": 30, "cluster_id": "170", "column": null, "row": "B" }, "geometry": { "type": "Point", "coordinates": [ 120.976280248935964, 14.305885965380122 ] } },
{ "type": "Feature", "properties": { "fid": 31, "id": 31, "cluster_id": "170", "column": null, "row": "B" }, "geometry": { "type": "Point", "coordinates": [ 120.97629202821058, 14.305888209051474 ] } },
{ "type": "Feature", "properties": { "fid": 32, "id": 32, "cluster_id": "170", "column": null, "row": "B" }, "geometry": { "type": "Point", "coordinates": [ 120.976299320142473, 14.305888209051476 ] } },
{ "type": "Feature", "properties": { "fid": 33, "id": 33, "cluster_id": "170", "column": null, "row": "B" }, "geometry": { "type": "Point", "coordinates": [ 120.976307733910048, 14.305888769969313 ] } },
{ "type": "Feature", "properties": { "fid": 34, "id": 34, "cluster_id": "170", "column": null, "row": "B" }, "geometry": { "type": "Point", "coordinates": [ 120.976316708595462, 14.305888769969313 ] } }
]
}
