{
"type": "FeatureCollection",
"name": "cltr-id-194-a-row",
"crs": { "type": "name", "properties": { "name": "urn:ogc:def:crs:OGC:1.3:CRS84" } },
"features": [
{ "type": "Feature", "properties": { "fid": 1, "id": 1, "cluster_id": "194", "column": null, "row": "A" }, "geometry": { "type": "Point", "coordinates": [ 120.976732790686725, 14.305731174593642 ] } },
{ "type": "Feature", "properties": { "fid": 2, "id": 2, "cluster_id": "194", "column": null, "row": "A" }, "geometry": { "type": "Point", "coordinates": [ 120.97674252661777, 14.305732256363758 ] } },
{ "type": "Feature", "properties": { "fid": 3, "id": 3, "cluster_id": "194", "column": null, "row": "A" }, "geometry": { "type": "Point", "coordinates": [ 120.976756589629289, 14.305732797248817 ] } },
{ "type": "Feature", "properties": { "fid": 4, "id": 4, "cluster_id": "194", "column": null, "row": "A" }, "geometry": { "type": "Point", "coordinates": [ 120.976769029985633, 14.30573441990399 ] } },
{ "type": "Feature", "properties": { "fid": 5, "id": 5, "cluster_id": "194", "column": null, "row": "A" }, "geometry": { "type": "Point", "coordinates": [ 120.976782552112084, 14.305735501674107 ] } },
{ "type": "Feature", "properties": { "fid": 6, "id": 6, "cluster_id": "194", "column": null, "row": "A" }, "geometry": { "type": "Point", "coordinates": [ 120.97679661512359, 14.305737665214339 ] } },
{ "type": "Feature", "properties": { "fid": 7, "id": 7, "cluster_id": "194", "column": null, "row": "A" }, "geometry": { "type": "Point", "coordinates": [ 120.976808514594879, 14.305739828754573 ] } },
{ "type": "Feature", "properties": { "fid": 8, "id": 8, "cluster_id": "194", "column": null, "row": "A" }, "geometry": { "type": "Point", "coordinates": [ 120.9768198731811, 14.305739287869514 ] } },
{ "type": "Feature", "properties": { "fid": 9, "id": 9, "cluster_id": "194", "column": null, "row": "A" }, "geometry": { "type": "Point", "coordinates": [ 120.976827986456968, 14.305740369639631 ] } },
{ "type": "Feature", "properties": { "fid": 10, "id": 10, "cluster_id": "194", "column": null, "row": "A" }, "geometry": { "type": "Point", "coordinates": [ 120.976838804158135, 14.305740369639631 ] } },
{ "type": "Feature", "properties": { "fid": 11, "id": 11, "cluster_id": "194", "column": null, "row": "A" }, "geometry": { "type": "Point", "coordinates": [ 120.976847458319071, 14.305741992294806 ] } },
{ "type": "Feature", "properties": { "fid": 12, "id": 12, "cluster_id": "194", "column": null, "row": "A" }, "geometry": { "type": "Point", "coordinates": [ 120.976856653365061, 14.30574361494998 ] } },
{ "type": "Feature", "properties": { "fid": 13, "id": 13, "cluster_id": "194", "column": null, "row": "A" }, "geometry": { "type": "Point", "coordinates": [ 120.976864766640929, 14.305744155835038 ] } },
{ "type": "Feature", "properties": { "fid": 14, "id": 14, "cluster_id": "194", "column": null, "row": "A" }, "geometry": { "type": "Point", "coordinates": [ 120.97687396168692, 14.305745237605155 ] } },
{ "type": "Feature", "properties": { "fid": 15, "id": 15, "cluster_id": "194", "column": null, "row": "A" }, "geometry": { "type": "Point", "coordinates": [ 120.97688315673291, 14.305746319375272 ] } },
{ "type": "Feature", "properties": { "fid": 16, "id": 16, "cluster_id": "194", "column": null, "row": "A" }, "geometry": { "type": "Point", "coordinates": [ 120.976891810893846, 14.30574686026033 ] } },
{ "type": "Feature", "properties": { "fid": 17, "id": 17, "cluster_id": "194", "column": null, "row": "A" }, "geometry": { "type": "Point", "coordinates": [ 120.976902087709945, 14.305749023800562 ] } },
{ "type": "Feature", "properties": { "fid": 18, "id": 18, "cluster_id": "194", "column": null, "row": "A" }, "geometry": { "type": "Point", "coordinates": [ 120.976909119215705, 14.305749564685621 ] } },
{ "type": "Feature", "properties": { "fid": 19, "id": 19, "cluster_id": "194", "column": null, "row": "A" }, "geometry": { "type": "Point", "coordinates": [ 120.97692101868698, 14.305749564685621 ] } },
{ "type": "Feature", "properties": { "fid": 20, "id": 20, "cluster_id": "194", "column": null, "row": "A" }, "geometry": { "type": "Point", "coordinates": [ 120.976929672847916, 14.305751728225854 ] } },
{ "type": "Feature", "properties": { "fid": 21, "id": 21, "cluster_id": "194", "column": null, "row": "A" }, "geometry": { "type": "Point", "coordinates": [ 120.976943194974368, 14.305751728225854 ] } },
{ "type": "Feature", "properties": { "fid": 22, "id": 22, "cluster_id": "194", "column": null, "row": "A" }, "geometry": { "type": "Point", "coordinates": [ 120.976951849135304, 14.305753350881028 ] } },
{ "type": "Feature", "properties": { "fid": 23, "id": 23, "cluster_id": "194", "column": null, "row": "A" }, "geometry": { "type": "Point", "coordinates": [ 120.976962666836471, 14.305753350881028 ] } },
{ "type": "Feature", "properties": { "fid": 24, "id": 24, "cluster_id": "194", "column": null, "row": "A" }, "geometry": { "type": "Point", "coordinates": [ 120.976970780112339, 14.305755514421261 ] } },
{ "type": "Feature", "properties": { "fid": 25, "id": 25, "cluster_id": "194", "column": null, "row": "A" }, "geometry": { "type": "Point", "coordinates": [ 120.976978893388207, 14.305756596191378 ] } },
{ "type": "Feature", "properties": { "fid": 26, "id": 26, "cluster_id": "194", "column": null, "row": "A" }, "geometry": { "type": "Point", "coordinates": [ 120.976988629319266, 14.305756596191378 ] } },
{ "type": "Feature", "properties": { "fid": 27, "id": 27, "cluster_id": "194", "column": null, "row": "A" }, "geometry": { "type": "Point", "coordinates": [ 120.97699620171008, 14.305757677961495 ] } },
{ "type": "Feature", "properties": { "fid": 28, "id": 28, "cluster_id": "194", "column": null, "row": "A" }, "geometry": { "type": "Point", "coordinates": [ 120.977006478526178, 14.305757677961495 ] } },
{ "type": "Feature", "properties": { "fid": 29, "id": 29, "cluster_id": "194", "column": null, "row": "A" }, "geometry": { "type": "Point", "coordinates": [ 120.977014050916992, 14.305759300616669 ] } },
{ "type": "Feature", "properties": { "fid": 30, "id": 30, "cluster_id": "194", "column": null, "row": "A" }, "geometry": { "type": "Point", "coordinates": [ 120.977021623307806, 14.305759300616669 ] } },
{ "type": "Feature", "properties": { "fid": 31, "id": 31, "cluster_id": "194", "column": null, "row": "A" }, "geometry": { "type": "Point", "coordinates": [ 120.977027032158389, 14.305760923271844 ] } },
{ "type": "Feature", "properties": { "fid": 32, "id": 32, "cluster_id": "194", "column": null, "row": "A" }, "geometry": { "type": "Point", "coordinates": [ 120.977034604549203, 14.305747942030447 ] } },
{ "type": "Feature", "properties": { "fid": 33, "id": 33, "cluster_id": "194", "column": null, "row": "A" }, "geometry": { "type": "Point", "coordinates": [ 120.977036227204394, 14.30574091052469 ] } }
]
}
