{
"type": "FeatureCollection",
"name": "cltr-id-194-c-row",
"crs": { "type": "name", "properties": { "name": "urn:ogc:def:crs:OGC:1.3:CRS84" } },
"features": [
{ "type": "Feature", "properties": { "fid": 1, "id": 1, "cluster_id": "194", "column": null, "row": "C" }, "geometry": { "type": "Point", "coordinates": [ 120.976734413341859, 14.305720356892474 ] } },
{ "type": "Feature", "properties": { "fid": 2, "id": 2, "cluster_id": "194", "column": null, "row": "C" }, "geometry": { "type": "Point", "coordinates": [ 120.976744690157972, 14.305723061317764 ] } },
{ "type": "Feature", "properties": { "fid": 3, "id": 3, "cluster_id": "194", "column": null, "row": "C" }, "geometry": { "type": "Point", "coordinates": [ 120.976757671399355, 14.305723602202821 ] } },
{ "type": "Feature", "properties": { "fid": 4, "id": 4, "cluster_id": "194", "column": null, "row": "C" }, "geometry": { "type": "Point", "coordinates": [ 120.976771193525821, 14.305726847513172 ] } },
{ "type": "Feature", "properties": { "fid": 5, "id": 5, "cluster_id": "194", "column": null, "row": "C" }, "geometry": { "type": "Point", "coordinates": [ 120.976783633882164, 14.305725765743055 ] } },
{ "type": "Feature", "properties": { "fid": 6, "id": 6, "cluster_id": "194", "column": null, "row": "C" }, "geometry": { "type": "Point", "coordinates": [ 120.976797156008601, 14.305729011053405 ] } },
{ "type": "Feature", "properties": { "fid": 7, "id": 7, "cluster_id": "194", "column": null, "row": "C" }, "geometry": { "type": "Point", "coordinates": [ 120.976811219020121, 14.305732256363754 ] } },
{ "type": "Feature", "properties": { "fid": 8, "id": 8, "cluster_id": "194", "column": null, "row": "C" }, "geometry": { "type": "Point", "coordinates": [ 120.976822577606356, 14.305730092823522 ] } },
{ "type": "Feature", "properties": { "fid": 9, "id": 9, "cluster_id": "194", "column": null, "row": "C" }, "geometry": { "type": "Point", "coordinates": [ 120.976829609112102, 14.305731715478696 ] } },
{ "type": "Feature", "properties": { "fid": 10, "id": 10, "cluster_id": "194", "column": null, "row": "C" }, "geometry": { "type": "Point", "coordinates": [ 120.976838804158092, 14.305733338133871 ] } },
{ "type": "Feature", "properties": { "fid": 11, "id": 11, "cluster_id": "194", "column": null, "row": "C" }, "geometry": { "type": "Point", "coordinates": [ 120.976848540089151, 14.305733338133871 ] } },
{ "type": "Feature", "properties": { "fid": 12, "id": 12, "cluster_id": "194", "column": null, "row": "C" }, "geometry": { "type": "Point", "coordinates": [ 120.976856653365019, 14.305733879018929 ] } },
{ "type": "Feature", "properties": { "fid": 13, "id": 13, "cluster_id": "194", "column": null, "row": "C" }, "geometry": { "type": "Point", "coordinates": [ 120.976864766640887, 14.305736042559161 ] } },
{ "type": "Feature", "properties": { "fid": 14, "id": 14, "cluster_id": "194", "column": null, "row": "C" }, "geometry": { "type": "Point", "coordinates": [ 120.976873420801823, 14.305736042559161 ] } },
{ "type": "Feature", "properties": { "fid": 15, "id": 15, "cluster_id": "194", "column": null, "row": "C" }, "geometry": { "type": "Point", "coordinates": [ 120.97688423850299, 14.30573928786951 ] } },
{ "type": "Feature", "properties": { "fid": 16, "id": 16, "cluster_id": "194", "column": null, "row": "C" }, "geometry": { "type": "Point", "coordinates": [ 120.976893974434034, 14.305741451409743 ] } },
{ "type": "Feature", "properties": { "fid": 17, "id": 17, "cluster_id": "194", "column": null, "row": "C" }, "geometry": { "type": "Point", "coordinates": [ 120.976902087709902, 14.305740369639627 ] } },
{ "type": "Feature", "properties": { "fid": 18, "id": 18, "cluster_id": "194", "column": null, "row": "C" }, "geometry": { "type": "Point", "coordinates": [ 120.976909119215676, 14.305741992294802 ] } },
{ "type": "Feature", "properties": { "fid": 19, "id": 19, "cluster_id": "194", "column": null, "row": "C" }, "geometry": { "type": "Point", "coordinates": [ 120.976921559572006, 14.305741451409743 ] } },
{ "type": "Feature", "properties": { "fid": 20, "id": 20, "cluster_id": "194", "column": null, "row": "C" }, "geometry": { "type": "Point", "coordinates": [ 120.976931836388104, 14.305744155835034 ] } },
{ "type": "Feature", "properties": { "fid": 21, "id": 21, "cluster_id": "194", "column": null, "row": "C" }, "geometry": { "type": "Point", "coordinates": [ 120.976941572319163, 14.305743074064917 ] } },
{ "type": "Feature", "properties": { "fid": 22, "id": 22, "cluster_id": "194", "column": null, "row": "C" }, "geometry": { "type": "Point", "coordinates": [ 120.976951308250207, 14.305746319375267 ] } },
{ "type": "Feature", "properties": { "fid": 23, "id": 23, "cluster_id": "194", "column": null, "row": "C" }, "geometry": { "type": "Point", "coordinates": [ 120.976961044181266, 14.305745778490209 ] } },
{ "type": "Feature", "properties": { "fid": 24, "id": 24, "cluster_id": "194", "column": null, "row": "C" }, "geometry": { "type": "Point", "coordinates": [ 120.976972943652541, 14.305748482915501 ] } },
{ "type": "Feature", "properties": { "fid": 25, "id": 25, "cluster_id": "194", "column": null, "row": "C" }, "geometry": { "type": "Point", "coordinates": [ 120.976976729847934, 14.305749023800558 ] } },
{ "type": "Feature", "properties": { "fid": 26, "id": 26, "cluster_id": "194", "column": null, "row": "C" }, "geometry": { "type": "Point", "coordinates": [ 120.976986465778992, 14.305750646455733 ] } },
{ "type": "Feature", "properties": { "fid": 27, "id": 27, "cluster_id": "194", "column": null, "row": "C" }, "geometry": { "type": "Point", "coordinates": [ 120.976996742595105, 14.305751187340793 ] } },
{ "type": "Feature", "properties": { "fid": 28, "id": 28, "cluster_id": "194", "column": null, "row": "C" }, "geometry": { "type": "Point", "coordinates": [ 120.977005937641081, 14.305752809995965 ] } },
{ "type": "Feature", "properties": { "fid": 29, "id": 29, "cluster_id": "194", "column": null, "row": "C" }, "geometry": { "type": "Point", "coordinates": [ 120.977013510031895, 14.305752809995965 ] } },
{ "type": "Feature", "properties": { "fid": 30, "id": 30, "cluster_id": "194", "column": null, "row": "C" }, "geometry": { "type": "Point", "coordinates": [ 120.977021623307778, 14.305752809995965 ] } },
{ "type": "Feature", "properties": { "fid": 31, "id": 31, "cluster_id": "194", "column": null, "row": "C" }, "geometry": { "type": "Point", "coordinates": [ 120.977027573043415, 14.305753350881025 ] } },
{ "type": "Feature", "properties": { "fid": 32, "id": 32, "cluster_id": "194", "column": null, "row": "C" }, "geometry": { "type": "Point", "coordinates": [ 120.977028654813537, 14.305746319375267 ] } },
{ "type": "Feature", "properties": { "fid": 33, "id": 33, "cluster_id": "194", "column": null, "row": "C" }, "geometry": { "type": "Point", "coordinates": [ 120.9770302774687, 14.305740910524685 ] } }
]
}
