{
"type": "FeatureCollection",
"name": "cltr-id-147-b-row",
"crs": { "type": "name", "properties": { "name": "urn:ogc:def:crs:OGC:1.3:CRS84" } },
"features": [
{ "type": "Feature", "properties": { "fid": 1, "id": 1, "cluster_id": "147", "column": null, "row": "B" }, "geometry": { "type": "Point", "coordinates": [ 120.976056643173706, 14.305373793629531 ] } },
{ "type": "Feature", "properties": { "fid": 2, "id": 2, "cluster_id": "147", "column": null, "row": "B" }, "geometry": { "type": "Point", "coordinates": [ 120.976057204091546, 14.305365940779796 ] } },
{ "type": "Feature", "properties": { "fid": 3, "id": 3, "cluster_id": "147", "column": null, "row": "B" }, "geometry": { "type": "Point", "coordinates": [ 120.976067830846148, 14.305362672236296 ] } },
{ "type": "Feature", "properties": { "fid": 4, "id": 4, "cluster_id": "147", "column": null, "row": "B" }, "geometry": { "type": "Point", "coordinates": [ 120.976080544983816, 14.305363794071972 ] } },
{ "type": "Feature", "properties": { "fid": 5, "id": 5, "cluster_id": "147", "column": null, "row": "B" }, "geometry": { "type": "Point", "coordinates": [ 120.976093259121484, 14.305364541962422 ] } },
{ "type": "Feature", "properties": { "fid": 6, "id": 6, "cluster_id": "147", "column": null, "row": "B" }, "geometry": { "type": "Point", "coordinates": [ 120.976106347204379, 14.305365289852874 ] } },
{ "type": "Feature", "properties": { "fid": 7, "id": 7, "cluster_id": "147", "column": null, "row": "B" }, "geometry": { "type": "Point", "coordinates": [ 120.976116817670686, 14.305365663798099 ] } },
{ "type": "Feature", "properties": { "fid": 8, "id": 8, "cluster_id": "147", "column": null, "row": "B" }, "geometry": { "type": "Point", "coordinates": [ 120.976127288137008, 14.305366411688551 ] } },
{ "type": "Feature", "properties": { "fid": 9, "id": 9, "cluster_id": "147", "column": null, "row": "B" }, "geometry": { "type": "Point", "coordinates": [ 120.976135514931968, 14.305367533524226 ] } },
{ "type": "Feature", "properties": { "fid": 10, "id": 10, "cluster_id": "147", "column": null, "row": "B" }, "geometry": { "type": "Point", "coordinates": [ 120.976145985398276, 14.305367533524226 ] } },
{ "type": "Feature", "properties": { "fid": 11, "id": 11, "cluster_id": "147", "column": null, "row": "B" }, "geometry": { "type": "Point", "coordinates": [ 120.97615608191937, 14.305367907469453 ] } },
{ "type": "Feature", "properties": { "fid": 12, "id": 12, "cluster_id": "147", "column": null, "row": "B" }, "geometry": { "type": "Point", "coordinates": [ 120.976166178440451, 14.305369403250355 ] } },
{ "type": "Feature", "properties": { "fid": 13, "id": 13, "cluster_id": "147", "column": null, "row": "B" }, "geometry": { "type": "Point", "coordinates": [ 120.976175527071092, 14.30536977719558 ] } },
{ "type": "Feature", "properties": { "fid": 14, "id": 14, "cluster_id": "147", "column": null, "row": "B" }, "geometry": { "type": "Point", "coordinates": [ 120.976185997537399, 14.30537052508603 ] } },
{ "type": "Feature", "properties": { "fid": 15, "id": 15, "cluster_id": "147", "column": null, "row": "B" }, "geometry": { "type": "Point", "coordinates": [ 120.976194972222814, 14.305371272976481 ] } },
{ "type": "Feature", "properties": { "fid": 16, "id": 16, "cluster_id": "147", "column": null, "row": "B" }, "geometry": { "type": "Point", "coordinates": [ 120.976204320853455, 14.305371646921706 ] } },
{ "type": "Feature", "properties": { "fid": 17, "id": 17, "cluster_id": "147", "column": null, "row": "B" }, "geometry": { "type": "Point", "coordinates": [ 120.976214043429309, 14.305372020866931 ] } },
{ "type": "Feature", "properties": { "fid": 18, "id": 18, "cluster_id": "147", "column": null, "row": "B" }, "geometry": { "type": "Point", "coordinates": [ 120.976223018114723, 14.305373142702608 ] } },
{ "type": "Feature", "properties": { "fid": 19, "id": 19, "cluster_id": "147", "column": null, "row": "B" }, "geometry": { "type": "Point", "coordinates": [ 120.976233488581045, 14.30537389059306 ] } },
{ "type": "Feature", "properties": { "fid": 20, "id": 20, "cluster_id": "147", "column": null, "row": "B" }, "geometry": { "type": "Point", "coordinates": [ 120.976241715375991, 14.305375012428737 ] } },
{ "type": "Feature", "properties": { "fid": 21, "id": 21, "cluster_id": "147", "column": null, "row": "B" }, "geometry": { "type": "Point", "coordinates": [ 120.976250690061406, 14.305376134264412 ] } },
{ "type": "Feature", "properties": { "fid": 22, "id": 22, "cluster_id": "147", "column": null, "row": "B" }, "geometry": { "type": "Point", "coordinates": [ 120.976260412637274, 14.305376508209639 ] } },
{ "type": "Feature", "properties": { "fid": 23, "id": 23, "cluster_id": "147", "column": null, "row": "B" }, "geometry": { "type": "Point", "coordinates": [ 120.976269013377461, 14.305377256100089 ] } },
{ "type": "Feature", "properties": { "fid": 24, "id": 24, "cluster_id": "147", "column": null, "row": "B" }, "geometry": { "type": "Point", "coordinates": [ 120.976277240172422, 14.30537800399054 ] } },
{ "type": "Feature", "properties": { "fid": 25, "id": 25, "cluster_id": "147", "column": null, "row": "B" }, "geometry": { "type": "Point", "coordinates": [ 120.976285093022156, 14.305377630045314 ] } },
{ "type": "Feature", "properties": { "fid": 26, "id": 26, "cluster_id": "147", "column": null, "row": "B" }, "geometry": { "type": "Point", "coordinates": [ 120.976292571926663, 14.305378751880991 ] } },
{ "type": "Feature", "properties": { "fid": 27, "id": 27, "cluster_id": "147", "column": null, "row": "B" }, "geometry": { "type": "Point", "coordinates": [ 120.976300050831171, 14.305379125826216 ] } },
{ "type": "Feature", "properties": { "fid": 28, "id": 28, "cluster_id": "147", "column": null, "row": "B" }, "geometry": { "type": "Point", "coordinates": [ 120.976308277626131, 14.305379499771442 ] } },
{ "type": "Feature", "properties": { "fid": 29, "id": 29, "cluster_id": "147", "column": null, "row": "B" }, "geometry": { "type": "Point", "coordinates": [ 120.976316130475865, 14.305380621607119 ] } },
{ "type": "Feature", "properties": { "fid": 30, "id": 30, "cluster_id": "147", "column": null, "row": "B" }, "geometry": { "type": "Point", "coordinates": [ 120.976323235435146, 14.305380995552344 ] } },
{ "type": "Feature", "properties": { "fid": 31, "id": 31, "cluster_id": "147", "column": null, "row": "B" }, "geometry": { "type": "Point", "coordinates": [ 120.976330340394441, 14.305381743442794 ] } },
{ "type": "Feature", "properties": { "fid": 32, "id": 32, "cluster_id": "147", "column": null, "row": "B" }, "geometry": { "type": "Point", "coordinates": [ 120.976337445353721, 14.305382117388021 ] } },
{ "type": "Feature", "properties": { "fid": 33, "id": 33, "cluster_id": "147", "column": null, "row": "B" }, "geometry": { "type": "Point", "coordinates": [ 120.976344924258228, 14.305382865278471 ] } },
{ "type": "Feature", "properties": { "fid": 34, "id": 34, "cluster_id": "147", "column": null, "row": "B" }, "geometry": { "type": "Point", "coordinates": [ 120.976351281327069, 14.305383239223696 ] } },
{ "type": "Feature", "properties": { "fid": 35, "id": 35, "cluster_id": "147", "column": null, "row": "B" }, "geometry": { "type": "Point", "coordinates": [ 120.97635838628635, 14.305384361059373 ] } },
{ "type": "Feature", "properties": { "fid": 36, "id": 36, "cluster_id": "147", "column": null, "row": "B" }, "geometry": { "type": "Point", "coordinates": [ 120.976366239136084, 14.305384735004598 ] } }
]
}
