{
"type": "FeatureCollection",
"name": "cltr-id-205-a-row",
"crs": { "type": "name", "properties": { "name": "urn:ogc:def:crs:OGC:1.3:CRS84" } },
"features": [
{ "type": "Feature", "properties": { "fid": 1, "id": 1, "cluster_id": "205", "column": null, "row": "A" }, "geometry": { "type": "Point", "coordinates": [ 120.976595405882136, 14.305734284682728 ] } },
{ "type": "Feature", "properties": { "fid": 2, "id": 2, "cluster_id": "205", "column": null, "row": "A" }, "geometry": { "type": "Point", "coordinates": [ 120.976606223583289, 14.305735907337903 ] } },
{ "type": "Feature", "properties": { "fid": 3, "id": 3, "cluster_id": "205", "column": null, "row": "A" }, "geometry": { "type": "Point", "coordinates": [ 120.976615959514334, 14.305736718665489 ] } },
{ "type": "Feature", "properties": { "fid": 4, "id": 4, "cluster_id": "205", "column": null, "row": "A" }, "geometry": { "type": "Point", "coordinates": [ 120.976626236330446, 14.305737800435606 ] } },
{ "type": "Feature", "properties": { "fid": 5, "id": 5, "cluster_id": "205", "column": null, "row": "A" }, "geometry": { "type": "Point", "coordinates": [ 120.976635972261491, 14.305738341320666 ] } },
{ "type": "Feature", "properties": { "fid": 6, "id": 6, "cluster_id": "205", "column": null, "row": "A" }, "geometry": { "type": "Point", "coordinates": [ 120.976645437750008, 14.305739963975839 ] } },
{ "type": "Feature", "properties": { "fid": 7, "id": 7, "cluster_id": "205", "column": null, "row": "A" }, "geometry": { "type": "Point", "coordinates": [ 120.976655714566121, 14.305740504860898 ] } },
{ "type": "Feature", "properties": { "fid": 8, "id": 8, "cluster_id": "205", "column": null, "row": "A" }, "geometry": { "type": "Point", "coordinates": [ 120.976664368727043, 14.305741316188485 ] } },
{ "type": "Feature", "properties": { "fid": 9, "id": 9, "cluster_id": "205", "column": null, "row": "A" }, "geometry": { "type": "Point", "coordinates": [ 120.976673563773033, 14.305742127516073 ] } },
{ "type": "Feature", "properties": { "fid": 10, "id": 10, "cluster_id": "205", "column": null, "row": "A" }, "geometry": { "type": "Point", "coordinates": [ 120.976681406606389, 14.305742938843659 ] } }
]
}
