{
"type": "FeatureCollection",
"name": "cltr-id-196-c-row",
"crs": { "type": "name", "properties": { "name": "urn:ogc:def:crs:OGC:1.3:CRS84" } },
"features": [
{ "type": "Feature", "properties": { "fid": 1, "id": 1, "cluster_id": "196", "column": null, "row": "C" }, "geometry": { "type": "Point", "coordinates": [ 120.976705746433865, 14.30585551054642 ] } },
{ "type": "Feature", "properties": { "fid": 2, "id": 2, "cluster_id": "196", "column": null, "row": "C" }, "geometry": { "type": "Point", "coordinates": [ 120.976713454045935, 14.305855916210215 ] } },
{ "type": "Feature", "properties": { "fid": 3, "id": 3, "cluster_id": "196", "column": null, "row": "C" }, "geometry": { "type": "Point", "coordinates": [ 120.976721161658034, 14.305856321874009 ] } },
{ "type": "Feature", "properties": { "fid": 4, "id": 4, "cluster_id": "196", "column": null, "row": "C" }, "geometry": { "type": "Point", "coordinates": [ 120.97673231741237, 14.305857944529183 ] } },
{ "type": "Feature", "properties": { "fid": 5, "id": 5, "cluster_id": "196", "column": null, "row": "C" }, "geometry": { "type": "Point", "coordinates": [ 120.976742053343401, 14.305859161520564 ] } },
{ "type": "Feature", "properties": { "fid": 6, "id": 6, "cluster_id": "196", "column": null, "row": "C" }, "geometry": { "type": "Point", "coordinates": [ 120.976751789274445, 14.305860175680049 ] } },
{ "type": "Feature", "properties": { "fid": 7, "id": 7, "cluster_id": "196", "column": null, "row": "C" }, "geometry": { "type": "Point", "coordinates": [ 120.976761525205504, 14.305861189839533 ] } },
{ "type": "Feature", "properties": { "fid": 8, "id": 8, "cluster_id": "196", "column": null, "row": "C" }, "geometry": { "type": "Point", "coordinates": [ 120.976769435649473, 14.305860378511944 ] } },
{ "type": "Feature", "properties": { "fid": 9, "id": 9, "cluster_id": "196", "column": null, "row": "C" }, "geometry": { "type": "Point", "coordinates": [ 120.976776940429659, 14.305860784175739 ] } },
{ "type": "Feature", "properties": { "fid": 10, "id": 10, "cluster_id": "196", "column": null, "row": "C" }, "geometry": { "type": "Point", "coordinates": [ 120.976784648041757, 14.305863015326608 ] } },
{ "type": "Feature", "properties": { "fid": 11, "id": 11, "cluster_id": "196", "column": null, "row": "C" }, "geometry": { "type": "Point", "coordinates": [ 120.976792558485727, 14.305864637981779 ] } },
{ "type": "Feature", "properties": { "fid": 12, "id": 12, "cluster_id": "196", "column": null, "row": "C" }, "geometry": { "type": "Point", "coordinates": [ 120.976800266097797, 14.305863826654193 ] } },
{ "type": "Feature", "properties": { "fid": 13, "id": 13, "cluster_id": "196", "column": null, "row": "C" }, "geometry": { "type": "Point", "coordinates": [ 120.976807365214199, 14.305865449309367 ] } },
{ "type": "Feature", "properties": { "fid": 14, "id": 14, "cluster_id": "196", "column": null, "row": "C" }, "geometry": { "type": "Point", "coordinates": [ 120.976813450171107, 14.305865449309367 ] } },
{ "type": "Feature", "properties": { "fid": 15, "id": 15, "cluster_id": "196", "column": null, "row": "C" }, "geometry": { "type": "Point", "coordinates": [ 120.976821766278874, 14.30586666630075 ] } },
{ "type": "Feature", "properties": { "fid": 16, "id": 16, "cluster_id": "196", "column": null, "row": "C" }, "geometry": { "type": "Point", "coordinates": [ 120.976827445571985, 14.30586788329213 ] } },
{ "type": "Feature", "properties": { "fid": 17, "id": 17, "cluster_id": "196", "column": null, "row": "C" }, "geometry": { "type": "Point", "coordinates": [ 120.976835558847867, 14.305867477628336 ] } },
{ "type": "Feature", "properties": { "fid": 18, "id": 18, "cluster_id": "196", "column": null, "row": "C" }, "geometry": { "type": "Point", "coordinates": [ 120.976843874955634, 14.305868288955923 ] } },
{ "type": "Feature", "properties": { "fid": 19, "id": 19, "cluster_id": "196", "column": null, "row": "C" }, "geometry": { "type": "Point", "coordinates": [ 120.976854016550476, 14.305869911611099 ] } },
{ "type": "Feature", "properties": { "fid": 20, "id": 20, "cluster_id": "196", "column": null, "row": "C" }, "geometry": { "type": "Point", "coordinates": [ 120.976863143985838, 14.305871534266272 ] } },
{ "type": "Feature", "properties": { "fid": 21, "id": 21, "cluster_id": "196", "column": null, "row": "C" }, "geometry": { "type": "Point", "coordinates": [ 120.976873691244464, 14.305872954089551 ] } },
{ "type": "Feature", "properties": { "fid": 22, "id": 22, "cluster_id": "196", "column": null, "row": "C" }, "geometry": { "type": "Point", "coordinates": [ 120.976882615847927, 14.305873156921448 ] } },
{ "type": "Feature", "properties": { "fid": 23, "id": 23, "cluster_id": "196", "column": null, "row": "C" }, "geometry": { "type": "Point", "coordinates": [ 120.976892960274682, 14.305874779576623 ] } },
{ "type": "Feature", "properties": { "fid": 24, "id": 24, "cluster_id": "196", "column": null, "row": "C" }, "geometry": { "type": "Point", "coordinates": [ 120.976901073550536, 14.305875996568005 ] } },
{ "type": "Feature", "properties": { "fid": 25, "id": 25, "cluster_id": "196", "column": null, "row": "C" }, "geometry": { "type": "Point", "coordinates": [ 120.976908781162635, 14.305876402231798 ] } },
{ "type": "Feature", "properties": { "fid": 26, "id": 26, "cluster_id": "196", "column": null, "row": "C" }, "geometry": { "type": "Point", "coordinates": [ 120.976919125589362, 14.305878430550766 ] } },
{ "type": "Feature", "properties": { "fid": 27, "id": 27, "cluster_id": "196", "column": null, "row": "C" }, "geometry": { "type": "Point", "coordinates": [ 120.976928050192825, 14.305879241878355 ] } },
{ "type": "Feature", "properties": { "fid": 28, "id": 28, "cluster_id": "196", "column": null, "row": "C" }, "geometry": { "type": "Point", "coordinates": [ 120.976939814442858, 14.305878836214561 ] } },
{ "type": "Feature", "properties": { "fid": 29, "id": 29, "cluster_id": "196", "column": null, "row": "C" }, "geometry": { "type": "Point", "coordinates": [ 120.976951173029079, 14.305878836214561 ] } },
{ "type": "Feature", "properties": { "fid": 30, "id": 30, "cluster_id": "196", "column": null, "row": "C" }, "geometry": { "type": "Point", "coordinates": [ 120.976962328783415, 14.305879850374044 ] } },
{ "type": "Feature", "properties": { "fid": 31, "id": 31, "cluster_id": "196", "column": null, "row": "C" }, "geometry": { "type": "Point", "coordinates": [ 120.976971050554965, 14.305883501348189 ] } },
{ "type": "Feature", "properties": { "fid": 32, "id": 32, "cluster_id": "196", "column": null, "row": "C" }, "geometry": { "type": "Point", "coordinates": [ 120.976984437460175, 14.305884515507673 ] } },
{ "type": "Feature", "properties": { "fid": 33, "id": 33, "cluster_id": "196", "column": null, "row": "C" }, "geometry": { "type": "Point", "coordinates": [ 120.976996607373977, 14.30588410984388 ] } },
{ "type": "Feature", "properties": { "fid": 34, "id": 34, "cluster_id": "196", "column": null, "row": "C" }, "geometry": { "type": "Point", "coordinates": [ 120.977003300826553, 14.305881473029221 ] } },
{ "type": "Feature", "properties": { "fid": 35, "id": 35, "cluster_id": "196", "column": null, "row": "C" }, "geometry": { "type": "Point", "coordinates": [ 120.977003909322264, 14.305877822055075 ] } }
]
}
