{
"type": "FeatureCollection",
"name": "cltr-id-180-a-row",
"crs": { "type": "name", "properties": { "name": "urn:ogc:def:crs:OGC:1.3:CRS84" } },
"features": [
{ "type": "Feature", "properties": { "fid": 1, "id": 1, "cluster_id": "180", "column": null, "row": "A" }, "geometry": { "type": "Point", "coordinates": [ 120.976359245007899, 14.305897582029969 ] } },
{ "type": "Feature", "properties": { "fid": 2, "id": 2, "cluster_id": "180", "column": null, "row": "A" }, "geometry": { "type": "Point", "coordinates": [ 120.976366558562489, 14.305898641965415 ] } },
{ "type": "Feature", "properties": { "fid": 3, "id": 3, "cluster_id": "180", "column": null, "row": "A" }, "geometry": { "type": "Point", "coordinates": [ 120.976375144039594, 14.305899595907317 ] } },
{ "type": "Feature", "properties": { "fid": 4, "id": 4, "cluster_id": "180", "column": null, "row": "A" }, "geometry": { "type": "Point", "coordinates": [ 120.976382775574834, 14.305900337862129 ] } },
{ "type": "Feature", "properties": { "fid": 5, "id": 5, "cluster_id": "180", "column": null, "row": "A" }, "geometry": { "type": "Point", "coordinates": [ 120.976391891019659, 14.305900867829852 ] } },
{ "type": "Feature", "properties": { "fid": 6, "id": 6, "cluster_id": "180", "column": null, "row": "A" }, "geometry": { "type": "Point", "coordinates": [ 120.976401748419306, 14.305901715778209 ] } },
{ "type": "Feature", "properties": { "fid": 7, "id": 7, "cluster_id": "180", "column": null, "row": "A" }, "geometry": { "type": "Point", "coordinates": [ 120.976410227902889, 14.305902351739478 ] } },
{ "type": "Feature", "properties": { "fid": 8, "id": 8, "cluster_id": "180", "column": null, "row": "A" }, "geometry": { "type": "Point", "coordinates": [ 120.97641944934125, 14.305902987700746 ] } },
{ "type": "Feature", "properties": { "fid": 9, "id": 9, "cluster_id": "180", "column": null, "row": "A" }, "geometry": { "type": "Point", "coordinates": [ 120.976431002637625, 14.305903835649104 ] } },
{ "type": "Feature", "properties": { "fid": 10, "id": 10, "cluster_id": "180", "column": null, "row": "A" }, "geometry": { "type": "Point", "coordinates": [ 120.976439164140558, 14.305904259623281 ] } },
{ "type": "Feature", "properties": { "fid": 11, "id": 11, "cluster_id": "180", "column": null, "row": "A" }, "geometry": { "type": "Point", "coordinates": [ 120.97644955150794, 14.30590510757164 ] } },
{ "type": "Feature", "properties": { "fid": 12, "id": 12, "cluster_id": "180", "column": null, "row": "A" }, "geometry": { "type": "Point", "coordinates": [ 120.976459938875308, 14.305905637539361 ] } },
{ "type": "Feature", "properties": { "fid": 13, "id": 13, "cluster_id": "180", "column": null, "row": "A" }, "geometry": { "type": "Point", "coordinates": [ 120.97646799438472, 14.305905955519995 ] } }
]
}
