{
"type": "FeatureCollection",
"name": "cltr-id-152-e-row",
"crs": { "type": "name", "properties": { "name": "urn:ogc:def:crs:OGC:1.3:CRS84" } },
"features": [
{ "type": "Feature", "properties": { "fid": 1, "id": 1, "cluster_id": "152", "column": null, "row": "E" }, "geometry": { "type": "Point", "coordinates": [ 120.97602951866233, 14.30578668292276 ] } },
{ "type": "Feature", "properties": { "fid": 2, "id": 2, "cluster_id": "152", "column": null, "row": "E" }, "geometry": { "type": "Point", "coordinates": [ 120.976041297936945, 14.305787804758436 ] } },
{ "type": "Feature", "properties": { "fid": 3, "id": 3, "cluster_id": "152", "column": null, "row": "E" }, "geometry": { "type": "Point", "coordinates": [ 120.976047468033158, 14.305787243840598 ] } },
{ "type": "Feature", "properties": { "fid": 4, "id": 4, "cluster_id": "152", "column": null, "row": "E" }, "geometry": { "type": "Point", "coordinates": [ 120.976054759965052, 14.305787804758436 ] } },
{ "type": "Feature", "properties": { "fid": 5, "id": 5, "cluster_id": "152", "column": null, "row": "E" }, "geometry": { "type": "Point", "coordinates": [ 120.97606093006128, 14.305788926594113 ] } },
{ "type": "Feature", "properties": { "fid": 6, "id": 6, "cluster_id": "152", "column": null, "row": "E" }, "geometry": { "type": "Point", "coordinates": [ 120.97607102658236, 14.305788365676275 ] } },
{ "type": "Feature", "properties": { "fid": 7, "id": 7, "cluster_id": "152", "column": null, "row": "E" }, "geometry": { "type": "Point", "coordinates": [ 120.976080001267775, 14.30579004842979 ] } },
{ "type": "Feature", "properties": { "fid": 8, "id": 8, "cluster_id": "152", "column": null, "row": "E" }, "geometry": { "type": "Point", "coordinates": [ 120.976087293199669, 14.30579004842979 ] } },
{ "type": "Feature", "properties": { "fid": 9, "id": 9, "cluster_id": "152", "column": null, "row": "E" }, "geometry": { "type": "Point", "coordinates": [ 120.976094024213737, 14.305790609347627 ] } },
{ "type": "Feature", "properties": { "fid": 10, "id": 10, "cluster_id": "152", "column": null, "row": "E" }, "geometry": { "type": "Point", "coordinates": [ 120.97610075522779, 14.30579285301898 ] } },
{ "type": "Feature", "properties": { "fid": 11, "id": 11, "cluster_id": "152", "column": null, "row": "E" }, "geometry": { "type": "Point", "coordinates": [ 120.976108047159684, 14.305799584033039 ] } },
{ "type": "Feature", "properties": { "fid": 12, "id": 12, "cluster_id": "152", "column": null, "row": "E" }, "geometry": { "type": "Point", "coordinates": [ 120.976119265516445, 14.305794535772495 ] } },
{ "type": "Feature", "properties": { "fid": 13, "id": 13, "cluster_id": "152", "column": null, "row": "E" }, "geometry": { "type": "Point", "coordinates": [ 120.9761288011197, 14.305797340361686 ] } },
{ "type": "Feature", "properties": { "fid": 14, "id": 14, "cluster_id": "152", "column": null, "row": "E" }, "geometry": { "type": "Point", "coordinates": [ 120.976136093051593, 14.305797340361686 ] } },
{ "type": "Feature", "properties": { "fid": 15, "id": 15, "cluster_id": "152", "column": null, "row": "E" }, "geometry": { "type": "Point", "coordinates": [ 120.976145067737008, 14.305800144950878 ] } },
{ "type": "Feature", "properties": { "fid": 16, "id": 16, "cluster_id": "152", "column": null, "row": "E" }, "geometry": { "type": "Point", "coordinates": [ 120.976154603340262, 14.305796779443847 ] } },
{ "type": "Feature", "properties": { "fid": 17, "id": 17, "cluster_id": "152", "column": null, "row": "E" }, "geometry": { "type": "Point", "coordinates": [ 120.976162456189996, 14.305800705868714 ] } },
{ "type": "Feature", "properties": { "fid": 18, "id": 18, "cluster_id": "152", "column": null, "row": "E" }, "geometry": { "type": "Point", "coordinates": [ 120.97617030903973, 14.305800705868716 ] } },
{ "type": "Feature", "properties": { "fid": 19, "id": 19, "cluster_id": "152", "column": null, "row": "E" }, "geometry": { "type": "Point", "coordinates": [ 120.976179844642971, 14.305799584033039 ] } },
{ "type": "Feature", "properties": { "fid": 20, "id": 20, "cluster_id": "152", "column": null, "row": "E" }, "geometry": { "type": "Point", "coordinates": [ 120.976188819328385, 14.305802388622229 ] } },
{ "type": "Feature", "properties": { "fid": 21, "id": 21, "cluster_id": "152", "column": null, "row": "E" }, "geometry": { "type": "Point", "coordinates": [ 120.976196672178119, 14.305800144950878 ] } },
{ "type": "Feature", "properties": { "fid": 22, "id": 22, "cluster_id": "152", "column": null, "row": "E" }, "geometry": { "type": "Point", "coordinates": [ 120.976202842274347, 14.305800144950878 ] } },
{ "type": "Feature", "properties": { "fid": 23, "id": 23, "cluster_id": "152", "column": null, "row": "E" }, "geometry": { "type": "Point", "coordinates": [ 120.976212938795427, 14.305800705868716 ] } },
{ "type": "Feature", "properties": { "fid": 24, "id": 24, "cluster_id": "152", "column": null, "row": "E" }, "geometry": { "type": "Point", "coordinates": [ 120.976219669809481, 14.305801266786553 ] } },
{ "type": "Feature", "properties": { "fid": 25, "id": 25, "cluster_id": "152", "column": null, "row": "E" }, "geometry": { "type": "Point", "coordinates": [ 120.976227522659229, 14.305801827704391 ] } },
{ "type": "Feature", "properties": { "fid": 26, "id": 26, "cluster_id": "152", "column": null, "row": "E" }, "geometry": { "type": "Point", "coordinates": [ 120.976235375508963, 14.305801827704391 ] } },
{ "type": "Feature", "properties": { "fid": 27, "id": 27, "cluster_id": "152", "column": null, "row": "E" }, "geometry": { "type": "Point", "coordinates": [ 120.976242667440857, 14.305802949540068 ] } },
{ "type": "Feature", "properties": { "fid": 28, "id": 28, "cluster_id": "152", "column": null, "row": "E" }, "geometry": { "type": "Point", "coordinates": [ 120.976255007633299, 14.305802949540068 ] } },
{ "type": "Feature", "properties": { "fid": 29, "id": 29, "cluster_id": "152", "column": null, "row": "E" }, "geometry": { "type": "Point", "coordinates": [ 120.976262299565192, 14.305805193211421 ] } },
{ "type": "Feature", "properties": { "fid": 30, "id": 30, "cluster_id": "152", "column": null, "row": "E" }, "geometry": { "type": "Point", "coordinates": [ 120.976274078839793, 14.305807436882773 ] } },
{ "type": "Feature", "properties": { "fid": 31, "id": 31, "cluster_id": "152", "column": null, "row": "E" }, "geometry": { "type": "Point", "coordinates": [ 120.976284175360888, 14.305806875964935 ] } },
{ "type": "Feature", "properties": { "fid": 32, "id": 32, "cluster_id": "152", "column": null, "row": "E" }, "geometry": { "type": "Point", "coordinates": [ 120.976293150046288, 14.30580855871845 ] } },
{ "type": "Feature", "properties": { "fid": 33, "id": 33, "cluster_id": "152", "column": null, "row": "E" }, "geometry": { "type": "Point", "coordinates": [ 120.976302685649543, 14.305807997800612 ] } },
{ "type": "Feature", "properties": { "fid": 34, "id": 34, "cluster_id": "152", "column": null, "row": "E" }, "geometry": { "type": "Point", "coordinates": [ 120.976313904006304, 14.305810241471965 ] } },
{ "type": "Feature", "properties": { "fid": 35, "id": 35, "cluster_id": "152", "column": null, "row": "E" }, "geometry": { "type": "Point", "coordinates": [ 120.976327366034425, 14.305819777075214 ] } },
{ "type": "Feature", "properties": { "fid": 36, "id": 36, "cluster_id": "152", "column": null, "row": "E" }, "geometry": { "type": "Point", "coordinates": [ 120.976328487870106, 14.305811924225479 ] } }
]
}
