{
"type": "FeatureCollection",
"name": "cltr-id-193-e-row",
"crs": { "type": "name", "properties": { "name": "urn:ogc:def:crs:OGC:1.3:CRS84" } },
"features": [
{ "type": "Feature", "properties": { "fid": 1, "id": 1, "cluster_id": "193", "column": null, "row": "E" }, "geometry": { "type": "Point", "coordinates": [ 120.976741309626505, 14.305568097748589 ] } },
{ "type": "Feature", "properties": { "fid": 2, "id": 2, "cluster_id": "193", "column": null, "row": "E" }, "geometry": { "type": "Point", "coordinates": [ 120.976741580069032, 14.305561336685361 ] } },
{ "type": "Feature", "properties": { "fid": 3, "id": 3, "cluster_id": "193", "column": null, "row": "E" }, "geometry": { "type": "Point", "coordinates": [ 120.976743743609262, 14.305556468719837 ] } },
{ "type": "Feature", "properties": { "fid": 4, "id": 4, "cluster_id": "193", "column": null, "row": "E" }, "geometry": { "type": "Point", "coordinates": [ 120.976750234229954, 14.305556739162366 ] } },
{ "type": "Feature", "properties": { "fid": 5, "id": 5, "cluster_id": "193", "column": null, "row": "E" }, "geometry": { "type": "Point", "coordinates": [ 120.976759699718485, 14.305556198277309 ] } },
{ "type": "Feature", "properties": { "fid": 6, "id": 6, "cluster_id": "193", "column": null, "row": "E" }, "geometry": { "type": "Point", "coordinates": [ 120.97676591989665, 14.305557550489953 ] } },
{ "type": "Feature", "properties": { "fid": 7, "id": 7, "cluster_id": "193", "column": null, "row": "E" }, "geometry": { "type": "Point", "coordinates": [ 120.976774303615045, 14.305556198277309 ] } },
{ "type": "Feature", "properties": { "fid": 8, "id": 8, "cluster_id": "193", "column": null, "row": "E" }, "geometry": { "type": "Point", "coordinates": [ 120.976779442023101, 14.30555863226007 ] } },
{ "type": "Feature", "properties": { "fid": 9, "id": 9, "cluster_id": "193", "column": null, "row": "E" }, "geometry": { "type": "Point", "coordinates": [ 120.976788907511619, 14.305558902702598 ] } },
{ "type": "Feature", "properties": { "fid": 10, "id": 10, "cluster_id": "193", "column": null, "row": "E" }, "geometry": { "type": "Point", "coordinates": [ 120.976793775477148, 14.305558902702598 ] } },
{ "type": "Feature", "properties": { "fid": 11, "id": 11, "cluster_id": "193", "column": null, "row": "E" }, "geometry": { "type": "Point", "coordinates": [ 120.976801888753016, 14.305558902702598 ] } },
{ "type": "Feature", "properties": { "fid": 12, "id": 12, "cluster_id": "193", "column": null, "row": "E" }, "geometry": { "type": "Point", "coordinates": [ 120.97680594539095, 14.305559714030187 ] } },
{ "type": "Feature", "properties": { "fid": 13, "id": 13, "cluster_id": "193", "column": null, "row": "E" }, "geometry": { "type": "Point", "coordinates": [ 120.976815681322009, 14.305562148012948 ] } },
{ "type": "Feature", "properties": { "fid": 14, "id": 14, "cluster_id": "193", "column": null, "row": "E" }, "geometry": { "type": "Point", "coordinates": [ 120.97682352415535, 14.305561336685361 ] } },
{ "type": "Feature", "properties": { "fid": 15, "id": 15, "cluster_id": "193", "column": null, "row": "E" }, "geometry": { "type": "Point", "coordinates": [ 120.976830826103637, 14.305561336685361 ] } },
{ "type": "Feature", "properties": { "fid": 16, "id": 16, "cluster_id": "193", "column": null, "row": "E" }, "geometry": { "type": "Point", "coordinates": [ 120.976839209822032, 14.305562959340536 ] } },
{ "type": "Feature", "properties": { "fid": 17, "id": 17, "cluster_id": "193", "column": null, "row": "E" }, "geometry": { "type": "Point", "coordinates": [ 120.976850568408253, 14.305563500225594 ] } },
{ "type": "Feature", "properties": { "fid": 18, "id": 18, "cluster_id": "193", "column": null, "row": "E" }, "geometry": { "type": "Point", "coordinates": [ 120.976862197437015, 14.305561877570419 ] } },
{ "type": "Feature", "properties": { "fid": 19, "id": 19, "cluster_id": "193", "column": null, "row": "E" }, "geometry": { "type": "Point", "coordinates": [ 120.976867606287598, 14.305565663765826 ] } },
{ "type": "Feature", "properties": { "fid": 20, "id": 20, "cluster_id": "193", "column": null, "row": "E" }, "geometry": { "type": "Point", "coordinates": [ 120.976882210184158, 14.305565663765826 ] } },
{ "type": "Feature", "properties": { "fid": 21, "id": 21, "cluster_id": "193", "column": null, "row": "E" }, "geometry": { "type": "Point", "coordinates": [ 120.976888700804864, 14.305565393323297 ] } },
{ "type": "Feature", "properties": { "fid": 22, "id": 22, "cluster_id": "193", "column": null, "row": "E" }, "geometry": { "type": "Point", "coordinates": [ 120.9768973549658, 14.30556782730606 ] } },
{ "type": "Feature", "properties": { "fid": 23, "id": 23, "cluster_id": "193", "column": null, "row": "E" }, "geometry": { "type": "Point", "coordinates": [ 120.976909254437075, 14.305567556863529 ] } },
{ "type": "Feature", "properties": { "fid": 24, "id": 24, "cluster_id": "193", "column": null, "row": "E" }, "geometry": { "type": "Point", "coordinates": [ 120.976916285942835, 14.305569449961235 ] } },
{ "type": "Feature", "properties": { "fid": 25, "id": 25, "cluster_id": "193", "column": null, "row": "E" }, "geometry": { "type": "Point", "coordinates": [ 120.976924399218703, 14.305569449961235 ] } },
{ "type": "Feature", "properties": { "fid": 26, "id": 26, "cluster_id": "193", "column": null, "row": "E" }, "geometry": { "type": "Point", "coordinates": [ 120.976933053379639, 14.305569179518704 ] } },
{ "type": "Feature", "properties": { "fid": 27, "id": 27, "cluster_id": "193", "column": null, "row": "E" }, "geometry": { "type": "Point", "coordinates": [ 120.976944952850914, 14.30557053173135 ] } },
{ "type": "Feature", "properties": { "fid": 28, "id": 28, "cluster_id": "193", "column": null, "row": "E" }, "geometry": { "type": "Point", "coordinates": [ 120.976953336569323, 14.305571343058938 ] } },
{ "type": "Feature", "properties": { "fid": 29, "id": 29, "cluster_id": "193", "column": null, "row": "E" }, "geometry": { "type": "Point", "coordinates": [ 120.976961990730246, 14.305572424829053 ] } },
{ "type": "Feature", "properties": { "fid": 30, "id": 30, "cluster_id": "193", "column": null, "row": "E" }, "geometry": { "type": "Point", "coordinates": [ 120.976972267546358, 14.305575129254345 ] } },
{ "type": "Feature", "properties": { "fid": 31, "id": 31, "cluster_id": "193", "column": null, "row": "E" }, "geometry": { "type": "Point", "coordinates": [ 120.97698227391993, 14.305572965714113 ] } },
{ "type": "Feature", "properties": { "fid": 32, "id": 32, "cluster_id": "193", "column": null, "row": "E" }, "geometry": { "type": "Point", "coordinates": [ 120.976993091621097, 14.305575129254345 ] } },
{ "type": "Feature", "properties": { "fid": 33, "id": 33, "cluster_id": "193", "column": null, "row": "E" }, "geometry": { "type": "Point", "coordinates": [ 120.977004720649845, 14.305576481466991 ] } },
{ "type": "Feature", "properties": { "fid": 34, "id": 34, "cluster_id": "193", "column": null, "row": "E" }, "geometry": { "type": "Point", "coordinates": [ 120.977016890563661, 14.305577022352049 ] } },
{ "type": "Feature", "properties": { "fid": 35, "id": 35, "cluster_id": "193", "column": null, "row": "E" }, "geometry": { "type": "Point", "coordinates": [ 120.977028519592409, 14.305578915449752 ] } },
{ "type": "Feature", "properties": { "fid": 36, "id": 36, "cluster_id": "193", "column": null, "row": "E" }, "geometry": { "type": "Point", "coordinates": [ 120.977040419063698, 14.305577833679637 ] } },
{ "type": "Feature", "properties": { "fid": 37, "id": 37, "cluster_id": "193", "column": null, "row": "E" }, "geometry": { "type": "Point", "coordinates": [ 120.977050154994743, 14.305580267662398 ] } },
{ "type": "Feature", "properties": { "fid": 38, "id": 38, "cluster_id": "193", "column": null, "row": "E" }, "geometry": { "type": "Point", "coordinates": [ 120.977062865793613, 14.305580267662398 ] } },
{ "type": "Feature", "properties": { "fid": 39, "id": 39, "cluster_id": "193", "column": null, "row": "E" }, "geometry": { "type": "Point", "coordinates": [ 120.977069897299359, 14.305581890317573 ] } },
{ "type": "Feature", "properties": { "fid": 40, "id": 40, "cluster_id": "193", "column": null, "row": "E" }, "geometry": { "type": "Point", "coordinates": [ 120.977083148983297, 14.305581890317573 ] } }
]
}
