{
"type": "FeatureCollection",
"name": "cltr-id-193-a-row",
"crs": { "type": "name", "properties": { "name": "urn:ogc:def:crs:OGC:1.3:CRS84" } },
"features": [
{ "type": "Feature", "properties": { "fid": 1, "id": 1, "cluster_id": "193", "column": null, "row": "A" }, "geometry": { "type": "Point", "coordinates": [ 120.976736035997135, 14.305568097748591 ] } },
{ "type": "Feature", "properties": { "fid": 2, "id": 2, "cluster_id": "193", "column": null, "row": "A" }, "geometry": { "type": "Point", "coordinates": [ 120.976736035997135, 14.305561066242834 ] } },
{ "type": "Feature", "properties": { "fid": 3, "id": 3, "cluster_id": "193", "column": null, "row": "A" }, "geometry": { "type": "Point", "coordinates": [ 120.97674441971553, 14.305551330311786 ] } },
{ "type": "Feature", "properties": { "fid": 4, "id": 4, "cluster_id": "193", "column": null, "row": "A" }, "geometry": { "type": "Point", "coordinates": [ 120.976751721663817, 14.305551871196844 ] } },
{ "type": "Feature", "properties": { "fid": 5, "id": 5, "cluster_id": "193", "column": null, "row": "A" }, "geometry": { "type": "Point", "coordinates": [ 120.976761187152334, 14.305552412081902 ] } },
{ "type": "Feature", "properties": { "fid": 6, "id": 6, "cluster_id": "193", "column": null, "row": "A" }, "geometry": { "type": "Point", "coordinates": [ 120.97676767777304, 14.305552412081903 ] } },
{ "type": "Feature", "properties": { "fid": 7, "id": 7, "cluster_id": "193", "column": null, "row": "A" }, "geometry": { "type": "Point", "coordinates": [ 120.976777413704085, 14.305552952966961 ] } },
{ "type": "Feature", "properties": { "fid": 8, "id": 8, "cluster_id": "193", "column": null, "row": "A" }, "geometry": { "type": "Point", "coordinates": [ 120.976782822554668, 14.305554575622136 ] } },
{ "type": "Feature", "properties": { "fid": 9, "id": 9, "cluster_id": "193", "column": null, "row": "A" }, "geometry": { "type": "Point", "coordinates": [ 120.976789583617901, 14.305554305179605 ] } },
{ "type": "Feature", "properties": { "fid": 10, "id": 10, "cluster_id": "193", "column": null, "row": "A" }, "geometry": { "type": "Point", "coordinates": [ 120.976795262910997, 14.305555116507195 ] } },
{ "type": "Feature", "properties": { "fid": 11, "id": 11, "cluster_id": "193", "column": null, "row": "A" }, "geometry": { "type": "Point", "coordinates": [ 120.976802294416771, 14.305554846064664 ] } },
{ "type": "Feature", "properties": { "fid": 12, "id": 12, "cluster_id": "193", "column": null, "row": "A" }, "geometry": { "type": "Point", "coordinates": [ 120.976808785037463, 14.305555927834781 ] } },
{ "type": "Feature", "properties": { "fid": 13, "id": 13, "cluster_id": "193", "column": null, "row": "A" }, "geometry": { "type": "Point", "coordinates": [ 120.976816357428277, 14.305556739162366 ] } },
{ "type": "Feature", "properties": { "fid": 14, "id": 14, "cluster_id": "193", "column": null, "row": "A" }, "geometry": { "type": "Point", "coordinates": [ 120.976825011589199, 14.305557009604897 ] } },
{ "type": "Feature", "properties": { "fid": 15, "id": 15, "cluster_id": "193", "column": null, "row": "A" }, "geometry": { "type": "Point", "coordinates": [ 120.976831502209905, 14.305557280047427 ] } },
{ "type": "Feature", "properties": { "fid": 16, "id": 16, "cluster_id": "193", "column": null, "row": "A" }, "geometry": { "type": "Point", "coordinates": [ 120.976842049468544, 14.305557550489956 ] } },
{ "type": "Feature", "properties": { "fid": 17, "id": 17, "cluster_id": "193", "column": null, "row": "A" }, "geometry": { "type": "Point", "coordinates": [ 120.976852326284643, 14.305558632260073 ] } },
{ "type": "Feature", "properties": { "fid": 18, "id": 18, "cluster_id": "193", "column": null, "row": "A" }, "geometry": { "type": "Point", "coordinates": [ 120.976863684870878, 14.305559173145131 ] } },
{ "type": "Feature", "properties": { "fid": 19, "id": 19, "cluster_id": "193", "column": null, "row": "A" }, "geometry": { "type": "Point", "coordinates": [ 120.976871257261678, 14.305560525357775 ] } },
{ "type": "Feature", "properties": { "fid": 20, "id": 20, "cluster_id": "193", "column": null, "row": "A" }, "geometry": { "type": "Point", "coordinates": [ 120.976881804520318, 14.305561336685363 ] } },
{ "type": "Feature", "properties": { "fid": 21, "id": 21, "cluster_id": "193", "column": null, "row": "A" }, "geometry": { "type": "Point", "coordinates": [ 120.976890188238727, 14.305562148012951 ] } },
{ "type": "Feature", "properties": { "fid": 22, "id": 22, "cluster_id": "193", "column": null, "row": "A" }, "geometry": { "type": "Point", "coordinates": [ 120.976899924169757, 14.305563229783067 ] } },
{ "type": "Feature", "properties": { "fid": 23, "id": 23, "cluster_id": "193", "column": null, "row": "A" }, "geometry": { "type": "Point", "coordinates": [ 120.976910741870938, 14.305563500225597 ] } },
{ "type": "Feature", "properties": { "fid": 24, "id": 24, "cluster_id": "193", "column": null, "row": "A" }, "geometry": { "type": "Point", "coordinates": [ 120.976918584704279, 14.305563770668126 ] } },
{ "type": "Feature", "properties": { "fid": 25, "id": 25, "cluster_id": "193", "column": null, "row": "A" }, "geometry": { "type": "Point", "coordinates": [ 120.976926697980161, 14.305565122880772 ] } },
{ "type": "Feature", "properties": { "fid": 26, "id": 26, "cluster_id": "193", "column": null, "row": "A" }, "geometry": { "type": "Point", "coordinates": [ 120.976934270370961, 14.305565393323299 ] } },
{ "type": "Feature", "properties": { "fid": 27, "id": 27, "cluster_id": "193", "column": null, "row": "A" }, "geometry": { "type": "Point", "coordinates": [ 120.97694671072729, 14.305566475093416 ] } },
{ "type": "Feature", "properties": { "fid": 28, "id": 28, "cluster_id": "193", "column": null, "row": "A" }, "geometry": { "type": "Point", "coordinates": [ 120.976956987543403, 14.305567556863533 ] } },
{ "type": "Feature", "properties": { "fid": 29, "id": 29, "cluster_id": "193", "column": null, "row": "A" }, "geometry": { "type": "Point", "coordinates": [ 120.976965641704339, 14.305568368191119 ] } },
{ "type": "Feature", "properties": { "fid": 30, "id": 30, "cluster_id": "193", "column": null, "row": "A" }, "geometry": { "type": "Point", "coordinates": [ 120.976975377635398, 14.305569990846296 ] } },
{ "type": "Feature", "properties": { "fid": 31, "id": 31, "cluster_id": "193", "column": null, "row": "A" }, "geometry": { "type": "Point", "coordinates": [ 120.976985113566442, 14.305569449961235 ] } },
{ "type": "Feature", "properties": { "fid": 32, "id": 32, "cluster_id": "193", "column": null, "row": "A" }, "geometry": { "type": "Point", "coordinates": [ 120.976995660825068, 14.305570531731352 ] } },
{ "type": "Feature", "properties": { "fid": 33, "id": 33, "cluster_id": "193", "column": null, "row": "A" }, "geometry": { "type": "Point", "coordinates": [ 120.977007289853816, 14.305572695271588 ] } },
{ "type": "Feature", "properties": { "fid": 34, "id": 34, "cluster_id": "193", "column": null, "row": "A" }, "geometry": { "type": "Point", "coordinates": [ 120.977021082422809, 14.305573506599172 ] } },
{ "type": "Feature", "properties": { "fid": 35, "id": 35, "cluster_id": "193", "column": null, "row": "A" }, "geometry": { "type": "Point", "coordinates": [ 120.977031359238921, 14.305574047484233 ] } },
{ "type": "Feature", "properties": { "fid": 36, "id": 36, "cluster_id": "193", "column": null, "row": "A" }, "geometry": { "type": "Point", "coordinates": [ 120.977043799595236, 14.305575129254349 ] } },
{ "type": "Feature", "properties": { "fid": 37, "id": 37, "cluster_id": "193", "column": null, "row": "A" }, "geometry": { "type": "Point", "coordinates": [ 120.977052724198714, 14.305576211024462 ] } },
{ "type": "Feature", "properties": { "fid": 38, "id": 38, "cluster_id": "193", "column": null, "row": "A" }, "geometry": { "type": "Point", "coordinates": [ 120.977064894112502, 14.305577833679639 ] } },
{ "type": "Feature", "properties": { "fid": 39, "id": 39, "cluster_id": "193", "column": null, "row": "A" }, "geometry": { "type": "Point", "coordinates": [ 120.977073277830925, 14.305578104122167 ] } },
{ "type": "Feature", "properties": { "fid": 40, "id": 40, "cluster_id": "193", "column": null, "row": "A" }, "geometry": { "type": "Point", "coordinates": [ 120.977082743319443, 14.305579456334813 ] } }
]
}
