{
"type": "FeatureCollection",
"name": "cltr-id-165-a-row",
"crs": { "type": "name", "properties": { "name": "urn:ogc:def:crs:OGC:1.3:CRS84" } },
"features": [
{ "type": "Feature", "properties": { "fid": 1, "id": 1, "cluster_id": "165", "column": null, "row": "A" }, "geometry": { "type": "Point", "coordinates": [ 120.976054599177516, 14.305429960744544 ] } },
{ "type": "Feature", "properties": { "fid": 2, "id": 2, "cluster_id": "165", "column": null, "row": "A" }, "geometry": { "type": "Point", "coordinates": [ 120.976063668701372, 14.305430273486746 ] } },
{ "type": "Feature", "properties": { "fid": 3, "id": 3, "cluster_id": "165", "column": null, "row": "A" }, "geometry": { "type": "Point", "coordinates": [ 120.976075552905044, 14.305430586228947 ] } },
{ "type": "Feature", "properties": { "fid": 4, "id": 4, "cluster_id": "165", "column": null, "row": "A" }, "geometry": { "type": "Point", "coordinates": [ 120.9760846224289, 14.305430898971149 ] } },
{ "type": "Feature", "properties": { "fid": 5, "id": 5, "cluster_id": "165", "column": null, "row": "A" }, "geometry": { "type": "Point", "coordinates": [ 120.976094630179361, 14.305431837197755 ] } },
{ "type": "Feature", "properties": { "fid": 6, "id": 6, "cluster_id": "165", "column": null, "row": "A" }, "geometry": { "type": "Point", "coordinates": [ 120.976102448734409, 14.305433088166563 ] } },
{ "type": "Feature", "properties": { "fid": 7, "id": 7, "cluster_id": "165", "column": null, "row": "A" }, "geometry": { "type": "Point", "coordinates": [ 120.97611245648487, 14.305433088166563 ] } },
{ "type": "Feature", "properties": { "fid": 8, "id": 8, "cluster_id": "165", "column": null, "row": "A" }, "geometry": { "type": "Point", "coordinates": [ 120.976120900524322, 14.305434964619774 ] } },
{ "type": "Feature", "properties": { "fid": 9, "id": 9, "cluster_id": "165", "column": null, "row": "A" }, "geometry": { "type": "Point", "coordinates": [ 120.976129657305989, 14.305435277361976 ] } },
{ "type": "Feature", "properties": { "fid": 10, "id": 10, "cluster_id": "165", "column": null, "row": "A" }, "geometry": { "type": "Point", "coordinates": [ 120.976139665056451, 14.305436215588582 ] } },
{ "type": "Feature", "properties": { "fid": 11, "id": 11, "cluster_id": "165", "column": null, "row": "A" }, "geometry": { "type": "Point", "coordinates": [ 120.976149047322508, 14.305436528330784 ] } },
{ "type": "Feature", "properties": { "fid": 12, "id": 12, "cluster_id": "165", "column": null, "row": "A" }, "geometry": { "type": "Point", "coordinates": [ 120.976157178619758, 14.305438092041793 ] } },
{ "type": "Feature", "properties": { "fid": 13, "id": 13, "cluster_id": "165", "column": null, "row": "A" }, "geometry": { "type": "Point", "coordinates": [ 120.976164684432604, 14.305438092041793 ] } },
{ "type": "Feature", "properties": { "fid": 14, "id": 14, "cluster_id": "165", "column": null, "row": "A" }, "geometry": { "type": "Point", "coordinates": [ 120.976171877503248, 14.305438404783995 ] } },
{ "type": "Feature", "properties": { "fid": 15, "id": 15, "cluster_id": "165", "column": null, "row": "A" }, "geometry": { "type": "Point", "coordinates": [ 120.976179383316094, 14.305439343010601 ] } },
{ "type": "Feature", "properties": { "fid": 16, "id": 16, "cluster_id": "165", "column": null, "row": "A" }, "geometry": { "type": "Point", "coordinates": [ 120.976186576386738, 14.305440593979409 ] } },
{ "type": "Feature", "properties": { "fid": 17, "id": 17, "cluster_id": "165", "column": null, "row": "A" }, "geometry": { "type": "Point", "coordinates": [ 120.976196584137199, 14.305441532206014 ] } },
{ "type": "Feature", "properties": { "fid": 18, "id": 18, "cluster_id": "165", "column": null, "row": "A" }, "geometry": { "type": "Point", "coordinates": [ 120.976204715434449, 14.30544247043262 ] } },
{ "type": "Feature", "properties": { "fid": 19, "id": 19, "cluster_id": "165", "column": null, "row": "A" }, "geometry": { "type": "Point", "coordinates": [ 120.976213472216102, 14.305443095917024 ] } },
{ "type": "Feature", "properties": { "fid": 20, "id": 20, "cluster_id": "165", "column": null, "row": "A" }, "geometry": { "type": "Point", "coordinates": [ 120.976221603513352, 14.30544403414363 ] } },
{ "type": "Feature", "properties": { "fid": 21, "id": 21, "cluster_id": "165", "column": null, "row": "A" }, "geometry": { "type": "Point", "coordinates": [ 120.976230985779409, 14.305444346885832 ] } },
{ "type": "Feature", "properties": { "fid": 22, "id": 22, "cluster_id": "165", "column": null, "row": "A" }, "geometry": { "type": "Point", "coordinates": [ 120.976240055303265, 14.305444659628034 ] } },
{ "type": "Feature", "properties": { "fid": 23, "id": 23, "cluster_id": "165", "column": null, "row": "A" }, "geometry": { "type": "Point", "coordinates": [ 120.976248499342717, 14.305445910596841 ] } },
{ "type": "Feature", "properties": { "fid": 24, "id": 24, "cluster_id": "165", "column": null, "row": "A" }, "geometry": { "type": "Point", "coordinates": [ 120.976256317897764, 14.305447161565649 ] } },
{ "type": "Feature", "properties": { "fid": 25, "id": 25, "cluster_id": "165", "column": null, "row": "A" }, "geometry": { "type": "Point", "coordinates": [ 120.976265700163822, 14.305447161565649 ] } },
{ "type": "Feature", "properties": { "fid": 26, "id": 26, "cluster_id": "165", "column": null, "row": "A" }, "geometry": { "type": "Point", "coordinates": [ 120.976272580492264, 14.305448099792255 ] } },
{ "type": "Feature", "properties": { "fid": 27, "id": 27, "cluster_id": "165", "column": null, "row": "A" }, "geometry": { "type": "Point", "coordinates": [ 120.976281024531716, 14.305448725276658 ] } },
{ "type": "Feature", "properties": { "fid": 28, "id": 28, "cluster_id": "165", "column": null, "row": "A" }, "geometry": { "type": "Point", "coordinates": [ 120.976289781313369, 14.30544903801886 ] } },
{ "type": "Feature", "properties": { "fid": 29, "id": 29, "cluster_id": "165", "column": null, "row": "A" }, "geometry": { "type": "Point", "coordinates": [ 120.976298538095023, 14.30545028898767 ] } },
{ "type": "Feature", "properties": { "fid": 30, "id": 30, "cluster_id": "165", "column": null, "row": "A" }, "geometry": { "type": "Point", "coordinates": [ 120.976306043907869, 14.305450914472074 ] } },
{ "type": "Feature", "properties": { "fid": 31, "id": 31, "cluster_id": "165", "column": null, "row": "A" }, "geometry": { "type": "Point", "coordinates": [ 120.976313549720714, 14.305451539956477 ] } },
{ "type": "Feature", "properties": { "fid": 32, "id": 32, "cluster_id": "165", "column": null, "row": "A" }, "geometry": { "type": "Point", "coordinates": [ 120.976323557471176, 14.305452165440881 ] } },
{ "type": "Feature", "properties": { "fid": 33, "id": 33, "cluster_id": "165", "column": null, "row": "A" }, "geometry": { "type": "Point", "coordinates": [ 120.976332001510627, 14.305452165440881 ] } },
{ "type": "Feature", "properties": { "fid": 34, "id": 34, "cluster_id": "165", "column": null, "row": "A" }, "geometry": { "type": "Point", "coordinates": [ 120.976341071034497, 14.305453103667487 ] } }
]
}
