{
"type": "FeatureCollection",
"name": "cltr-id-197-a-row",
"crs": { "type": "name", "properties": { "name": "urn:ogc:def:crs:OGC:1.3:CRS84" } },
"features": [
{ "type": "Feature", "properties": { "fid": 1, "id": 1, "cluster_id": "197", "column": null, "row": "A" }, "geometry": { "type": "Point", "coordinates": [ 120.976704935106198, 14.305830156559303 ] } },
{ "type": "Feature", "properties": { "fid": 2, "id": 2, "cluster_id": "197", "column": null, "row": "A" }, "geometry": { "type": "Point", "coordinates": [ 120.976706963425187, 14.305823463106707 ] } },
{ "type": "Feature", "properties": { "fid": 3, "id": 3, "cluster_id": "197", "column": null, "row": "A" }, "geometry": { "type": "Point", "coordinates": [ 120.976717105020015, 14.305811698856688 ] } },
{ "type": "Feature", "properties": { "fid": 4, "id": 4, "cluster_id": "197", "column": null, "row": "A" }, "geometry": { "type": "Point", "coordinates": [ 120.97672846360625, 14.305812104520482 ] } },
{ "type": "Feature", "properties": { "fid": 5, "id": 5, "cluster_id": "197", "column": null, "row": "A" }, "geometry": { "type": "Point", "coordinates": [ 120.976740633520052, 14.305812915848071 ] } },
{ "type": "Feature", "properties": { "fid": 6, "id": 6, "cluster_id": "197", "column": null, "row": "A" }, "geometry": { "type": "Point", "coordinates": [ 120.976751180778692, 14.305814132839451 ] } },
{ "type": "Feature", "properties": { "fid": 7, "id": 7, "cluster_id": "197", "column": null, "row": "A" }, "geometry": { "type": "Point", "coordinates": [ 120.976761322373534, 14.305814944167038 ] } },
{ "type": "Feature", "properties": { "fid": 8, "id": 8, "cluster_id": "197", "column": null, "row": "A" }, "geometry": { "type": "Point", "coordinates": [ 120.976770246976997, 14.30581616115842 ] } },
{ "type": "Feature", "properties": { "fid": 9, "id": 9, "cluster_id": "197", "column": null, "row": "A" }, "geometry": { "type": "Point", "coordinates": [ 120.976779171580461, 14.305816566822214 ] } },
{ "type": "Feature", "properties": { "fid": 10, "id": 10, "cluster_id": "197", "column": null, "row": "A" }, "geometry": { "type": "Point", "coordinates": [ 120.976788501847722, 14.305817783813595 ] } },
{ "type": "Feature", "properties": { "fid": 11, "id": 11, "cluster_id": "197", "column": null, "row": "A" }, "geometry": { "type": "Point", "coordinates": [ 120.976799454770145, 14.305819000804975 ] } },
{ "type": "Feature", "properties": { "fid": 12, "id": 12, "cluster_id": "197", "column": null, "row": "A" }, "geometry": { "type": "Point", "coordinates": [ 120.976807568046027, 14.305820217796358 ] } },
{ "type": "Feature", "properties": { "fid": 13, "id": 13, "cluster_id": "197", "column": null, "row": "A" }, "geometry": { "type": "Point", "coordinates": [ 120.976816898313274, 14.305821434787738 ] } },
{ "type": "Feature", "properties": { "fid": 14, "id": 14, "cluster_id": "197", "column": null, "row": "A" }, "geometry": { "type": "Point", "coordinates": [ 120.976826228580535, 14.305821840451532 ] } },
{ "type": "Feature", "properties": { "fid": 15, "id": 15, "cluster_id": "197", "column": null, "row": "A" }, "geometry": { "type": "Point", "coordinates": [ 120.976835558847796, 14.30582265177912 ] } },
{ "type": "Feature", "properties": { "fid": 16, "id": 16, "cluster_id": "197", "column": null, "row": "A" }, "geometry": { "type": "Point", "coordinates": [ 120.976845700442638, 14.305823868770501 ] } },
{ "type": "Feature", "properties": { "fid": 17, "id": 17, "cluster_id": "197", "column": null, "row": "A" }, "geometry": { "type": "Point", "coordinates": [ 120.976855030709885, 14.305825491425676 ] } },
{ "type": "Feature", "properties": { "fid": 18, "id": 18, "cluster_id": "197", "column": null, "row": "A" }, "geometry": { "type": "Point", "coordinates": [ 120.976864766640944, 14.305825491425676 ] } },
{ "type": "Feature", "properties": { "fid": 19, "id": 19, "cluster_id": "197", "column": null, "row": "A" }, "geometry": { "type": "Point", "coordinates": [ 120.976874502571988, 14.305826708417056 ] } },
{ "type": "Feature", "properties": { "fid": 20, "id": 20, "cluster_id": "197", "column": null, "row": "A" }, "geometry": { "type": "Point", "coordinates": [ 120.976881804520275, 14.30582711408085 ] } },
{ "type": "Feature", "properties": { "fid": 21, "id": 21, "cluster_id": "197", "column": null, "row": "A" }, "geometry": { "type": "Point", "coordinates": [ 120.976891540451334, 14.305827925408439 ] } },
{ "type": "Feature", "properties": { "fid": 22, "id": 22, "cluster_id": "197", "column": null, "row": "A" }, "geometry": { "type": "Point", "coordinates": [ 120.976901276382378, 14.305829548063613 ] } },
{ "type": "Feature", "properties": { "fid": 23, "id": 23, "cluster_id": "197", "column": null, "row": "A" }, "geometry": { "type": "Point", "coordinates": [ 120.976911012313423, 14.305830359391202 ] } },
{ "type": "Feature", "properties": { "fid": 24, "id": 24, "cluster_id": "197", "column": null, "row": "A" }, "geometry": { "type": "Point", "coordinates": [ 120.976921153908265, 14.305830765054994 ] } },
{ "type": "Feature", "properties": { "fid": 25, "id": 25, "cluster_id": "197", "column": null, "row": "A" }, "geometry": { "type": "Point", "coordinates": [ 120.976929672847945, 14.305831170718788 ] } },
{ "type": "Feature", "properties": { "fid": 26, "id": 26, "cluster_id": "197", "column": null, "row": "A" }, "geometry": { "type": "Point", "coordinates": [ 120.97694022010657, 14.305832387710169 ] } },
{ "type": "Feature", "properties": { "fid": 27, "id": 27, "cluster_id": "197", "column": null, "row": "A" }, "geometry": { "type": "Point", "coordinates": [ 120.976951578692805, 14.305832793373963 ] } },
{ "type": "Feature", "properties": { "fid": 28, "id": 28, "cluster_id": "197", "column": null, "row": "A" }, "geometry": { "type": "Point", "coordinates": [ 120.976959286304876, 14.305834010365345 ] } },
{ "type": "Feature", "properties": { "fid": 29, "id": 29, "cluster_id": "197", "column": null, "row": "A" }, "geometry": { "type": "Point", "coordinates": [ 120.976969427899718, 14.305834416029139 ] } },
{ "type": "Feature", "properties": { "fid": 30, "id": 30, "cluster_id": "197", "column": null, "row": "A" }, "geometry": { "type": "Point", "coordinates": [ 120.976976729848019, 14.30583563302052 ] } },
{ "type": "Feature", "properties": { "fid": 31, "id": 31, "cluster_id": "197", "column": null, "row": "A" }, "geometry": { "type": "Point", "coordinates": [ 120.976984437460089, 14.3058368500119 ] } },
{ "type": "Feature", "properties": { "fid": 32, "id": 32, "cluster_id": "197", "column": null, "row": "A" }, "geometry": { "type": "Point", "coordinates": [ 120.976992145072174, 14.3058368500119 ] } },
{ "type": "Feature", "properties": { "fid": 33, "id": 33, "cluster_id": "197", "column": null, "row": "A" }, "geometry": { "type": "Point", "coordinates": [ 120.97699863569288, 14.305838472667075 ] } },
{ "type": "Feature", "properties": { "fid": 34, "id": 34, "cluster_id": "197", "column": null, "row": "A" }, "geometry": { "type": "Point", "coordinates": [ 120.977003503658395, 14.305839283994663 ] } },
{ "type": "Feature", "properties": { "fid": 35, "id": 35, "cluster_id": "197", "column": null, "row": "A" }, "geometry": { "type": "Point", "coordinates": [ 120.977010399942898, 14.305838878330869 ] } }
]
}
