{
"type": "FeatureCollection",
"name": "cltr-id-182-d-row",
"crs": { "type": "name", "properties": { "name": "urn:ogc:def:crs:OGC:1.3:CRS84" } },
"features": [
{ "type": "Feature", "properties": { "fid": 1, "id": 1, "cluster_id": "182", "column": null, "row": "D" }, "geometry": { "type": "Point", "coordinates": [ 120.976623610784159, 14.305439750231674 ] } },
{ "type": "Feature", "properties": { "fid": 2, "id": 2, "cluster_id": "182", "column": null, "row": "D" }, "geometry": { "type": "Point", "coordinates": [ 120.976635239812907, 14.305442454656966 ] } },
{ "type": "Feature", "properties": { "fid": 3, "id": 3, "cluster_id": "182", "column": null, "row": "D" }, "geometry": { "type": "Point", "coordinates": [ 120.976648491496832, 14.305442995542023 ] } },
{ "type": "Feature", "properties": { "fid": 4, "id": 4, "cluster_id": "182", "column": null, "row": "D" }, "geometry": { "type": "Point", "coordinates": [ 120.976660120525594, 14.305444618197198 ] } },
{ "type": "Feature", "properties": { "fid": 5, "id": 5, "cluster_id": "182", "column": null, "row": "D" }, "geometry": { "type": "Point", "coordinates": [ 120.97666931557157, 14.305446240852374 ] } },
{ "type": "Feature", "properties": { "fid": 6, "id": 6, "cluster_id": "182", "column": null, "row": "D" }, "geometry": { "type": "Point", "coordinates": [ 120.976678781060087, 14.305445699967317 ] } },
{ "type": "Feature", "properties": { "fid": 7, "id": 7, "cluster_id": "182", "column": null, "row": "D" }, "geometry": { "type": "Point", "coordinates": [ 120.976688246548619, 14.305448945277663 ] } },
{ "type": "Feature", "properties": { "fid": 8, "id": 8, "cluster_id": "182", "column": null, "row": "D" }, "geometry": { "type": "Point", "coordinates": [ 120.976697441594609, 14.305447863507547 ] } },
{ "type": "Feature", "properties": { "fid": 9, "id": 9, "cluster_id": "182", "column": null, "row": "D" }, "geometry": { "type": "Point", "coordinates": [ 120.976706366198059, 14.305448674835135 ] } },
{ "type": "Feature", "properties": { "fid": 10, "id": 10, "cluster_id": "182", "column": null, "row": "D" }, "geometry": { "type": "Point", "coordinates": [ 120.976715561244049, 14.30545002704778 ] } },
{ "type": "Feature", "properties": { "fid": 11, "id": 11, "cluster_id": "182", "column": null, "row": "D" }, "geometry": { "type": "Point", "coordinates": [ 120.976720158767051, 14.305443806869611 ] } },
{ "type": "Feature", "properties": { "fid": 12, "id": 12, "cluster_id": "182", "column": null, "row": "D" }, "geometry": { "type": "Point", "coordinates": [ 120.976720429209578, 14.305437316248913 ] } }
]
}
