{
"type": "FeatureCollection",
"name": "cltr-id-186-b-row",
"crs": { "type": "name", "properties": { "name": "urn:ogc:def:crs:OGC:1.3:CRS84" } },
"features": [
{ "type": "Feature", "properties": { "fid": 1, "id": 1, "cluster_id": "186", "column": null, "row": "B" }, "geometry": { "type": "Point", "coordinates": [ 120.976582289419483, 14.305714001493046 ] } },
{ "type": "Feature", "properties": { "fid": 2, "id": 2, "cluster_id": "186", "column": null, "row": "B" }, "geometry": { "type": "Point", "coordinates": [ 120.976586210836146, 14.305714271935575 ] } },
{ "type": "Feature", "properties": { "fid": 3, "id": 3, "cluster_id": "186", "column": null, "row": "B" }, "geometry": { "type": "Point", "coordinates": [ 120.976590808359148, 14.305714542378103 ] } },
{ "type": "Feature", "properties": { "fid": 4, "id": 4, "cluster_id": "186", "column": null, "row": "B" }, "geometry": { "type": "Point", "coordinates": [ 120.976595811545934, 14.305715083263161 ] } },
{ "type": "Feature", "properties": { "fid": 5, "id": 5, "cluster_id": "186", "column": null, "row": "B" }, "geometry": { "type": "Point", "coordinates": [ 120.976600003405139, 14.305715488926955 ] } },
{ "type": "Feature", "properties": { "fid": 6, "id": 6, "cluster_id": "186", "column": null, "row": "B" }, "geometry": { "type": "Point", "coordinates": [ 120.976603789600546, 14.305715759369484 ] } },
{ "type": "Feature", "properties": { "fid": 7, "id": 7, "cluster_id": "186", "column": null, "row": "B" }, "geometry": { "type": "Point", "coordinates": [ 120.976607034910884, 14.305716029812015 ] } },
{ "type": "Feature", "properties": { "fid": 8, "id": 8, "cluster_id": "186", "column": null, "row": "B" }, "geometry": { "type": "Point", "coordinates": [ 120.976611497212616, 14.305716705918336 ] } },
{ "type": "Feature", "properties": { "fid": 9, "id": 9, "cluster_id": "186", "column": null, "row": "B" }, "geometry": { "type": "Point", "coordinates": [ 120.976615283408037, 14.305717787688451 ] } },
{ "type": "Feature", "properties": { "fid": 10, "id": 10, "cluster_id": "186", "column": null, "row": "B" }, "geometry": { "type": "Point", "coordinates": [ 120.976617717390781, 14.30571711158213 ] } },
{ "type": "Feature", "properties": { "fid": 11, "id": 11, "cluster_id": "186", "column": null, "row": "B" }, "geometry": { "type": "Point", "coordinates": [ 120.976621503586202, 14.305717652467189 ] } },
{ "type": "Feature", "properties": { "fid": 12, "id": 12, "cluster_id": "186", "column": null, "row": "B" }, "geometry": { "type": "Point", "coordinates": [ 120.976624478454013, 14.305717382024659 ] } },
{ "type": "Feature", "properties": { "fid": 13, "id": 13, "cluster_id": "186", "column": null, "row": "B" }, "geometry": { "type": "Point", "coordinates": [ 120.976627182879312, 14.305717922909718 ] } },
{ "type": "Feature", "properties": { "fid": 14, "id": 14, "cluster_id": "186", "column": null, "row": "B" }, "geometry": { "type": "Point", "coordinates": [ 120.976630157747124, 14.305717922909718 ] } },
{ "type": "Feature", "properties": { "fid": 15, "id": 15, "cluster_id": "186", "column": null, "row": "B" }, "geometry": { "type": "Point", "coordinates": [ 120.976633673500004, 14.305718734237304 ] } },
{ "type": "Feature", "properties": { "fid": 16, "id": 16, "cluster_id": "186", "column": null, "row": "B" }, "geometry": { "type": "Point", "coordinates": [ 120.976637594916681, 14.305719410343629 ] } },
{ "type": "Feature", "properties": { "fid": 17, "id": 17, "cluster_id": "186", "column": null, "row": "B" }, "geometry": { "type": "Point", "coordinates": [ 120.97664029934198, 14.305719139901099 ] } },
{ "type": "Feature", "properties": { "fid": 18, "id": 18, "cluster_id": "186", "column": null, "row": "B" }, "geometry": { "type": "Point", "coordinates": [ 120.976644355979914, 14.305719275122364 ] } },
{ "type": "Feature", "properties": { "fid": 19, "id": 19, "cluster_id": "186", "column": null, "row": "B" }, "geometry": { "type": "Point", "coordinates": [ 120.976647601290253, 14.305719680786156 ] } },
{ "type": "Feature", "properties": { "fid": 20, "id": 20, "cluster_id": "186", "column": null, "row": "B" }, "geometry": { "type": "Point", "coordinates": [ 120.976651793149458, 14.305719951228685 ] } },
{ "type": "Feature", "properties": { "fid": 21, "id": 21, "cluster_id": "186", "column": null, "row": "B" }, "geometry": { "type": "Point", "coordinates": [ 120.9766543623535, 14.305719816007421 ] } },
{ "type": "Feature", "properties": { "fid": 22, "id": 22, "cluster_id": "186", "column": null, "row": "B" }, "geometry": { "type": "Point", "coordinates": [ 120.976656796336243, 14.305720221671216 ] } },
{ "type": "Feature", "properties": { "fid": 23, "id": 23, "cluster_id": "186", "column": null, "row": "B" }, "geometry": { "type": "Point", "coordinates": [ 120.976659771204069, 14.305720492113744 ] } },
{ "type": "Feature", "properties": { "fid": 24, "id": 24, "cluster_id": "186", "column": null, "row": "B" }, "geometry": { "type": "Point", "coordinates": [ 120.976662475629354, 14.305720762556273 ] } },
{ "type": "Feature", "properties": { "fid": 25, "id": 25, "cluster_id": "186", "column": null, "row": "B" }, "geometry": { "type": "Point", "coordinates": [ 120.976664774390855, 14.305720627335008 ] } },
{ "type": "Feature", "properties": { "fid": 26, "id": 26, "cluster_id": "186", "column": null, "row": "B" }, "geometry": { "type": "Point", "coordinates": [ 120.976667343594869, 14.305721438662594 ] } },
{ "type": "Feature", "properties": { "fid": 27, "id": 27, "cluster_id": "186", "column": null, "row": "B" }, "geometry": { "type": "Point", "coordinates": [ 120.976669507135114, 14.305721438662594 ] } },
{ "type": "Feature", "properties": { "fid": 28, "id": 28, "cluster_id": "186", "column": null, "row": "B" }, "geometry": { "type": "Point", "coordinates": [ 120.976671400232817, 14.30572157388386 ] } },
{ "type": "Feature", "properties": { "fid": 29, "id": 29, "cluster_id": "186", "column": null, "row": "B" }, "geometry": { "type": "Point", "coordinates": [ 120.976674104658116, 14.305721979547654 ] } },
{ "type": "Feature", "properties": { "fid": 30, "id": 30, "cluster_id": "186", "column": null, "row": "B" }, "geometry": { "type": "Point", "coordinates": [ 120.976675862534549, 14.305722114768919 ] } },
{ "type": "Feature", "properties": { "fid": 31, "id": 31, "cluster_id": "186", "column": null, "row": "B" }, "geometry": { "type": "Point", "coordinates": [ 120.976677620410996, 14.305722114768919 ] } },
{ "type": "Feature", "properties": { "fid": 32, "id": 32, "cluster_id": "186", "column": null, "row": "B" }, "geometry": { "type": "Point", "coordinates": [ 120.976680054393753, 14.305722249990183 ] } },
{ "type": "Feature", "properties": { "fid": 33, "id": 33, "cluster_id": "186", "column": null, "row": "B" }, "geometry": { "type": "Point", "coordinates": [ 120.976682488376511, 14.305722655653977 ] } },
{ "type": "Feature", "properties": { "fid": 34, "id": 34, "cluster_id": "186", "column": null, "row": "B" }, "geometry": { "type": "Point", "coordinates": [ 120.976686680235716, 14.305716976360866 ] } },
{ "type": "Feature", "properties": { "fid": 35, "id": 35, "cluster_id": "186", "column": null, "row": "B" }, "geometry": { "type": "Point", "coordinates": [ 120.97668735634204, 14.305712378837871 ] } }
]
}
