{
"type": "FeatureCollection",
"name": "cltr-id-151-d-row",
"crs": { "type": "name", "properties": { "name": "urn:ogc:def:crs:OGC:1.3:CRS84" } },
"features": [
{ "type": "Feature", "properties": { "fid": 1, "id": 1, "cluster_id": "151", "column": null, "row": "D" }, "geometry": { "type": "Point", "coordinates": [ 120.976044023660421, 14.305645568394514 ] } },
{ "type": "Feature", "properties": { "fid": 2, "id": 2, "cluster_id": "151", "column": null, "row": "D" }, "geometry": { "type": "Point", "coordinates": [ 120.976044584578261, 14.305637715544778 ] } },
{ "type": "Feature", "properties": { "fid": 3, "id": 3, "cluster_id": "151", "column": null, "row": "D" }, "geometry": { "type": "Point", "coordinates": [ 120.976048179990812, 14.305638310164897 ] } },
{ "type": "Feature", "properties": { "fid": 4, "id": 4, "cluster_id": "151", "column": null, "row": "D" }, "geometry": { "type": "Point", "coordinates": [ 120.97606089412848, 14.305639432000573 ] } },
{ "type": "Feature", "properties": { "fid": 5, "id": 5, "cluster_id": "151", "column": null, "row": "D" }, "geometry": { "type": "Point", "coordinates": [ 120.976073608266148, 14.305640179891023 ] } },
{ "type": "Feature", "properties": { "fid": 6, "id": 6, "cluster_id": "151", "column": null, "row": "D" }, "geometry": { "type": "Point", "coordinates": [ 120.976086696349043, 14.305640927781475 ] } },
{ "type": "Feature", "properties": { "fid": 7, "id": 7, "cluster_id": "151", "column": null, "row": "D" }, "geometry": { "type": "Point", "coordinates": [ 120.97609716681535, 14.3056413017267 ] } },
{ "type": "Feature", "properties": { "fid": 8, "id": 8, "cluster_id": "151", "column": null, "row": "D" }, "geometry": { "type": "Point", "coordinates": [ 120.976107637281672, 14.305642049617152 ] } },
{ "type": "Feature", "properties": { "fid": 9, "id": 9, "cluster_id": "151", "column": null, "row": "D" }, "geometry": { "type": "Point", "coordinates": [ 120.976115864076633, 14.305643171452827 ] } },
{ "type": "Feature", "properties": { "fid": 10, "id": 10, "cluster_id": "151", "column": null, "row": "D" }, "geometry": { "type": "Point", "coordinates": [ 120.97612633454294, 14.305643171452827 ] } },
{ "type": "Feature", "properties": { "fid": 11, "id": 11, "cluster_id": "151", "column": null, "row": "D" }, "geometry": { "type": "Point", "coordinates": [ 120.976136431064035, 14.305643545398054 ] } },
{ "type": "Feature", "properties": { "fid": 12, "id": 12, "cluster_id": "151", "column": null, "row": "D" }, "geometry": { "type": "Point", "coordinates": [ 120.976146527585115, 14.305645041178956 ] } },
{ "type": "Feature", "properties": { "fid": 13, "id": 13, "cluster_id": "151", "column": null, "row": "D" }, "geometry": { "type": "Point", "coordinates": [ 120.976155876215756, 14.305645415124181 ] } },
{ "type": "Feature", "properties": { "fid": 14, "id": 14, "cluster_id": "151", "column": null, "row": "D" }, "geometry": { "type": "Point", "coordinates": [ 120.976166346682064, 14.305646163014631 ] } },
{ "type": "Feature", "properties": { "fid": 15, "id": 15, "cluster_id": "151", "column": null, "row": "D" }, "geometry": { "type": "Point", "coordinates": [ 120.976175321367478, 14.305646910905082 ] } },
{ "type": "Feature", "properties": { "fid": 16, "id": 16, "cluster_id": "151", "column": null, "row": "D" }, "geometry": { "type": "Point", "coordinates": [ 120.976184669998119, 14.305647284850307 ] } },
{ "type": "Feature", "properties": { "fid": 17, "id": 17, "cluster_id": "151", "column": null, "row": "D" }, "geometry": { "type": "Point", "coordinates": [ 120.976194392573973, 14.305647658795532 ] } },
{ "type": "Feature", "properties": { "fid": 18, "id": 18, "cluster_id": "151", "column": null, "row": "D" }, "geometry": { "type": "Point", "coordinates": [ 120.976203367259387, 14.305648780631209 ] } },
{ "type": "Feature", "properties": { "fid": 19, "id": 19, "cluster_id": "151", "column": null, "row": "D" }, "geometry": { "type": "Point", "coordinates": [ 120.976213837725709, 14.305649528521661 ] } },
{ "type": "Feature", "properties": { "fid": 20, "id": 20, "cluster_id": "151", "column": null, "row": "D" }, "geometry": { "type": "Point", "coordinates": [ 120.976222064520655, 14.305650650357338 ] } },
{ "type": "Feature", "properties": { "fid": 21, "id": 21, "cluster_id": "151", "column": null, "row": "D" }, "geometry": { "type": "Point", "coordinates": [ 120.97623103920607, 14.305651772193013 ] } },
{ "type": "Feature", "properties": { "fid": 22, "id": 22, "cluster_id": "151", "column": null, "row": "D" }, "geometry": { "type": "Point", "coordinates": [ 120.976240761781938, 14.30565214613824 ] } },
{ "type": "Feature", "properties": { "fid": 23, "id": 23, "cluster_id": "151", "column": null, "row": "D" }, "geometry": { "type": "Point", "coordinates": [ 120.976249362522125, 14.30565289402869 ] } },
{ "type": "Feature", "properties": { "fid": 24, "id": 24, "cluster_id": "151", "column": null, "row": "D" }, "geometry": { "type": "Point", "coordinates": [ 120.976257589317086, 14.305653641919141 ] } },
{ "type": "Feature", "properties": { "fid": 25, "id": 25, "cluster_id": "151", "column": null, "row": "D" }, "geometry": { "type": "Point", "coordinates": [ 120.97626544216682, 14.305653267973915 ] } },
{ "type": "Feature", "properties": { "fid": 26, "id": 26, "cluster_id": "151", "column": null, "row": "D" }, "geometry": { "type": "Point", "coordinates": [ 120.976272921071327, 14.305654389809591 ] } },
{ "type": "Feature", "properties": { "fid": 27, "id": 27, "cluster_id": "151", "column": null, "row": "D" }, "geometry": { "type": "Point", "coordinates": [ 120.976280399975835, 14.305654763754816 ] } },
{ "type": "Feature", "properties": { "fid": 28, "id": 28, "cluster_id": "151", "column": null, "row": "D" }, "geometry": { "type": "Point", "coordinates": [ 120.976288626770796, 14.305655137700043 ] } },
{ "type": "Feature", "properties": { "fid": 29, "id": 29, "cluster_id": "151", "column": null, "row": "D" }, "geometry": { "type": "Point", "coordinates": [ 120.97629647962053, 14.30565625953572 ] } },
{ "type": "Feature", "properties": { "fid": 30, "id": 30, "cluster_id": "151", "column": null, "row": "D" }, "geometry": { "type": "Point", "coordinates": [ 120.97630358457981, 14.305656633480945 ] } },
{ "type": "Feature", "properties": { "fid": 31, "id": 31, "cluster_id": "151", "column": null, "row": "D" }, "geometry": { "type": "Point", "coordinates": [ 120.976310689539105, 14.305657381371395 ] } },
{ "type": "Feature", "properties": { "fid": 32, "id": 32, "cluster_id": "151", "column": null, "row": "D" }, "geometry": { "type": "Point", "coordinates": [ 120.976317794498385, 14.305657755316622 ] } },
{ "type": "Feature", "properties": { "fid": 33, "id": 33, "cluster_id": "151", "column": null, "row": "D" }, "geometry": { "type": "Point", "coordinates": [ 120.976325273402892, 14.305658503207072 ] } },
{ "type": "Feature", "properties": { "fid": 34, "id": 34, "cluster_id": "151", "column": null, "row": "D" }, "geometry": { "type": "Point", "coordinates": [ 120.976331630471734, 14.305658877152297 ] } },
{ "type": "Feature", "properties": { "fid": 35, "id": 35, "cluster_id": "151", "column": null, "row": "D" }, "geometry": { "type": "Point", "coordinates": [ 120.976338735431014, 14.305659998987974 ] } },
{ "type": "Feature", "properties": { "fid": 36, "id": 36, "cluster_id": "151", "column": null, "row": "D" }, "geometry": { "type": "Point", "coordinates": [ 120.976346588280748, 14.305660372933199 ] } }
]
}
