{
"type": "FeatureCollection",
"name": "cltr-id-155-a-row",
"crs": { "type": "name", "properties": { "name": "urn:ogc:def:crs:OGC:1.3:CRS84" } },
"features": [
{ "type": "Feature", "properties": { "fid": 1, "id": 1, "cluster_id": "155", "column": null, "row": "A" }, "geometry": { "type": "Point", "coordinates": [ 120.97601196994701, 14.305907280257978 ] } },
{ "type": "Feature", "properties": { "fid": 2, "id": 2, "cluster_id": "155", "column": null, "row": "A" }, "geometry": { "type": "Point", "coordinates": [ 120.976012290471488, 14.305900549243919 ] } },
{ "type": "Feature", "properties": { "fid": 3, "id": 3, "cluster_id": "155", "column": null, "row": "A" }, "geometry": { "type": "Point", "coordinates": [ 120.976017739387629, 14.305891574558508 ] } },
{ "type": "Feature", "properties": { "fid": 4, "id": 4, "cluster_id": "155", "column": null, "row": "A" }, "geometry": { "type": "Point", "coordinates": [ 120.976026393548565, 14.305892215607466 ] } },
{ "type": "Feature", "properties": { "fid": 5, "id": 5, "cluster_id": "155", "column": null, "row": "A" }, "geometry": { "type": "Point", "coordinates": [ 120.97603536823398, 14.305893177180902 ] } },
{ "type": "Feature", "properties": { "fid": 6, "id": 6, "cluster_id": "155", "column": null, "row": "A" }, "geometry": { "type": "Point", "coordinates": [ 120.976043701870438, 14.30589381822986 ] } },
{ "type": "Feature", "properties": { "fid": 7, "id": 7, "cluster_id": "155", "column": null, "row": "A" }, "geometry": { "type": "Point", "coordinates": [ 120.97605235603136, 14.305894459278818 ] } },
{ "type": "Feature", "properties": { "fid": 8, "id": 8, "cluster_id": "155", "column": null, "row": "A" }, "geometry": { "type": "Point", "coordinates": [ 120.976062292290209, 14.305895100327776 ] } },
{ "type": "Feature", "properties": { "fid": 9, "id": 9, "cluster_id": "155", "column": null, "row": "A" }, "geometry": { "type": "Point", "coordinates": [ 120.976069023304277, 14.305895420852256 ] } },
{ "type": "Feature", "properties": { "fid": 10, "id": 10, "cluster_id": "155", "column": null, "row": "A" }, "geometry": { "type": "Point", "coordinates": [ 120.976077356940721, 14.305895741376734 ] } },
{ "type": "Feature", "properties": { "fid": 11, "id": 11, "cluster_id": "155", "column": null, "row": "A" }, "geometry": { "type": "Point", "coordinates": [ 120.976085690577179, 14.305896702950172 ] } },
{ "type": "Feature", "properties": { "fid": 12, "id": 12, "cluster_id": "155", "column": null, "row": "A" }, "geometry": { "type": "Point", "coordinates": [ 120.976094985787071, 14.305898305572565 ] } },
{ "type": "Feature", "properties": { "fid": 13, "id": 13, "cluster_id": "155", "column": null, "row": "A" }, "geometry": { "type": "Point", "coordinates": [ 120.976103639948008, 14.305898946621523 ] } },
{ "type": "Feature", "properties": { "fid": 14, "id": 14, "cluster_id": "155", "column": null, "row": "A" }, "geometry": { "type": "Point", "coordinates": [ 120.976112614633408, 14.305898626097045 ] } },
{ "type": "Feature", "properties": { "fid": 15, "id": 15, "cluster_id": "155", "column": null, "row": "A" }, "geometry": { "type": "Point", "coordinates": [ 120.976123191941213, 14.305899587670481 ] } },
{ "type": "Feature", "properties": { "fid": 16, "id": 16, "cluster_id": "155", "column": null, "row": "A" }, "geometry": { "type": "Point", "coordinates": [ 120.976132166626627, 14.305900549243919 ] } },
{ "type": "Feature", "properties": { "fid": 17, "id": 17, "cluster_id": "155", "column": null, "row": "A" }, "geometry": { "type": "Point", "coordinates": [ 120.976140820787563, 14.305901831341835 ] } },
{ "type": "Feature", "properties": { "fid": 18, "id": 18, "cluster_id": "155", "column": null, "row": "A" }, "geometry": { "type": "Point", "coordinates": [ 120.976148192850573, 14.305902472390793 ] } },
{ "type": "Feature", "properties": { "fid": 19, "id": 19, "cluster_id": "155", "column": null, "row": "A" }, "geometry": { "type": "Point", "coordinates": [ 120.976156847011509, 14.305902472390793 ] } },
{ "type": "Feature", "properties": { "fid": 20, "id": 20, "cluster_id": "155", "column": null, "row": "A" }, "geometry": { "type": "Point", "coordinates": [ 120.976164219074533, 14.305903113439751 ] } },
{ "type": "Feature", "properties": { "fid": 21, "id": 21, "cluster_id": "155", "column": null, "row": "A" }, "geometry": { "type": "Point", "coordinates": [ 120.97617383480889, 14.305903113439751 ] } },
{ "type": "Feature", "properties": { "fid": 22, "id": 22, "cluster_id": "155", "column": null, "row": "A" }, "geometry": { "type": "Point", "coordinates": [ 120.976182809494304, 14.305904395537667 ] } },
{ "type": "Feature", "properties": { "fid": 23, "id": 23, "cluster_id": "155", "column": null, "row": "A" }, "geometry": { "type": "Point", "coordinates": [ 120.976190181557328, 14.305903754488709 ] } },
{ "type": "Feature", "properties": { "fid": 24, "id": 24, "cluster_id": "155", "column": null, "row": "A" }, "geometry": { "type": "Point", "coordinates": [ 120.976199476767221, 14.305905036586624 ] } },
{ "type": "Feature", "properties": { "fid": 25, "id": 25, "cluster_id": "155", "column": null, "row": "A" }, "geometry": { "type": "Point", "coordinates": [ 120.97620684883023, 14.30590631868454 ] } },
{ "type": "Feature", "properties": { "fid": 26, "id": 26, "cluster_id": "155", "column": null, "row": "A" }, "geometry": { "type": "Point", "coordinates": [ 120.976215502991167, 14.305905998160062 ] } },
{ "type": "Feature", "properties": { "fid": 27, "id": 27, "cluster_id": "155", "column": null, "row": "A" }, "geometry": { "type": "Point", "coordinates": [ 120.976223195578655, 14.305906959733498 ] } },
{ "type": "Feature", "properties": { "fid": 28, "id": 28, "cluster_id": "155", "column": null, "row": "A" }, "geometry": { "type": "Point", "coordinates": [ 120.976232811313025, 14.305908241831414 ] } },
{ "type": "Feature", "properties": { "fid": 29, "id": 29, "cluster_id": "155", "column": null, "row": "A" }, "geometry": { "type": "Point", "coordinates": [ 120.976242747571874, 14.305907921306936 ] } },
{ "type": "Feature", "properties": { "fid": 30, "id": 30, "cluster_id": "155", "column": null, "row": "A" }, "geometry": { "type": "Point", "coordinates": [ 120.976253324879693, 14.30590952392933 ] } },
{ "type": "Feature", "properties": { "fid": 31, "id": 31, "cluster_id": "155", "column": null, "row": "A" }, "geometry": { "type": "Point", "coordinates": [ 120.97626518428541, 14.30590984445381 ] } },
{ "type": "Feature", "properties": { "fid": 32, "id": 32, "cluster_id": "155", "column": null, "row": "A" }, "geometry": { "type": "Point", "coordinates": [ 120.976276402642171, 14.305911126551726 ] } },
{ "type": "Feature", "properties": { "fid": 33, "id": 33, "cluster_id": "155", "column": null, "row": "A" }, "geometry": { "type": "Point", "coordinates": [ 120.976286979949975, 14.305911447076204 ] } },
{ "type": "Feature", "properties": { "fid": 34, "id": 34, "cluster_id": "155", "column": null, "row": "A" }, "geometry": { "type": "Point", "coordinates": [ 120.976298839355707, 14.30591240864964 ] } },
{ "type": "Feature", "properties": { "fid": 35, "id": 35, "cluster_id": "155", "column": null, "row": "A" }, "geometry": { "type": "Point", "coordinates": [ 120.976307493516629, 14.305913690747555 ] } },
{ "type": "Feature", "properties": { "fid": 36, "id": 36, "cluster_id": "155", "column": null, "row": "A" }, "geometry": { "type": "Point", "coordinates": [ 120.976316788726507, 14.305914652320995 ] } }
]
}
