{
"type": "FeatureCollection",
"name": "cltr-id-191-b-row",
"crs": { "type": "name", "properties": { "name": "urn:ogc:def:crs:OGC:1.3:CRS84" } },
"features": [
{ "type": "Feature", "properties": { "fid": 1, "id": 1, "cluster_id": "191", "column": null, "row": "B" }, "geometry": { "type": "Point", "coordinates": [ 120.976781335120833, 14.305433417369095 ] } },
{ "type": "Feature", "properties": { "fid": 2, "id": 2, "cluster_id": "191", "column": null, "row": "B" }, "geometry": { "type": "Point", "coordinates": [ 120.976780794235779, 14.305424763208164 ] } },
{ "type": "Feature", "properties": { "fid": 3, "id": 3, "cluster_id": "191", "column": null, "row": "B" }, "geometry": { "type": "Point", "coordinates": [ 120.976791611936932, 14.305418272587465 ] } },
{ "type": "Feature", "properties": { "fid": 4, "id": 4, "cluster_id": "191", "column": null, "row": "B" }, "geometry": { "type": "Point", "coordinates": [ 120.97680134786799, 14.305419354357582 ] } },
{ "type": "Feature", "properties": { "fid": 5, "id": 5, "cluster_id": "191", "column": null, "row": "B" }, "geometry": { "type": "Point", "coordinates": [ 120.976810002028913, 14.305418813472523 ] } },
{ "type": "Feature", "properties": { "fid": 6, "id": 6, "cluster_id": "191", "column": null, "row": "B" }, "geometry": { "type": "Point", "coordinates": [ 120.976821360615133, 14.30541989524264 ] } },
{ "type": "Feature", "properties": { "fid": 7, "id": 7, "cluster_id": "191", "column": null, "row": "B" }, "geometry": { "type": "Point", "coordinates": [ 120.976830555661124, 14.305422058782872 ] } },
{ "type": "Feature", "properties": { "fid": 8, "id": 8, "cluster_id": "191", "column": null, "row": "B" }, "geometry": { "type": "Point", "coordinates": [ 120.976838668937006, 14.305422058782872 ] } },
{ "type": "Feature", "properties": { "fid": 9, "id": 9, "cluster_id": "191", "column": null, "row": "B" }, "geometry": { "type": "Point", "coordinates": [ 120.976848404868051, 14.305423140552989 ] } },
{ "type": "Feature", "properties": { "fid": 10, "id": 10, "cluster_id": "191", "column": null, "row": "B" }, "geometry": { "type": "Point", "coordinates": [ 120.976855977258865, 14.305424763208164 ] } },
{ "type": "Feature", "properties": { "fid": 11, "id": 11, "cluster_id": "191", "column": null, "row": "B" }, "geometry": { "type": "Point", "coordinates": [ 120.976867335845085, 14.305425304093221 ] } },
{ "type": "Feature", "properties": { "fid": 12, "id": 12, "cluster_id": "191", "column": null, "row": "B" }, "geometry": { "type": "Point", "coordinates": [ 120.97687707177613, 14.305425844978281 ] } },
{ "type": "Feature", "properties": { "fid": 13, "id": 13, "cluster_id": "191", "column": null, "row": "B" }, "geometry": { "type": "Point", "coordinates": [ 120.976888971247419, 14.305426926748396 ] } },
{ "type": "Feature", "properties": { "fid": 14, "id": 14, "cluster_id": "191", "column": null, "row": "B" }, "geometry": { "type": "Point", "coordinates": [ 120.976897084523287, 14.305426926748396 ] } },
{ "type": "Feature", "properties": { "fid": 15, "id": 15, "cluster_id": "191", "column": null, "row": "B" }, "geometry": { "type": "Point", "coordinates": [ 120.976907902224454, 14.305429090288628 ] } },
{ "type": "Feature", "properties": { "fid": 16, "id": 16, "cluster_id": "191", "column": null, "row": "B" }, "geometry": { "type": "Point", "coordinates": [ 120.97691655638539, 14.305430172058745 ] } },
{ "type": "Feature", "properties": { "fid": 17, "id": 17, "cluster_id": "191", "column": null, "row": "B" }, "geometry": { "type": "Point", "coordinates": [ 120.976925751431381, 14.305432335598978 ] } },
{ "type": "Feature", "properties": { "fid": 18, "id": 18, "cluster_id": "191", "column": null, "row": "B" }, "geometry": { "type": "Point", "coordinates": [ 120.976934946477371, 14.305431253828862 ] } },
{ "type": "Feature", "properties": { "fid": 19, "id": 19, "cluster_id": "191", "column": null, "row": "B" }, "geometry": { "type": "Point", "coordinates": [ 120.976943600638293, 14.305433417369095 ] } },
{ "type": "Feature", "properties": { "fid": 20, "id": 20, "cluster_id": "191", "column": null, "row": "B" }, "geometry": { "type": "Point", "coordinates": [ 120.97695441833946, 14.305433417369095 ] } },
{ "type": "Feature", "properties": { "fid": 21, "id": 21, "cluster_id": "191", "column": null, "row": "B" }, "geometry": { "type": "Point", "coordinates": [ 120.976964154270505, 14.305435040024269 ] } },
{ "type": "Feature", "properties": { "fid": 22, "id": 22, "cluster_id": "191", "column": null, "row": "B" }, "geometry": { "type": "Point", "coordinates": [ 120.976974431086617, 14.305435040024269 ] } },
{ "type": "Feature", "properties": { "fid": 23, "id": 23, "cluster_id": "191", "column": null, "row": "B" }, "geometry": { "type": "Point", "coordinates": [ 120.976984167017662, 14.305436662679444 ] } },
{ "type": "Feature", "properties": { "fid": 24, "id": 24, "cluster_id": "191", "column": null, "row": "B" }, "geometry": { "type": "Point", "coordinates": [ 120.976994984718829, 14.305436121794386 ] } },
{ "type": "Feature", "properties": { "fid": 25, "id": 25, "cluster_id": "191", "column": null, "row": "B" }, "geometry": { "type": "Point", "coordinates": [ 120.977003097994697, 14.305439367104736 ] } },
{ "type": "Feature", "properties": { "fid": 26, "id": 26, "cluster_id": "191", "column": null, "row": "B" }, "geometry": { "type": "Point", "coordinates": [ 120.977016079236094, 14.305438826219676 ] } },
{ "type": "Feature", "properties": { "fid": 27, "id": 27, "cluster_id": "191", "column": null, "row": "B" }, "geometry": { "type": "Point", "coordinates": [ 120.977024462954503, 14.305440719317382 ] } },
{ "type": "Feature", "properties": { "fid": 28, "id": 28, "cluster_id": "191", "column": null, "row": "B" }, "geometry": { "type": "Point", "coordinates": [ 120.977032846672898, 14.305441530644968 ] } },
{ "type": "Feature", "properties": { "fid": 29, "id": 29, "cluster_id": "191", "column": null, "row": "B" }, "geometry": { "type": "Point", "coordinates": [ 120.977043664374065, 14.305441530644968 ] } },
{ "type": "Feature", "properties": { "fid": 30, "id": 30, "cluster_id": "191", "column": null, "row": "B" }, "geometry": { "type": "Point", "coordinates": [ 120.977052318535002, 14.305442612415085 ] } },
{ "type": "Feature", "properties": { "fid": 31, "id": 31, "cluster_id": "191", "column": null, "row": "B" }, "geometry": { "type": "Point", "coordinates": [ 120.977063677121222, 14.305443153300143 ] } },
{ "type": "Feature", "properties": { "fid": 32, "id": 32, "cluster_id": "191", "column": null, "row": "B" }, "geometry": { "type": "Point", "coordinates": [ 120.977071249512036, 14.305444775955317 ] } },
{ "type": "Feature", "properties": { "fid": 33, "id": 33, "cluster_id": "191", "column": null, "row": "B" }, "geometry": { "type": "Point", "coordinates": [ 120.977080444558027, 14.305445316840375 ] } },
{ "type": "Feature", "properties": { "fid": 34, "id": 34, "cluster_id": "191", "column": null, "row": "B" }, "geometry": { "type": "Point", "coordinates": [ 120.977089098718949, 14.305445316840375 ] } },
{ "type": "Feature", "properties": { "fid": 35, "id": 35, "cluster_id": "191", "column": null, "row": "B" }, "geometry": { "type": "Point", "coordinates": [ 120.977095048454601, 14.305448021265667 ] } },
{ "type": "Feature", "properties": { "fid": 36, "id": 36, "cluster_id": "191", "column": null, "row": "B" }, "geometry": { "type": "Point", "coordinates": [ 120.977102079960346, 14.305448562150724 ] } }
]
}
