{
"type": "FeatureCollection",
"name": "cltr-id-187-d-row",
"crs": { "type": "name", "properties": { "name": "urn:ogc:def:crs:OGC:1.3:CRS84" } },
"features": [
{ "type": "Feature", "properties": { "fid": 1, "id": 1, "cluster_id": "187", "column": null, "row": "D" }, "geometry": { "type": "Point", "coordinates": [ 120.976584723402198, 14.305683982372315 ] } },
{ "type": "Feature", "properties": { "fid": 2, "id": 2, "cluster_id": "187", "column": null, "row": "D" }, "geometry": { "type": "Point", "coordinates": [ 120.976585669951049, 14.305679790513114 ] } },
{ "type": "Feature", "properties": { "fid": 3, "id": 3, "cluster_id": "187", "column": null, "row": "D" }, "geometry": { "type": "Point", "coordinates": [ 120.976590808359106, 14.30567316467115 ] } },
{ "type": "Feature", "properties": { "fid": 4, "id": 4, "cluster_id": "187", "column": null, "row": "D" }, "geometry": { "type": "Point", "coordinates": [ 120.976593918448188, 14.305673570334944 ] } },
{ "type": "Feature", "properties": { "fid": 5, "id": 5, "cluster_id": "187", "column": null, "row": "D" }, "geometry": { "type": "Point", "coordinates": [ 120.976597298979797, 14.305673705556208 ] } },
{ "type": "Feature", "properties": { "fid": 6, "id": 6, "cluster_id": "187", "column": null, "row": "D" }, "geometry": { "type": "Point", "coordinates": [ 120.976600679511407, 14.305673570334944 ] } },
{ "type": "Feature", "properties": { "fid": 7, "id": 7, "cluster_id": "187", "column": null, "row": "D" }, "geometry": { "type": "Point", "coordinates": [ 120.976604330485557, 14.305674246441267 ] } },
{ "type": "Feature", "properties": { "fid": 8, "id": 8, "cluster_id": "187", "column": null, "row": "D" }, "geometry": { "type": "Point", "coordinates": [ 120.976608657566018, 14.305674246441267 ] } },
{ "type": "Feature", "properties": { "fid": 9, "id": 9, "cluster_id": "187", "column": null, "row": "D" }, "geometry": { "type": "Point", "coordinates": [ 120.976612173318898, 14.305674516883796 ] } },
{ "type": "Feature", "properties": { "fid": 10, "id": 10, "cluster_id": "187", "column": null, "row": "D" }, "geometry": { "type": "Point", "coordinates": [ 120.976616094735576, 14.305674787326325 ] } },
{ "type": "Feature", "properties": { "fid": 11, "id": 11, "cluster_id": "187", "column": null, "row": "D" }, "geometry": { "type": "Point", "coordinates": [ 120.976619204824658, 14.305675328211382 ] } },
{ "type": "Feature", "properties": { "fid": 12, "id": 12, "cluster_id": "187", "column": null, "row": "D" }, "geometry": { "type": "Point", "coordinates": [ 120.976624208011444, 14.305675328211382 ] } },
{ "type": "Feature", "properties": { "fid": 13, "id": 13, "cluster_id": "187", "column": null, "row": "D" }, "geometry": { "type": "Point", "coordinates": [ 120.976627588543053, 14.305675733875177 ] } },
{ "type": "Feature", "properties": { "fid": 14, "id": 14, "cluster_id": "187", "column": null, "row": "D" }, "geometry": { "type": "Point", "coordinates": [ 120.976631645181001, 14.305676274760234 ] } },
{ "type": "Feature", "properties": { "fid": 15, "id": 15, "cluster_id": "187", "column": null, "row": "D" }, "geometry": { "type": "Point", "coordinates": [ 120.976635701818935, 14.305676815645294 ] } },
{ "type": "Feature", "properties": { "fid": 16, "id": 16, "cluster_id": "187", "column": null, "row": "D" }, "geometry": { "type": "Point", "coordinates": [ 120.976639217571815, 14.305677086087822 ] } },
{ "type": "Feature", "properties": { "fid": 17, "id": 17, "cluster_id": "187", "column": null, "row": "D" }, "geometry": { "type": "Point", "coordinates": [ 120.976643950316074, 14.305677356530351 ] } },
{ "type": "Feature", "properties": { "fid": 18, "id": 18, "cluster_id": "187", "column": null, "row": "D" }, "geometry": { "type": "Point", "coordinates": [ 120.976647466068954, 14.305677491751617 ] } },
{ "type": "Feature", "properties": { "fid": 19, "id": 19, "cluster_id": "187", "column": null, "row": "D" }, "geometry": { "type": "Point", "coordinates": [ 120.976650170494239, 14.30567762697288 ] } },
{ "type": "Feature", "properties": { "fid": 20, "id": 20, "cluster_id": "187", "column": null, "row": "D" }, "geometry": { "type": "Point", "coordinates": [ 120.976653145362064, 14.305677897415409 ] } },
{ "type": "Feature", "properties": { "fid": 21, "id": 21, "cluster_id": "187", "column": null, "row": "D" }, "geometry": { "type": "Point", "coordinates": [ 120.976655714566093, 14.305677356530351 ] } },
{ "type": "Feature", "properties": { "fid": 22, "id": 22, "cluster_id": "187", "column": null, "row": "D" }, "geometry": { "type": "Point", "coordinates": [ 120.976658554212648, 14.305678032636674 ] } },
{ "type": "Feature", "properties": { "fid": 23, "id": 23, "cluster_id": "187", "column": null, "row": "D" }, "geometry": { "type": "Point", "coordinates": [ 120.976661934744257, 14.305678979185526 ] } },
{ "type": "Feature", "properties": { "fid": 24, "id": 24, "cluster_id": "187", "column": null, "row": "D" }, "geometry": { "type": "Point", "coordinates": [ 120.976664774390812, 14.305678438300468 ] } },
{ "type": "Feature", "properties": { "fid": 25, "id": 25, "cluster_id": "187", "column": null, "row": "D" }, "geometry": { "type": "Point", "coordinates": [ 120.976667073152313, 14.305677897415409 ] } },
{ "type": "Feature", "properties": { "fid": 26, "id": 26, "cluster_id": "187", "column": null, "row": "D" }, "geometry": { "type": "Point", "coordinates": [ 120.976669777577598, 14.305678573521732 ] } },
{ "type": "Feature", "properties": { "fid": 27, "id": 27, "cluster_id": "187", "column": null, "row": "D" }, "geometry": { "type": "Point", "coordinates": [ 120.976672617224153, 14.305678438300468 ] } },
{ "type": "Feature", "properties": { "fid": 28, "id": 28, "cluster_id": "187", "column": null, "row": "D" }, "geometry": { "type": "Point", "coordinates": [ 120.9766743751006, 14.305679520070584 ] } },
{ "type": "Feature", "properties": { "fid": 29, "id": 29, "cluster_id": "187", "column": null, "row": "D" }, "geometry": { "type": "Point", "coordinates": [ 120.976677349968412, 14.305679520070584 ] } },
{ "type": "Feature", "properties": { "fid": 30, "id": 30, "cluster_id": "187", "column": null, "row": "D" }, "geometry": { "type": "Point", "coordinates": [ 120.976680189614967, 14.305679249628055 ] } },
{ "type": "Feature", "properties": { "fid": 31, "id": 31, "cluster_id": "187", "column": null, "row": "D" }, "geometry": { "type": "Point", "coordinates": [ 120.976682623597739, 14.305679114406791 ] } },
{ "type": "Feature", "properties": { "fid": 32, "id": 32, "cluster_id": "187", "column": null, "row": "D" }, "geometry": { "type": "Point", "coordinates": [ 120.976684651916699, 14.305679790513114 ] } },
{ "type": "Feature", "properties": { "fid": 33, "id": 33, "cluster_id": "187", "column": null, "row": "D" }, "geometry": { "type": "Point", "coordinates": [ 120.976686680235673, 14.305679925734378 ] } },
{ "type": "Feature", "properties": { "fid": 34, "id": 34, "cluster_id": "187", "column": null, "row": "D" }, "geometry": { "type": "Point", "coordinates": [ 120.976688708554633, 14.305679925734378 ] } },
{ "type": "Feature", "properties": { "fid": 35, "id": 35, "cluster_id": "187", "column": null, "row": "D" }, "geometry": { "type": "Point", "coordinates": [ 120.976691548201188, 14.305680331398172 ] } }
]
}
