{
"type": "FeatureCollection",
"name": "cltr-id-161-c-row",
"crs": { "type": "name", "properties": { "name": "urn:ogc:def:crs:OGC:1.3:CRS84" } },
"features": [
{ "type": "Feature", "properties": { "fid": 1, "id": 1, "cluster_id": "161", "column": null, "rows": "C" }, "geometry": { "type": "Point", "coordinates": [ 120.976379926998362, 14.305803247775241 ] } },
{ "type": "Feature", "properties": { "fid": 2, "id": 2, "cluster_id": "161", "column": null, "rows": "C" }, "geometry": { "type": "Point", "coordinates": [ 120.976381198920905, 14.305795192265848 ] } },
{ "type": "Feature", "properties": { "fid": 3, "id": 3, "cluster_id": "161", "column": null, "rows": "C" }, "geometry": { "type": "Point", "coordinates": [ 120.976386392604596, 14.30579042255634 ] } },
{ "type": "Feature", "properties": { "fid": 4, "id": 4, "cluster_id": "161", "column": null, "rows": "C" }, "geometry": { "type": "Point", "coordinates": [ 120.976396250004242, 14.305790634543429 ] } },
{ "type": "Feature", "properties": { "fid": 5, "id": 5, "cluster_id": "161", "column": null, "rows": "C" }, "geometry": { "type": "Point", "coordinates": [ 120.976406107403889, 14.305791694478875 ] } },
{ "type": "Feature", "properties": { "fid": 6, "id": 6, "cluster_id": "161", "column": null, "rows": "C" }, "geometry": { "type": "Point", "coordinates": [ 120.976414904868093, 14.305792224446598 ] } },
{ "type": "Feature", "properties": { "fid": 7, "id": 7, "cluster_id": "161", "column": null, "rows": "C" }, "geometry": { "type": "Point", "coordinates": [ 120.976424338293569, 14.305792754414322 ] } },
{ "type": "Feature", "properties": { "fid": 8, "id": 8, "cluster_id": "161", "column": null, "rows": "C" }, "geometry": { "type": "Point", "coordinates": [ 120.976432287809416, 14.305793072394955 ] } },
{ "type": "Feature", "properties": { "fid": 9, "id": 9, "cluster_id": "161", "column": null, "rows": "C" }, "geometry": { "type": "Point", "coordinates": [ 120.976440555305899, 14.305793708356223 ] } },
{ "type": "Feature", "properties": { "fid": 10, "id": 10, "cluster_id": "161", "column": null, "rows": "C" }, "geometry": { "type": "Point", "coordinates": [ 120.976448928795932, 14.305794238323946 ] } },
{ "type": "Feature", "properties": { "fid": 11, "id": 11, "cluster_id": "161", "column": null, "rows": "C" }, "geometry": { "type": "Point", "coordinates": [ 120.976457938247222, 14.305794662298124 ] } },
{ "type": "Feature", "properties": { "fid": 12, "id": 12, "cluster_id": "161", "column": null, "rows": "C" }, "geometry": { "type": "Point", "coordinates": [ 120.976466417730791, 14.305795086272303 ] } },
{ "type": "Feature", "properties": { "fid": 13, "id": 13, "cluster_id": "161", "column": null, "rows": "C" }, "geometry": { "type": "Point", "coordinates": [ 120.976475215194995, 14.305796040214206 ] } },
{ "type": "Feature", "properties": { "fid": 14, "id": 14, "cluster_id": "161", "column": null, "rows": "C" }, "geometry": { "type": "Point", "coordinates": [ 120.976484224646299, 14.305796570181929 ] } },
{ "type": "Feature", "properties": { "fid": 15, "id": 15, "cluster_id": "161", "column": null, "rows": "C" }, "geometry": { "type": "Point", "coordinates": [ 120.976491538200875, 14.305796464188385 ] } }
]
}
