{
"type": "FeatureCollection",
"name": "cltr-id-186-c-row",
"crs": { "type": "name", "properties": { "name": "urn:ogc:def:crs:OGC:1.3:CRS84" } },
"features": [
{ "type": "Feature", "properties": { "fid": 1, "id": 1, "cluster_id": "186", "column": null, "row": "C" }, "geometry": { "type": "Point", "coordinates": [ 120.976582289419483, 14.305712784501665 ] } },
{ "type": "Feature", "properties": { "fid": 2, "id": 2, "cluster_id": "186", "column": null, "row": "C" }, "geometry": { "type": "Point", "coordinates": [ 120.976586616499944, 14.305713190165458 ] } },
{ "type": "Feature", "properties": { "fid": 3, "id": 3, "cluster_id": "186", "column": null, "row": "C" }, "geometry": { "type": "Point", "coordinates": [ 120.976591214022932, 14.305713325386723 ] } },
{ "type": "Feature", "properties": { "fid": 4, "id": 4, "cluster_id": "186", "column": null, "row": "C" }, "geometry": { "type": "Point", "coordinates": [ 120.976596081988461, 14.305714001493046 ] } },
{ "type": "Feature", "properties": { "fid": 5, "id": 5, "cluster_id": "186", "column": null, "row": "C" }, "geometry": { "type": "Point", "coordinates": [ 120.976600273847666, 14.305714677599369 ] } },
{ "type": "Feature", "properties": { "fid": 6, "id": 6, "cluster_id": "186", "column": null, "row": "C" }, "geometry": { "type": "Point", "coordinates": [ 120.976604195264329, 14.305714542378103 ] } },
{ "type": "Feature", "properties": { "fid": 7, "id": 7, "cluster_id": "186", "column": null, "row": "C" }, "geometry": { "type": "Point", "coordinates": [ 120.976607440574682, 14.305714812820632 ] } },
{ "type": "Feature", "properties": { "fid": 8, "id": 8, "cluster_id": "186", "column": null, "row": "C" }, "geometry": { "type": "Point", "coordinates": [ 120.976611497212616, 14.305715488926955 ] } },
{ "type": "Feature", "properties": { "fid": 9, "id": 9, "cluster_id": "186", "column": null, "row": "C" }, "geometry": { "type": "Point", "coordinates": [ 120.976615148186767, 14.305716570697072 ] } },
{ "type": "Feature", "properties": { "fid": 10, "id": 10, "cluster_id": "186", "column": null, "row": "C" }, "geometry": { "type": "Point", "coordinates": [ 120.976618123054578, 14.305716029812015 ] } },
{ "type": "Feature", "properties": { "fid": 11, "id": 11, "cluster_id": "186", "column": null, "row": "C" }, "geometry": { "type": "Point", "coordinates": [ 120.976621503586202, 14.305716841139601 ] } },
{ "type": "Feature", "properties": { "fid": 12, "id": 12, "cluster_id": "186", "column": null, "row": "C" }, "geometry": { "type": "Point", "coordinates": [ 120.976624613675284, 14.305716705918336 ] } },
{ "type": "Feature", "properties": { "fid": 13, "id": 13, "cluster_id": "186", "column": null, "row": "C" }, "geometry": { "type": "Point", "coordinates": [ 120.976627588543096, 14.305716976360866 ] } },
{ "type": "Feature", "properties": { "fid": 14, "id": 14, "cluster_id": "186", "column": null, "row": "C" }, "geometry": { "type": "Point", "coordinates": [ 120.976630428189665, 14.30571711158213 ] } },
{ "type": "Feature", "properties": { "fid": 15, "id": 15, "cluster_id": "186", "column": null, "row": "C" }, "geometry": { "type": "Point", "coordinates": [ 120.976633943942531, 14.305717922909718 ] } },
{ "type": "Feature", "properties": { "fid": 16, "id": 16, "cluster_id": "186", "column": null, "row": "C" }, "geometry": { "type": "Point", "coordinates": [ 120.976637594916681, 14.305718463794776 ] } },
{ "type": "Feature", "properties": { "fid": 17, "id": 17, "cluster_id": "186", "column": null, "row": "C" }, "geometry": { "type": "Point", "coordinates": [ 120.976640299341966, 14.305718193352247 ] } },
{ "type": "Feature", "properties": { "fid": 18, "id": 18, "cluster_id": "186", "column": null, "row": "C" }, "geometry": { "type": "Point", "coordinates": [ 120.976644626422441, 14.305718193352247 ] } },
{ "type": "Feature", "properties": { "fid": 19, "id": 19, "cluster_id": "186", "column": null, "row": "C" }, "geometry": { "type": "Point", "coordinates": [ 120.976648006954051, 14.305719004679833 ] } },
{ "type": "Feature", "properties": { "fid": 20, "id": 20, "cluster_id": "186", "column": null, "row": "C" }, "geometry": { "type": "Point", "coordinates": [ 120.976651928370728, 14.305718734237304 ] } },
{ "type": "Feature", "properties": { "fid": 21, "id": 21, "cluster_id": "186", "column": null, "row": "C" }, "geometry": { "type": "Point", "coordinates": [ 120.97665490323854, 14.305719004679833 ] } },
{ "type": "Feature", "properties": { "fid": 22, "id": 22, "cluster_id": "186", "column": null, "row": "C" }, "geometry": { "type": "Point", "coordinates": [ 120.976656931557514, 14.305719275122364 ] } },
{ "type": "Feature", "properties": { "fid": 23, "id": 23, "cluster_id": "186", "column": null, "row": "C" }, "geometry": { "type": "Point", "coordinates": [ 120.976659906425326, 14.305719680786156 ] } },
{ "type": "Feature", "properties": { "fid": 24, "id": 24, "cluster_id": "186", "column": null, "row": "C" }, "geometry": { "type": "Point", "coordinates": [ 120.976662881293151, 14.305719816007421 ] } },
{ "type": "Feature", "properties": { "fid": 25, "id": 25, "cluster_id": "186", "column": null, "row": "C" }, "geometry": { "type": "Point", "coordinates": [ 120.976665180054653, 14.305719951228685 ] } },
{ "type": "Feature", "properties": { "fid": 26, "id": 26, "cluster_id": "186", "column": null, "row": "C" }, "geometry": { "type": "Point", "coordinates": [ 120.976667208373613, 14.305720221671216 ] } },
{ "type": "Feature", "properties": { "fid": 27, "id": 27, "cluster_id": "186", "column": null, "row": "C" }, "geometry": { "type": "Point", "coordinates": [ 120.976669507135114, 14.30572008644995 ] } },
{ "type": "Feature", "properties": { "fid": 28, "id": 28, "cluster_id": "186", "column": null, "row": "C" }, "geometry": { "type": "Point", "coordinates": [ 120.976671805896615, 14.305720356892479 ] } },
{ "type": "Feature", "properties": { "fid": 29, "id": 29, "cluster_id": "186", "column": null, "row": "C" }, "geometry": { "type": "Point", "coordinates": [ 120.976674239879372, 14.305720762556273 ] } },
{ "type": "Feature", "properties": { "fid": 30, "id": 30, "cluster_id": "186", "column": null, "row": "C" }, "geometry": { "type": "Point", "coordinates": [ 120.976675997755819, 14.305720897777537 ] } },
{ "type": "Feature", "properties": { "fid": 31, "id": 31, "cluster_id": "186", "column": null, "row": "C" }, "geometry": { "type": "Point", "coordinates": [ 120.976678026074779, 14.305720627335008 ] } },
{ "type": "Feature", "properties": { "fid": 32, "id": 32, "cluster_id": "186", "column": null, "row": "C" }, "geometry": { "type": "Point", "coordinates": [ 120.976680054393753, 14.305721168220067 ] } },
{ "type": "Feature", "properties": { "fid": 33, "id": 33, "cluster_id": "186", "column": null, "row": "C" }, "geometry": { "type": "Point", "coordinates": [ 120.976682623597782, 14.30572157388386 ] } },
{ "type": "Feature", "properties": { "fid": 34, "id": 34, "cluster_id": "186", "column": null, "row": "C" }, "geometry": { "type": "Point", "coordinates": [ 120.976686274571918, 14.305716841139601 ] } },
{ "type": "Feature", "properties": { "fid": 35, "id": 35, "cluster_id": "186", "column": null, "row": "C" }, "geometry": { "type": "Point", "coordinates": [ 120.976686545014445, 14.305712514059135 ] } }
]
}
