{
"type": "FeatureCollection",
"name": "cltr-id-179-a-row",
"crs": { "type": "name", "properties": { "name": "urn:ogc:def:crs:OGC:1.3:CRS84" } },
"features": [
{ "type": "Feature", "properties": { "fid": 1, "id": 1, "cluster_id": "179", "column": null, "row": "A" }, "geometry": { "type": "Point", "coordinates": [ 120.976374097353357, 14.305728628319816 ] } },
{ "type": "Feature", "properties": { "fid": 2, "id": 2, "cluster_id": "179", "column": null, "row": "A" }, "geometry": { "type": "Point", "coordinates": [ 120.976385014688461, 14.30572937027463 ] } },
{ "type": "Feature", "properties": { "fid": 3, "id": 3, "cluster_id": "179", "column": null, "row": "A" }, "geometry": { "type": "Point", "coordinates": [ 120.9763960380171, 14.305729900242353 ] } },
{ "type": "Feature", "properties": { "fid": 4, "id": 4, "cluster_id": "179", "column": null, "row": "A" }, "geometry": { "type": "Point", "coordinates": [ 120.976405789423211, 14.305730642197165 ] } },
{ "type": "Feature", "properties": { "fid": 5, "id": 5, "cluster_id": "179", "column": null, "row": "A" }, "geometry": { "type": "Point", "coordinates": [ 120.976414162913244, 14.305731384151978 ] } },
{ "type": "Feature", "properties": { "fid": 6, "id": 6, "cluster_id": "179", "column": null, "row": "A" }, "geometry": { "type": "Point", "coordinates": [ 120.976422854383898, 14.305732232100334 ] } },
{ "type": "Feature", "properties": { "fid": 7, "id": 7, "cluster_id": "179", "column": null, "row": "A" }, "geometry": { "type": "Point", "coordinates": [ 120.976432393802909, 14.305732974055147 ] } },
{ "type": "Feature", "properties": { "fid": 8, "id": 8, "cluster_id": "179", "column": null, "row": "A" }, "geometry": { "type": "Point", "coordinates": [ 120.976442569183206, 14.30573350402287 ] } },
{ "type": "Feature", "properties": { "fid": 9, "id": 9, "cluster_id": "179", "column": null, "row": "A" }, "geometry": { "type": "Point", "coordinates": [ 120.976451472640946, 14.305735093926041 ] } },
{ "type": "Feature", "properties": { "fid": 10, "id": 10, "cluster_id": "179", "column": null, "row": "A" }, "geometry": { "type": "Point", "coordinates": [ 120.976459952124515, 14.305735623893764 ] } },
{ "type": "Feature", "properties": { "fid": 11, "id": 11, "cluster_id": "179", "column": null, "row": "A" }, "geometry": { "type": "Point", "coordinates": [ 120.976467371672641, 14.305736259855031 ] } },
{ "type": "Feature", "properties": { "fid": 12, "id": 12, "cluster_id": "179", "column": null, "row": "A" }, "geometry": { "type": "Point", "coordinates": [ 120.976474897214317, 14.305736789822754 ] } },
{ "type": "Feature", "properties": { "fid": 13, "id": 13, "cluster_id": "179", "column": null, "row": "A" }, "geometry": { "type": "Point", "coordinates": [ 120.976480620865729, 14.305737531777567 ] } }
]
}
