{
"type": "FeatureCollection",
"name": "cltr-id-153-e-row",
"crs": { "type": "name", "properties": { "name": "urn:ogc:def:crs:OGC:1.3:CRS84" } },
"features": [
{ "type": "Feature", "properties": { "fid": 1, "id": 1, "cluster_id": "153", "column": null, "row": "E" }, "geometry": { "type": "Point", "coordinates": [ 120.976034566922877, 14.305772099058967 ] } },
{ "type": "Feature", "properties": { "fid": 2, "id": 2, "cluster_id": "153", "column": null, "row": "E" }, "geometry": { "type": "Point", "coordinates": [ 120.976035688758543, 14.305764807127071 ] } },
{ "type": "Feature", "properties": { "fid": 3, "id": 3, "cluster_id": "153", "column": null, "row": "E" }, "geometry": { "type": "Point", "coordinates": [ 120.976045224361798, 14.305765368044908 ] } },
{ "type": "Feature", "properties": { "fid": 4, "id": 4, "cluster_id": "153", "column": null, "row": "E" }, "geometry": { "type": "Point", "coordinates": [ 120.976051955375851, 14.305767050798423 ] } },
{ "type": "Feature", "properties": { "fid": 5, "id": 5, "cluster_id": "153", "column": null, "row": "E" }, "geometry": { "type": "Point", "coordinates": [ 120.976063734650452, 14.305770416305451 ] } },
{ "type": "Feature", "properties": { "fid": 6, "id": 6, "cluster_id": "153", "column": null, "row": "E" }, "geometry": { "type": "Point", "coordinates": [ 120.976072148418027, 14.305771538141128 ] } },
{ "type": "Feature", "properties": { "fid": 7, "id": 7, "cluster_id": "153", "column": null, "row": "E" }, "geometry": { "type": "Point", "coordinates": [ 120.976081123103441, 14.305772099058967 ] } },
{ "type": "Feature", "properties": { "fid": 8, "id": 8, "cluster_id": "153", "column": null, "row": "E" }, "geometry": { "type": "Point", "coordinates": [ 120.976089536871015, 14.305773220894643 ] } },
{ "type": "Feature", "properties": { "fid": 9, "id": 9, "cluster_id": "153", "column": null, "row": "E" }, "geometry": { "type": "Point", "coordinates": [ 120.97609963339211, 14.305775464565995 ] } },
{ "type": "Feature", "properties": { "fid": 10, "id": 10, "cluster_id": "153", "column": null, "row": "E" }, "geometry": { "type": "Point", "coordinates": [ 120.97610972991319, 14.305775464565995 ] } },
{ "type": "Feature", "properties": { "fid": 11, "id": 11, "cluster_id": "153", "column": null, "row": "E" }, "geometry": { "type": "Point", "coordinates": [ 120.976117021845084, 14.305776586401672 ] } },
{ "type": "Feature", "properties": { "fid": 12, "id": 12, "cluster_id": "153", "column": null, "row": "E" }, "geometry": { "type": "Point", "coordinates": [ 120.976127118366179, 14.305781634662216 ] } },
{ "type": "Feature", "properties": { "fid": 13, "id": 13, "cluster_id": "153", "column": null, "row": "E" }, "geometry": { "type": "Point", "coordinates": [ 120.976136093051593, 14.305778269155187 ] } },
{ "type": "Feature", "properties": { "fid": 14, "id": 14, "cluster_id": "153", "column": null, "row": "E" }, "geometry": { "type": "Point", "coordinates": [ 120.976143945901327, 14.305778830073026 ] } },
{ "type": "Feature", "properties": { "fid": 15, "id": 15, "cluster_id": "153", "column": null, "row": "E" }, "geometry": { "type": "Point", "coordinates": [ 120.976150115997541, 14.305782756497893 ] } },
{ "type": "Feature", "properties": { "fid": 16, "id": 16, "cluster_id": "153", "column": null, "row": "E" }, "geometry": { "type": "Point", "coordinates": [ 120.976159651600796, 14.30577714731951 ] } },
{ "type": "Feature", "properties": { "fid": 17, "id": 17, "cluster_id": "153", "column": null, "row": "E" }, "geometry": { "type": "Point", "coordinates": [ 120.97616806536837, 14.305783878333569 ] } },
{ "type": "Feature", "properties": { "fid": 18, "id": 18, "cluster_id": "153", "column": null, "row": "E" }, "geometry": { "type": "Point", "coordinates": [ 120.97617816188945, 14.305783878333569 ] } },
{ "type": "Feature", "properties": { "fid": 19, "id": 19, "cluster_id": "153", "column": null, "row": "E" }, "geometry": { "type": "Point", "coordinates": [ 120.976189941164051, 14.305778830073026 ] } },
{ "type": "Feature", "properties": { "fid": 20, "id": 20, "cluster_id": "153", "column": null, "row": "E" }, "geometry": { "type": "Point", "coordinates": [ 120.976196111260279, 14.305782756497893 ] } },
{ "type": "Feature", "properties": { "fid": 21, "id": 21, "cluster_id": "153", "column": null, "row": "E" }, "geometry": { "type": "Point", "coordinates": [ 120.976202842274333, 14.30578668292276 ] } },
{ "type": "Feature", "properties": { "fid": 22, "id": 22, "cluster_id": "153", "column": null, "row": "E" }, "geometry": { "type": "Point", "coordinates": [ 120.976210134206227, 14.305784439251408 ] } },
{ "type": "Feature", "properties": { "fid": 23, "id": 23, "cluster_id": "153", "column": null, "row": "E" }, "geometry": { "type": "Point", "coordinates": [ 120.976220791645162, 14.305783317415731 ] } },
{ "type": "Feature", "properties": { "fid": 24, "id": 24, "cluster_id": "153", "column": null, "row": "E" }, "geometry": { "type": "Point", "coordinates": [ 120.976226961741375, 14.305785561087083 ] } },
{ "type": "Feature", "properties": { "fid": 25, "id": 25, "cluster_id": "153", "column": null, "row": "E" }, "geometry": { "type": "Point", "coordinates": [ 120.976233692755429, 14.305787243840598 ] } },
{ "type": "Feature", "properties": { "fid": 26, "id": 26, "cluster_id": "153", "column": null, "row": "E" }, "geometry": { "type": "Point", "coordinates": [ 120.976243789276523, 14.305787243840598 ] } },
{ "type": "Feature", "properties": { "fid": 27, "id": 27, "cluster_id": "153", "column": null, "row": "E" }, "geometry": { "type": "Point", "coordinates": [ 120.976255007633284, 14.305790609347627 ] } },
{ "type": "Feature", "properties": { "fid": 28, "id": 28, "cluster_id": "153", "column": null, "row": "E" }, "geometry": { "type": "Point", "coordinates": [ 120.976261738647352, 14.30579004842979 ] } },
{ "type": "Feature", "properties": { "fid": 29, "id": 29, "cluster_id": "153", "column": null, "row": "E" }, "geometry": { "type": "Point", "coordinates": [ 120.976270152414912, 14.305789487511952 ] } },
{ "type": "Feature", "properties": { "fid": 30, "id": 30, "cluster_id": "153", "column": null, "row": "E" }, "geometry": { "type": "Point", "coordinates": [ 120.976281370771687, 14.305791731183303 ] } },
{ "type": "Feature", "properties": { "fid": 31, "id": 31, "cluster_id": "153", "column": null, "row": "E" }, "geometry": { "type": "Point", "coordinates": [ 120.976289223621421, 14.305793413936819 ] } },
{ "type": "Feature", "properties": { "fid": 32, "id": 32, "cluster_id": "153", "column": null, "row": "E" }, "geometry": { "type": "Point", "coordinates": [ 120.976297637388996, 14.305793974854657 ] } },
{ "type": "Feature", "properties": { "fid": 33, "id": 33, "cluster_id": "153", "column": null, "row": "E" }, "geometry": { "type": "Point", "coordinates": [ 120.976307172992236, 14.305793974854657 ] } },
{ "type": "Feature", "properties": { "fid": 34, "id": 34, "cluster_id": "153", "column": null, "row": "E" }, "geometry": { "type": "Point", "coordinates": [ 120.97631558675981, 14.30579285301898 ] } },
{ "type": "Feature", "properties": { "fid": 35, "id": 35, "cluster_id": "153", "column": null, "row": "E" }, "geometry": { "type": "Point", "coordinates": [ 120.976321195938198, 14.305795657608172 ] } },
{ "type": "Feature", "properties": { "fid": 36, "id": 36, "cluster_id": "153", "column": null, "row": "E" }, "geometry": { "type": "Point", "coordinates": [ 120.976330731541438, 14.305796218526009 ] } }
]
}
