{
"type": "FeatureCollection",
"name": "cltr-id-146-c-row",
"crs": { "type": "name", "properties": { "name": "urn:ogc:def:crs:OGC:1.3:CRS84" } },
"features": [
{ "type": "Feature", "properties": { "fid": 1, "id": 1, "cluster_id": "146", "column": null, "row": "C" }, "geometry": { "type": "Point", "coordinates": [ 120.976062824361023, 14.305400200264042 ] } },
{ "type": "Feature", "properties": { "fid": 2, "id": 2, "cluster_id": "146", "column": null, "row": "C" }, "geometry": { "type": "Point", "coordinates": [ 120.976071238128597, 14.305401322099717 ] } },
{ "type": "Feature", "properties": { "fid": 3, "id": 3, "cluster_id": "146", "column": null, "row": "C" }, "geometry": { "type": "Point", "coordinates": [ 120.976079090978331, 14.305401322099717 ] } },
{ "type": "Feature", "properties": { "fid": 4, "id": 4, "cluster_id": "146", "column": null, "row": "C" }, "geometry": { "type": "Point", "coordinates": [ 120.976087504745905, 14.305401883017556 ] } },
{ "type": "Feature", "properties": { "fid": 5, "id": 5, "cluster_id": "146", "column": null, "row": "C" }, "geometry": { "type": "Point", "coordinates": [ 120.976094796677799, 14.305401883017556 ] } },
{ "type": "Feature", "properties": { "fid": 6, "id": 6, "cluster_id": "146", "column": null, "row": "C" }, "geometry": { "type": "Point", "coordinates": [ 120.976102088609707, 14.305401883017556 ] } },
{ "type": "Feature", "properties": { "fid": 7, "id": 7, "cluster_id": "146", "column": null, "row": "C" }, "geometry": { "type": "Point", "coordinates": [ 120.976109380541601, 14.305404126688909 ] } },
{ "type": "Feature", "properties": { "fid": 8, "id": 8, "cluster_id": "146", "column": null, "row": "C" }, "geometry": { "type": "Point", "coordinates": [ 120.976117233391335, 14.305404687606748 ] } },
{ "type": "Feature", "properties": { "fid": 9, "id": 9, "cluster_id": "146", "column": null, "row": "C" }, "geometry": { "type": "Point", "coordinates": [ 120.976126208076749, 14.305405248524586 ] } },
{ "type": "Feature", "properties": { "fid": 10, "id": 10, "cluster_id": "146", "column": null, "row": "C" }, "geometry": { "type": "Point", "coordinates": [ 120.976133500008643, 14.305405809442425 ] } },
{ "type": "Feature", "properties": { "fid": 11, "id": 11, "cluster_id": "146", "column": null, "row": "C" }, "geometry": { "type": "Point", "coordinates": [ 120.976142474694058, 14.305408614031615 ] } },
{ "type": "Feature", "properties": { "fid": 12, "id": 12, "cluster_id": "146", "column": null, "row": "C" }, "geometry": { "type": "Point", "coordinates": [ 120.976149766625952, 14.305407492195938 ] } },
{ "type": "Feature", "properties": { "fid": 13, "id": 13, "cluster_id": "146", "column": null, "row": "C" }, "geometry": { "type": "Point", "coordinates": [ 120.976157619475686, 14.305408053113776 ] } },
{ "type": "Feature", "properties": { "fid": 14, "id": 14, "cluster_id": "146", "column": null, "row": "C" }, "geometry": { "type": "Point", "coordinates": [ 120.976168276914606, 14.305408614031615 ] } },
{ "type": "Feature", "properties": { "fid": 15, "id": 15, "cluster_id": "146", "column": null, "row": "C" }, "geometry": { "type": "Point", "coordinates": [ 120.97617612976434, 14.305409735867292 ] } },
{ "type": "Feature", "properties": { "fid": 16, "id": 16, "cluster_id": "146", "column": null, "row": "C" }, "geometry": { "type": "Point", "coordinates": [ 120.976187348121115, 14.305409735867292 ] } },
{ "type": "Feature", "properties": { "fid": 17, "id": 17, "cluster_id": "146", "column": null, "row": "C" }, "geometry": { "type": "Point", "coordinates": [ 120.976193518217329, 14.305409735867292 ] } },
{ "type": "Feature", "properties": { "fid": 18, "id": 18, "cluster_id": "146", "column": null, "row": "C" }, "geometry": { "type": "Point", "coordinates": [ 120.976201931984903, 14.305411418620805 ] } },
{ "type": "Feature", "properties": { "fid": 19, "id": 19, "cluster_id": "146", "column": null, "row": "C" }, "geometry": { "type": "Point", "coordinates": [ 120.976210345752477, 14.305411979538643 ] } },
{ "type": "Feature", "properties": { "fid": 20, "id": 20, "cluster_id": "146", "column": null, "row": "C" }, "geometry": { "type": "Point", "coordinates": [ 120.976218198602211, 14.305411979538643 ] } },
{ "type": "Feature", "properties": { "fid": 21, "id": 21, "cluster_id": "146", "column": null, "row": "C" }, "geometry": { "type": "Point", "coordinates": [ 120.976226051451945, 14.30541310137432 ] } },
{ "type": "Feature", "properties": { "fid": 22, "id": 22, "cluster_id": "146", "column": null, "row": "C" }, "geometry": { "type": "Point", "coordinates": [ 120.97623446521952, 14.305414223209997 ] } },
{ "type": "Feature", "properties": { "fid": 23, "id": 23, "cluster_id": "146", "column": null, "row": "C" }, "geometry": { "type": "Point", "coordinates": [ 120.976242878987094, 14.305414223209997 ] } },
{ "type": "Feature", "properties": { "fid": 24, "id": 24, "cluster_id": "146", "column": null, "row": "C" }, "geometry": { "type": "Point", "coordinates": [ 120.976250731836828, 14.305415345045674 ] } },
{ "type": "Feature", "properties": { "fid": 25, "id": 25, "cluster_id": "146", "column": null, "row": "C" }, "geometry": { "type": "Point", "coordinates": [ 120.976258584686562, 14.305415345045674 ] } },
{ "type": "Feature", "properties": { "fid": 26, "id": 26, "cluster_id": "146", "column": null, "row": "C" }, "geometry": { "type": "Point", "coordinates": [ 120.976265876618456, 14.305415905963512 ] } },
{ "type": "Feature", "properties": { "fid": 27, "id": 27, "cluster_id": "146", "column": null, "row": "C" }, "geometry": { "type": "Point", "coordinates": [ 120.97627541222171, 14.305415345045674 ] } },
{ "type": "Feature", "properties": { "fid": 28, "id": 28, "cluster_id": "146", "column": null, "row": "C" }, "geometry": { "type": "Point", "coordinates": [ 120.976285508742791, 14.305417588717026 ] } },
{ "type": "Feature", "properties": { "fid": 29, "id": 29, "cluster_id": "146", "column": null, "row": "C" }, "geometry": { "type": "Point", "coordinates": [ 120.976293361592525, 14.305417588717026 ] } },
{ "type": "Feature", "properties": { "fid": 30, "id": 30, "cluster_id": "146", "column": null, "row": "C" }, "geometry": { "type": "Point", "coordinates": [ 120.976302336277939, 14.305418149634864 ] } },
{ "type": "Feature", "properties": { "fid": 31, "id": 31, "cluster_id": "146", "column": null, "row": "C" }, "geometry": { "type": "Point", "coordinates": [ 120.97631187188118, 14.305419271470541 ] } },
{ "type": "Feature", "properties": { "fid": 32, "id": 32, "cluster_id": "146", "column": null, "row": "C" }, "geometry": { "type": "Point", "coordinates": [ 120.976321968402274, 14.305420393306218 ] } },
{ "type": "Feature", "properties": { "fid": 33, "id": 33, "cluster_id": "146", "column": null, "row": "C" }, "geometry": { "type": "Point", "coordinates": [ 120.976332064923355, 14.305422636977571 ] } },
{ "type": "Feature", "properties": { "fid": 34, "id": 34, "cluster_id": "146", "column": null, "row": "C" }, "geometry": { "type": "Point", "coordinates": [ 120.976344405115796, 14.305422076059733 ] } },
{ "type": "Feature", "properties": { "fid": 35, "id": 35, "cluster_id": "146", "column": null, "row": "C" }, "geometry": { "type": "Point", "coordinates": [ 120.976363744621253, 14.305422203760973 ] } },
{ "type": "Feature", "properties": { "fid": 36, "id": 36, "cluster_id": "146", "column": null, "row": "C" }, "geometry": { "type": "Point", "coordinates": [ 120.976364305539093, 14.30541322907556 ] } }
]
}
