{
    "type": "FeatureCollection",
    "name": "cltr-id-158-c-row",
    "crs": {
        "type": "name",
        "properties": { "name": "urn:ogc:def:crs:OGC:1.3:CRS84" }
    },
    "features": [
        {
            "type": "Feature",
            "properties": {
                "fid": 1,
                "id": 1,
                "cluster_id": "158",
                "column": null,
                "row": "C"
            },
            "geometry": {
                "type": "Point",
                "coordinates": [120.976377489146813, 14.305701281985298]
            }
        },
        {
            "type": "Feature",
            "properties": {
                "fid": 2,
                "id": 2,
                "cluster_id": "158",
                "column": null,
                "row": "C"
            },
            "geometry": {
                "type": "Point",
                "coordinates": [120.976387028565824, 14.305701493972387]
            }
        },
        {
            "type": "Feature",
            "properties": {
                "fid": 3,
                "id": 3,
                "cluster_id": "158",
                "column": null,
                "row": "C"
            },
            "geometry": {
                "type": "Point",
                "coordinates": [120.976398475868649, 14.305701493972387]
            }
        },
        {
            "type": "Feature",
            "properties": {
                "fid": 4,
                "id": 4,
                "cluster_id": "158",
                "column": null,
                "row": "C"
            },
            "geometry": {
                "type": "Point",
                "coordinates": [120.976407591313489, 14.305702341920744]
            }
        },
        {
            "type": "Feature",
            "properties": {
                "fid": 5,
                "id": 5,
                "cluster_id": "158",
                "column": null,
                "row": "C"
            },
            "geometry": {
                "type": "Point",
                "coordinates": [120.976415434835786, 14.30570361384328]
            }
        },
        {
            "type": "Feature",
            "properties": {
                "fid": 6,
                "id": 6,
                "cluster_id": "158",
                "column": null,
                "row": "C"
            },
            "geometry": {
                "type": "Point",
                "coordinates": [120.976424550280626, 14.305704461791636]
            }
        },
        {
            "type": "Feature",
            "properties": {
                "fid": 7,
                "id": 7,
                "cluster_id": "158",
                "column": null,
                "row": "C"
            },
            "geometry": {
                "type": "Point",
                "coordinates": [120.976432393802938, 14.305705521727083]
            }
        },
        {
            "type": "Feature",
            "properties": {
                "fid": 8,
                "id": 8,
                "cluster_id": "158",
                "column": null,
                "row": "C"
            },
            "geometry": {
                "type": "Point",
                "coordinates": [120.976442781170306, 14.305705097752904]
            }
        },
        {
            "type": "Feature",
            "properties": {
                "fid": 9,
                "id": 9,
                "cluster_id": "158",
                "column": null,
                "row": "C"
            },
            "geometry": {
                "type": "Point",
                "coordinates": [120.976451472640974, 14.305705945701261]
            }
        },
        {
            "type": "Feature",
            "properties": {
                "fid": 10,
                "id": 10,
                "cluster_id": "158",
                "column": null,
                "row": "C"
            },
            "geometry": {
                "type": "Point",
                "coordinates": [120.976460376098714, 14.305706581662529]
            }
        },
        {
            "type": "Feature",
            "properties": {
                "fid": 11,
                "id": 11,
                "cluster_id": "158",
                "column": null,
                "row": "C"
            },
            "geometry": {
                "type": "Point",
                "coordinates": [120.97646779564684, 14.305707641597976]
            }
        },
        {
            "type": "Feature",
            "properties": {
                "fid": 12,
                "id": 12,
                "cluster_id": "158",
                "column": null,
                "row": "C"
            },
            "geometry": {
                "type": "Point",
                "coordinates": [120.976476487117509, 14.305708489546333]
            }
        },
        {
            "type": "Feature",
            "properties": {
                "fid": 13,
                "id": 13,
                "cluster_id": "158",
                "column": null,
                "row": "C"
            },
            "geometry": {
                "type": "Point",
                "coordinates": [120.976484966601078, 14.305708065572155]
            }
        },
        {
            "type": "Feature",
            "properties": {
                "fid": 14,
                "id": 14,
                "cluster_id": "158",
                "column": null,
                "row": "C"
            },
            "geometry": {
                "type": "Point",
                "coordinates": [120.976489206342862, 14.305702341920744]
            }
        },
        {
            "type": "Feature",
            "properties": {
                "fid": 15,
                "id": 15,
                "cluster_id": "158",
                "column": null,
                "row": "C"
            },
            "geometry": {
                "type": "Point",
                "coordinates": [120.976489842304133, 14.305695346346797]
            }
        }
    ]
}
