{
"type": "FeatureCollection",
"name": "cltr-id-194-e-row",
"crs": { "type": "name", "properties": { "name": "urn:ogc:def:crs:OGC:1.3:CRS84" } },
"features": [
{ "type": "Feature", "properties": { "fid": 1, "id": 1, "cluster_id": "194", "column": null, "row": "E" }, "geometry": { "type": "Point", "coordinates": [ 120.976736035997064, 14.305708998306251 ] } },
{ "type": "Feature", "properties": { "fid": 2, "id": 2, "cluster_id": "194", "column": null, "row": "E" }, "geometry": { "type": "Point", "coordinates": [ 120.976746312813177, 14.305713866271775 ] } },
{ "type": "Feature", "properties": { "fid": 3, "id": 3, "cluster_id": "194", "column": null, "row": "E" }, "geometry": { "type": "Point", "coordinates": [ 120.976757130514329, 14.305716570697065 ] } },
{ "type": "Feature", "properties": { "fid": 4, "id": 4, "cluster_id": "194", "column": null, "row": "E" }, "geometry": { "type": "Point", "coordinates": [ 120.976769570870673, 14.305721438662589 ] } },
{ "type": "Feature", "properties": { "fid": 5, "id": 5, "cluster_id": "194", "column": null, "row": "E" }, "geometry": { "type": "Point", "coordinates": [ 120.97678255211207, 14.305720897777531 ] } },
{ "type": "Feature", "properties": { "fid": 6, "id": 6, "cluster_id": "194", "column": null, "row": "E" }, "geometry": { "type": "Point", "coordinates": [ 120.976793369813237, 14.305724683972938 ] } },
{ "type": "Feature", "properties": { "fid": 7, "id": 7, "cluster_id": "194", "column": null, "row": "E" }, "geometry": { "type": "Point", "coordinates": [ 120.976809596364987, 14.305728470168347 ] } },
{ "type": "Feature", "properties": { "fid": 8, "id": 8, "cluster_id": "194", "column": null, "row": "E" }, "geometry": { "type": "Point", "coordinates": [ 120.976818250525909, 14.305725765743055 ] } },
{ "type": "Feature", "properties": { "fid": 9, "id": 9, "cluster_id": "194", "column": null, "row": "E" }, "geometry": { "type": "Point", "coordinates": [ 120.976827445571899, 14.305726847513172 ] } },
{ "type": "Feature", "properties": { "fid": 10, "id": 10, "cluster_id": "194", "column": null, "row": "E" }, "geometry": { "type": "Point", "coordinates": [ 120.976837181502944, 14.305727929283288 ] } },
{ "type": "Feature", "properties": { "fid": 11, "id": 11, "cluster_id": "194", "column": null, "row": "E" }, "geometry": { "type": "Point", "coordinates": [ 120.976848540089179, 14.305728470168347 ] } },
{ "type": "Feature", "properties": { "fid": 12, "id": 12, "cluster_id": "194", "column": null, "row": "E" }, "geometry": { "type": "Point", "coordinates": [ 120.976856112479993, 14.305730092823522 ] } },
{ "type": "Feature", "properties": { "fid": 13, "id": 13, "cluster_id": "194", "column": null, "row": "E" }, "geometry": { "type": "Point", "coordinates": [ 120.976864766640915, 14.305732797248812 ] } },
{ "type": "Feature", "properties": { "fid": 14, "id": 14, "cluster_id": "194", "column": null, "row": "E" }, "geometry": { "type": "Point", "coordinates": [ 120.976874502571974, 14.305729551938462 ] } },
{ "type": "Feature", "properties": { "fid": 15, "id": 15, "cluster_id": "194", "column": null, "row": "E" }, "geometry": { "type": "Point", "coordinates": [ 120.976882615847842, 14.305734419903986 ] } },
{ "type": "Feature", "properties": { "fid": 16, "id": 16, "cluster_id": "194", "column": null, "row": "E" }, "geometry": { "type": "Point", "coordinates": [ 120.976894515319117, 14.305736042559161 ] } },
{ "type": "Feature", "properties": { "fid": 17, "id": 17, "cluster_id": "194", "column": null, "row": "E" }, "geometry": { "type": "Point", "coordinates": [ 120.976902628594999, 14.305735501674103 ] } },
{ "type": "Feature", "properties": { "fid": 18, "id": 18, "cluster_id": "194", "column": null, "row": "E" }, "geometry": { "type": "Point", "coordinates": [ 120.976908037445583, 14.305737665214336 ] } },
{ "type": "Feature", "properties": { "fid": 19, "id": 19, "cluster_id": "194", "column": null, "row": "E" }, "geometry": { "type": "Point", "coordinates": [ 120.976919936916858, 14.305737124329278 ] } },
{ "type": "Feature", "properties": { "fid": 20, "id": 20, "cluster_id": "194", "column": null, "row": "E" }, "geometry": { "type": "Point", "coordinates": [ 120.976931836388133, 14.305740369639627 ] } },
{ "type": "Feature", "properties": { "fid": 21, "id": 21, "cluster_id": "194", "column": null, "row": "E" }, "geometry": { "type": "Point", "coordinates": [ 120.976941572319191, 14.30573928786951 ] } },
{ "type": "Feature", "properties": { "fid": 22, "id": 22, "cluster_id": "194", "column": null, "row": "E" }, "geometry": { "type": "Point", "coordinates": [ 120.976951308250236, 14.30573928786951 ] } },
{ "type": "Feature", "properties": { "fid": 23, "id": 23, "cluster_id": "194", "column": null, "row": "E" }, "geometry": { "type": "Point", "coordinates": [ 120.976959421526104, 14.305740369639627 ] } },
{ "type": "Feature", "properties": { "fid": 24, "id": 24, "cluster_id": "194", "column": null, "row": "E" }, "geometry": { "type": "Point", "coordinates": [ 120.976974025422678, 14.305744696720092 ] } },
{ "type": "Feature", "properties": { "fid": 25, "id": 25, "cluster_id": "194", "column": null, "row": "E" }, "geometry": { "type": "Point", "coordinates": [ 120.976977811618085, 14.305744696720092 ] } },
{ "type": "Feature", "properties": { "fid": 26, "id": 26, "cluster_id": "194", "column": null, "row": "E" }, "geometry": { "type": "Point", "coordinates": [ 120.976985384008898, 14.305746319375267 ] } },
{ "type": "Feature", "properties": { "fid": 27, "id": 27, "cluster_id": "194", "column": null, "row": "E" }, "geometry": { "type": "Point", "coordinates": [ 120.976994579054889, 14.305745237605151 ] } },
{ "type": "Feature", "properties": { "fid": 28, "id": 28, "cluster_id": "194", "column": null, "row": "E" }, "geometry": { "type": "Point", "coordinates": [ 120.977005396756056, 14.305748482915501 ] } },
{ "type": "Feature", "properties": { "fid": 29, "id": 29, "cluster_id": "194", "column": null, "row": "E" }, "geometry": { "type": "Point", "coordinates": [ 120.977012428261816, 14.305748482915501 ] } },
{ "type": "Feature", "properties": { "fid": 30, "id": 30, "cluster_id": "194", "column": null, "row": "E" }, "geometry": { "type": "Point", "coordinates": [ 120.977019459767575, 14.305749564685616 ] } },
{ "type": "Feature", "properties": { "fid": 31, "id": 31, "cluster_id": "194", "column": null, "row": "E" }, "geometry": { "type": "Point", "coordinates": [ 120.977027573043443, 14.305755514421257 ] } },
{ "type": "Feature", "properties": { "fid": 32, "id": 32, "cluster_id": "194", "column": null, "row": "E" }, "geometry": { "type": "Point", "coordinates": [ 120.977024327733091, 14.305746319375267 ] } },
{ "type": "Feature", "properties": { "fid": 33, "id": 33, "cluster_id": "194", "column": null, "row": "E" }, "geometry": { "type": "Point", "coordinates": [ 120.977024327733091, 14.30573928786951 ] } }
]
}
