{
"type": "FeatureCollection",
"name": "cltr-id-192-e-row",
"crs": { "type": "name", "properties": { "name": "urn:ogc:def:crs:OGC:1.3:CRS84" } },
"features": [
{ "type": "Feature", "properties": { "fid": 1, "id": 1, "cluster_id": "192", "column": null, "row": "E" }, "geometry": { "type": "Point", "coordinates": [ 120.976737388209784, 14.305582160760107 ] } },
{ "type": "Feature", "properties": { "fid": 2, "id": 2, "cluster_id": "192", "column": null, "row": "E" }, "geometry": { "type": "Point", "coordinates": [ 120.976746042370706, 14.305580538104932 ] } },
{ "type": "Feature", "properties": { "fid": 3, "id": 3, "cluster_id": "192", "column": null, "row": "E" }, "geometry": { "type": "Point", "coordinates": [ 120.976753344318993, 14.305582160760107 ] } },
{ "type": "Feature", "properties": { "fid": 4, "id": 4, "cluster_id": "192", "column": null, "row": "E" }, "geometry": { "type": "Point", "coordinates": [ 120.976762539364984, 14.305583242530222 ] } },
{ "type": "Feature", "properties": { "fid": 5, "id": 5, "cluster_id": "192", "column": null, "row": "E" }, "geometry": { "type": "Point", "coordinates": [ 120.97677119352592, 14.305585135627927 ] } },
{ "type": "Feature", "properties": { "fid": 6, "id": 6, "cluster_id": "192", "column": null, "row": "E" }, "geometry": { "type": "Point", "coordinates": [ 120.97678038857191, 14.305586217398043 ] } },
{ "type": "Feature", "properties": { "fid": 7, "id": 7, "cluster_id": "192", "column": null, "row": "E" }, "geometry": { "type": "Point", "coordinates": [ 120.976788772290305, 14.305588651380805 ] } },
{ "type": "Feature", "properties": { "fid": 8, "id": 8, "cluster_id": "192", "column": null, "row": "E" }, "geometry": { "type": "Point", "coordinates": [ 120.976799319548945, 14.305587840053217 ] } },
{ "type": "Feature", "properties": { "fid": 9, "id": 9, "cluster_id": "192", "column": null, "row": "E" }, "geometry": { "type": "Point", "coordinates": [ 120.976805810169651, 14.30559000359345 ] } },
{ "type": "Feature", "properties": { "fid": 10, "id": 10, "cluster_id": "192", "column": null, "row": "E" }, "geometry": { "type": "Point", "coordinates": [ 120.97681960273863, 14.305591085363567 ] } },
{ "type": "Feature", "properties": { "fid": 11, "id": 11, "cluster_id": "192", "column": null, "row": "E" }, "geometry": { "type": "Point", "coordinates": [ 120.976830420439796, 14.305592437576212 ] } },
{ "type": "Feature", "properties": { "fid": 12, "id": 12, "cluster_id": "192", "column": null, "row": "E" }, "geometry": { "type": "Point", "coordinates": [ 120.976840967698436, 14.305594601116445 ] } },
{ "type": "Feature", "properties": { "fid": 13, "id": 13, "cluster_id": "192", "column": null, "row": "E" }, "geometry": { "type": "Point", "coordinates": [ 120.976849351416831, 14.305595412444033 ] } },
{ "type": "Feature", "properties": { "fid": 14, "id": 14, "cluster_id": "192", "column": null, "row": "E" }, "geometry": { "type": "Point", "coordinates": [ 120.976864225755932, 14.305596764656679 ] } },
{ "type": "Feature", "properties": { "fid": 15, "id": 15, "cluster_id": "192", "column": null, "row": "E" }, "geometry": { "type": "Point", "coordinates": [ 120.976873150359395, 14.305597846426794 ] } },
{ "type": "Feature", "properties": { "fid": 16, "id": 16, "cluster_id": "192", "column": null, "row": "E" }, "geometry": { "type": "Point", "coordinates": [ 120.976887754255969, 14.305600009967028 ] } },
{ "type": "Feature", "properties": { "fid": 17, "id": 17, "cluster_id": "192", "column": null, "row": "E" }, "geometry": { "type": "Point", "coordinates": [ 120.976898842399663, 14.30559919863944 ] } },
{ "type": "Feature", "properties": { "fid": 18, "id": 18, "cluster_id": "192", "column": null, "row": "E" }, "geometry": { "type": "Point", "coordinates": [ 120.976907496560585, 14.305599739524498 ] } },
{ "type": "Feature", "properties": { "fid": 19, "id": 19, "cluster_id": "192", "column": null, "row": "E" }, "geometry": { "type": "Point", "coordinates": [ 120.976913987181291, 14.30560217350726 ] } },
{ "type": "Feature", "properties": { "fid": 20, "id": 20, "cluster_id": "192", "column": null, "row": "E" }, "geometry": { "type": "Point", "coordinates": [ 120.976922911784754, 14.30560217350726 ] } },
{ "type": "Feature", "properties": { "fid": 21, "id": 21, "cluster_id": "192", "column": null, "row": "E" }, "geometry": { "type": "Point", "coordinates": [ 120.976936704353733, 14.305602443949789 ] } },
{ "type": "Feature", "properties": { "fid": 22, "id": 22, "cluster_id": "192", "column": null, "row": "E" }, "geometry": { "type": "Point", "coordinates": [ 120.976948062939954, 14.305603255277378 ] } },
{ "type": "Feature", "properties": { "fid": 23, "id": 23, "cluster_id": "192", "column": null, "row": "E" }, "geometry": { "type": "Point", "coordinates": [ 120.976958610198594, 14.305604607490022 ] } },
{ "type": "Feature", "properties": { "fid": 24, "id": 24, "cluster_id": "192", "column": null, "row": "E" }, "geometry": { "type": "Point", "coordinates": [ 120.976964019049177, 14.30560541881761 ] } },
{ "type": "Feature", "properties": { "fid": 25, "id": 25, "cluster_id": "192", "column": null, "row": "E" }, "geometry": { "type": "Point", "coordinates": [ 120.976972132325045, 14.305605959702667 ] } },
{ "type": "Feature", "properties": { "fid": 26, "id": 26, "cluster_id": "192", "column": null, "row": "E" }, "geometry": { "type": "Point", "coordinates": [ 120.976977541175629, 14.30560541881761 ] } },
{ "type": "Feature", "properties": { "fid": 27, "id": 27, "cluster_id": "192", "column": null, "row": "E" }, "geometry": { "type": "Point", "coordinates": [ 120.976984843123915, 14.305606500587725 ] } },
{ "type": "Feature", "properties": { "fid": 28, "id": 28, "cluster_id": "192", "column": null, "row": "E" }, "geometry": { "type": "Point", "coordinates": [ 120.976989440646904, 14.305607311915313 ] } },
{ "type": "Feature", "properties": { "fid": 29, "id": 29, "cluster_id": "192", "column": null, "row": "E" }, "geometry": { "type": "Point", "coordinates": [ 120.97699674259519, 14.30560839368543 ] } },
{ "type": "Feature", "properties": { "fid": 30, "id": 30, "cluster_id": "192", "column": null, "row": "E" }, "geometry": { "type": "Point", "coordinates": [ 120.977002151445774, 14.30560839368543 ] } },
{ "type": "Feature", "properties": { "fid": 31, "id": 31, "cluster_id": "192", "column": null, "row": "E" }, "geometry": { "type": "Point", "coordinates": [ 120.977007830738884, 14.305607852800371 ] } },
{ "type": "Feature", "properties": { "fid": 32, "id": 32, "cluster_id": "192", "column": null, "row": "E" }, "geometry": { "type": "Point", "coordinates": [ 120.977013239589468, 14.305609475455546 ] } },
{ "type": "Feature", "properties": { "fid": 33, "id": 33, "cluster_id": "192", "column": null, "row": "E" }, "geometry": { "type": "Point", "coordinates": [ 120.977020811980282, 14.305609205013017 ] } },
{ "type": "Feature", "properties": { "fid": 34, "id": 34, "cluster_id": "192", "column": null, "row": "E" }, "geometry": { "type": "Point", "coordinates": [ 120.977030007026272, 14.305610557225663 ] } },
{ "type": "Feature", "properties": { "fid": 35, "id": 35, "cluster_id": "192", "column": null, "row": "E" }, "geometry": { "type": "Point", "coordinates": [ 120.977036497646978, 14.30561163899578 ] } },
{ "type": "Feature", "properties": { "fid": 36, "id": 36, "cluster_id": "192", "column": null, "row": "E" }, "geometry": { "type": "Point", "coordinates": [ 120.977046504020549, 14.305611909438309 ] } },
{ "type": "Feature", "properties": { "fid": 37, "id": 37, "cluster_id": "192", "column": null, "row": "E" }, "geometry": { "type": "Point", "coordinates": [ 120.977054887738959, 14.305611909438309 ] } },
{ "type": "Feature", "properties": { "fid": 38, "id": 38, "cluster_id": "192", "column": null, "row": "E" }, "geometry": { "type": "Point", "coordinates": [ 120.977062460129773, 14.305614884306129 ] } },
{ "type": "Feature", "properties": { "fid": 39, "id": 39, "cluster_id": "192", "column": null, "row": "E" }, "geometry": { "type": "Point", "coordinates": [ 120.977073818715994, 14.305615154748658 ] } },
{ "type": "Feature", "properties": { "fid": 40, "id": 40, "cluster_id": "192", "column": null, "row": "E" }, "geometry": { "type": "Point", "coordinates": [ 120.977073818715994, 14.305610827668191 ] } }
]
}
