{
"type": "FeatureCollection",
"name": "cltr-id-190-e-row",
"crs": { "type": "name", "properties": { "name": "urn:ogc:def:crs:OGC:1.3:CRS84" } },
"features": [
{ "type": "Feature", "properties": { "fid": 1, "id": 1, "cluster_id": "190", "column": null, "row": "E" }, "geometry": { "type": "Point", "coordinates": [ 120.976781876005887, 14.305450184805899 ] } },
{ "type": "Feature", "properties": { "fid": 2, "id": 2, "cluster_id": "190", "column": null, "row": "E" }, "geometry": { "type": "Point", "coordinates": [ 120.976789448396701, 14.305452348346133 ] } },
{ "type": "Feature", "properties": { "fid": 3, "id": 3, "cluster_id": "190", "column": null, "row": "E" }, "geometry": { "type": "Point", "coordinates": [ 120.976796479902461, 14.305453430116248 ] } },
{ "type": "Feature", "properties": { "fid": 4, "id": 4, "cluster_id": "190", "column": null, "row": "E" }, "geometry": { "type": "Point", "coordinates": [ 120.976806756718574, 14.305455593656482 ] } },
{ "type": "Feature", "properties": { "fid": 5, "id": 5, "cluster_id": "190", "column": null, "row": "E" }, "geometry": { "type": "Point", "coordinates": [ 120.976817033534672, 14.30545883896683 ] } },
{ "type": "Feature", "properties": { "fid": 6, "id": 6, "cluster_id": "190", "column": null, "row": "E" }, "geometry": { "type": "Point", "coordinates": [ 120.976825687695609, 14.305459379851889 ] } },
{ "type": "Feature", "properties": { "fid": 7, "id": 7, "cluster_id": "190", "column": null, "row": "E" }, "geometry": { "type": "Point", "coordinates": [ 120.976836505396776, 14.305460461622005 ] } },
{ "type": "Feature", "properties": { "fid": 8, "id": 8, "cluster_id": "190", "column": null, "row": "E" }, "geometry": { "type": "Point", "coordinates": [ 120.976851109293335, 14.305460461622005 ] } },
{ "type": "Feature", "properties": { "fid": 9, "id": 9, "cluster_id": "190", "column": null, "row": "E" }, "geometry": { "type": "Point", "coordinates": [ 120.976859763454272, 14.305466411357646 ] } },
{ "type": "Feature", "properties": { "fid": 10, "id": 10, "cluster_id": "190", "column": null, "row": "E" }, "geometry": { "type": "Point", "coordinates": [ 120.976872744695669, 14.305465870472588 ] } },
{ "type": "Feature", "properties": { "fid": 11, "id": 11, "cluster_id": "190", "column": null, "row": "E" }, "geometry": { "type": "Point", "coordinates": [ 120.976881398856605, 14.305465329587529 ] } },
{ "type": "Feature", "properties": { "fid": 12, "id": 12, "cluster_id": "190", "column": null, "row": "E" }, "geometry": { "type": "Point", "coordinates": [ 120.97689329832788, 14.30546803401282 ] } },
{ "type": "Feature", "properties": { "fid": 13, "id": 13, "cluster_id": "190", "column": null, "row": "E" }, "geometry": { "type": "Point", "coordinates": [ 120.976907902224454, 14.305468574897878 ] } },
{ "type": "Feature", "properties": { "fid": 14, "id": 14, "cluster_id": "190", "column": null, "row": "E" }, "geometry": { "type": "Point", "coordinates": [ 120.976918179040567, 14.30546803401282 ] } },
{ "type": "Feature", "properties": { "fid": 15, "id": 15, "cluster_id": "190", "column": null, "row": "E" }, "geometry": { "type": "Point", "coordinates": [ 120.976928455856665, 14.30546803401282 ] } },
{ "type": "Feature", "properties": { "fid": 16, "id": 16, "cluster_id": "190", "column": null, "row": "E" }, "geometry": { "type": "Point", "coordinates": [ 120.976937110017602, 14.305468574897878 ] } },
{ "type": "Feature", "properties": { "fid": 17, "id": 17, "cluster_id": "190", "column": null, "row": "E" }, "geometry": { "type": "Point", "coordinates": [ 120.976950091258999, 14.305473983748461 ] } },
{ "type": "Feature", "properties": { "fid": 18, "id": 18, "cluster_id": "190", "column": null, "row": "E" }, "geometry": { "type": "Point", "coordinates": [ 120.976959827190043, 14.305473983748461 ] } },
{ "type": "Feature", "properties": { "fid": 19, "id": 19, "cluster_id": "190", "column": null, "row": "E" }, "geometry": { "type": "Point", "coordinates": [ 120.976970104006142, 14.305474524633519 ] } },
{ "type": "Feature", "properties": { "fid": 20, "id": 20, "cluster_id": "190", "column": null, "row": "E" }, "geometry": { "type": "Point", "coordinates": [ 120.976979299052132, 14.305476147288694 ] } },
{ "type": "Feature", "properties": { "fid": 21, "id": 21, "cluster_id": "190", "column": null, "row": "E" }, "geometry": { "type": "Point", "coordinates": [ 120.976990116753299, 14.305478310828926 ] } },
{ "type": "Feature", "properties": { "fid": 22, "id": 22, "cluster_id": "190", "column": null, "row": "E" }, "geometry": { "type": "Point", "coordinates": [ 120.976998230029182, 14.305479933484101 ] } },
{ "type": "Feature", "properties": { "fid": 23, "id": 23, "cluster_id": "190", "column": null, "row": "E" }, "geometry": { "type": "Point", "coordinates": [ 120.977007425075172, 14.305478851713985 ] } },
{ "type": "Feature", "properties": { "fid": 24, "id": 24, "cluster_id": "190", "column": null, "row": "E" }, "geometry": { "type": "Point", "coordinates": [ 120.977016079236094, 14.305479933484101 ] } },
{ "type": "Feature", "properties": { "fid": 25, "id": 25, "cluster_id": "190", "column": null, "row": "E" }, "geometry": { "type": "Point", "coordinates": [ 120.977025274282084, 14.305482637909392 ] } },
{ "type": "Feature", "properties": { "fid": 26, "id": 26, "cluster_id": "190", "column": null, "row": "E" }, "geometry": { "type": "Point", "coordinates": [ 120.977036091983251, 14.305481015254218 ] } },
{ "type": "Feature", "properties": { "fid": 27, "id": 27, "cluster_id": "190", "column": null, "row": "E" }, "geometry": { "type": "Point", "coordinates": [ 120.977044205259119, 14.305481556139275 ] } },
{ "type": "Feature", "properties": { "fid": 28, "id": 28, "cluster_id": "190", "column": null, "row": "E" }, "geometry": { "type": "Point", "coordinates": [ 120.977051236764879, 14.305486424104799 ] } },
{ "type": "Feature", "properties": { "fid": 29, "id": 29, "cluster_id": "190", "column": null, "row": "E" }, "geometry": { "type": "Point", "coordinates": [ 120.977057727385585, 14.305484260564567 ] } },
{ "type": "Feature", "properties": { "fid": 30, "id": 30, "cluster_id": "190", "column": null, "row": "E" }, "geometry": { "type": "Point", "coordinates": [ 120.977068004201683, 14.30548317879445 ] } },
{ "type": "Feature", "properties": { "fid": 31, "id": 31, "cluster_id": "190", "column": null, "row": "E" }, "geometry": { "type": "Point", "coordinates": [ 120.977076117477552, 14.305485883219742 ] } },
{ "type": "Feature", "properties": { "fid": 32, "id": 32, "cluster_id": "190", "column": null, "row": "E" }, "geometry": { "type": "Point", "coordinates": [ 120.977081526328135, 14.305485883219742 ] } },
{ "type": "Feature", "properties": { "fid": 33, "id": 33, "cluster_id": "190", "column": null, "row": "E" }, "geometry": { "type": "Point", "coordinates": [ 120.977088016948841, 14.305488587645032 ] } },
{ "type": "Feature", "properties": { "fid": 34, "id": 34, "cluster_id": "190", "column": null, "row": "E" }, "geometry": { "type": "Point", "coordinates": [ 120.977094507569532, 14.305488587645032 ] } },
{ "type": "Feature", "properties": { "fid": 35, "id": 35, "cluster_id": "190", "column": null, "row": "E" }, "geometry": { "type": "Point", "coordinates": [ 120.977092884914356, 14.305479392599043 ] } },
{ "type": "Feature", "properties": { "fid": 36, "id": 36, "cluster_id": "190", "column": null, "row": "E" }, "geometry": { "type": "Point", "coordinates": [ 120.977096130224709, 14.305469656667995 ] } }
]
}
