{
"type": "FeatureCollection",
"name": "cltr-id-197-b-row",
"crs": { "type": "name", "properties": { "name": "urn:ogc:def:crs:OGC:1.3:CRS84" } },
"features": [
{ "type": "Feature", "properties": { "fid": 1, "id": 1, "cluster_id": "197", "column": null, "row": "B" }, "geometry": { "type": "Point", "coordinates": [ 120.976707571920855, 14.305829953727406 ] } },
{ "type": "Feature", "properties": { "fid": 2, "id": 2, "cluster_id": "197", "column": null, "row": "B" }, "geometry": { "type": "Point", "coordinates": [ 120.976708788912248, 14.305823665938604 ] } },
{ "type": "Feature", "properties": { "fid": 3, "id": 3, "cluster_id": "197", "column": null, "row": "B" }, "geometry": { "type": "Point", "coordinates": [ 120.976717510683812, 14.305814538503244 ] } },
{ "type": "Feature", "properties": { "fid": 4, "id": 4, "cluster_id": "197", "column": null, "row": "B" }, "geometry": { "type": "Point", "coordinates": [ 120.976726435287276, 14.305814538503244 ] } },
{ "type": "Feature", "properties": { "fid": 5, "id": 5, "cluster_id": "197", "column": null, "row": "B" }, "geometry": { "type": "Point", "coordinates": [ 120.976739822192457, 14.305814132839451 ] } },
{ "type": "Feature", "properties": { "fid": 6, "id": 6, "cluster_id": "197", "column": null, "row": "B" }, "geometry": { "type": "Point", "coordinates": [ 120.976751586442475, 14.305815755494626 ] } },
{ "type": "Feature", "properties": { "fid": 7, "id": 7, "cluster_id": "197", "column": null, "row": "B" }, "geometry": { "type": "Point", "coordinates": [ 120.976761728037332, 14.305816972486006 ] } },
{ "type": "Feature", "properties": { "fid": 8, "id": 8, "cluster_id": "197", "column": null, "row": "B" }, "geometry": { "type": "Point", "coordinates": [ 120.976771058304578, 14.305817783813595 ] } },
{ "type": "Feature", "properties": { "fid": 9, "id": 9, "cluster_id": "197", "column": null, "row": "B" }, "geometry": { "type": "Point", "coordinates": [ 120.976779171580461, 14.305818189477387 ] } },
{ "type": "Feature", "properties": { "fid": 10, "id": 10, "cluster_id": "197", "column": null, "row": "B" }, "geometry": { "type": "Point", "coordinates": [ 120.976788096183924, 14.305819406468769 ] } },
{ "type": "Feature", "properties": { "fid": 11, "id": 11, "cluster_id": "197", "column": null, "row": "B" }, "geometry": { "type": "Point", "coordinates": [ 120.976799049106347, 14.30582062346015 ] } },
{ "type": "Feature", "properties": { "fid": 12, "id": 12, "cluster_id": "197", "column": null, "row": "B" }, "geometry": { "type": "Point", "coordinates": [ 120.976807973709811, 14.305821840451532 ] } },
{ "type": "Feature", "properties": { "fid": 13, "id": 13, "cluster_id": "197", "column": null, "row": "B" }, "geometry": { "type": "Point", "coordinates": [ 120.976817303977072, 14.305823057442913 ] } },
{ "type": "Feature", "properties": { "fid": 14, "id": 14, "cluster_id": "197", "column": null, "row": "B" }, "geometry": { "type": "Point", "coordinates": [ 120.976826228580535, 14.305823463106707 ] } },
{ "type": "Feature", "properties": { "fid": 15, "id": 15, "cluster_id": "197", "column": null, "row": "B" }, "geometry": { "type": "Point", "coordinates": [ 120.976835964511579, 14.305823868770499 ] } },
{ "type": "Feature", "properties": { "fid": 16, "id": 16, "cluster_id": "197", "column": null, "row": "B" }, "geometry": { "type": "Point", "coordinates": [ 120.976846106106422, 14.305825897089468 ] } },
{ "type": "Feature", "properties": { "fid": 17, "id": 17, "cluster_id": "197", "column": null, "row": "B" }, "geometry": { "type": "Point", "coordinates": [ 120.976855436373683, 14.30582711408085 ] } },
{ "type": "Feature", "properties": { "fid": 18, "id": 18, "cluster_id": "197", "column": null, "row": "B" }, "geometry": { "type": "Point", "coordinates": [ 120.976865577968525, 14.305826302753262 ] } },
{ "type": "Feature", "properties": { "fid": 19, "id": 19, "cluster_id": "197", "column": null, "row": "B" }, "geometry": { "type": "Point", "coordinates": [ 120.976874502571988, 14.305827925408437 ] } },
{ "type": "Feature", "properties": { "fid": 20, "id": 20, "cluster_id": "197", "column": null, "row": "B" }, "geometry": { "type": "Point", "coordinates": [ 120.976883021511654, 14.305828736736025 ] } },
{ "type": "Feature", "properties": { "fid": 21, "id": 21, "cluster_id": "197", "column": null, "row": "B" }, "geometry": { "type": "Point", "coordinates": [ 120.976891540451319, 14.305829142399819 ] } },
{ "type": "Feature", "properties": { "fid": 22, "id": 22, "cluster_id": "197", "column": null, "row": "B" }, "geometry": { "type": "Point", "coordinates": [ 120.976901682046162, 14.305830765054994 ] } },
{ "type": "Feature", "properties": { "fid": 23, "id": 23, "cluster_id": "197", "column": null, "row": "B" }, "geometry": { "type": "Point", "coordinates": [ 120.976910606649625, 14.305831982046374 ] } },
{ "type": "Feature", "properties": { "fid": 24, "id": 24, "cluster_id": "197", "column": null, "row": "B" }, "geometry": { "type": "Point", "coordinates": [ 120.976921559572062, 14.305831982046374 ] } },
{ "type": "Feature", "properties": { "fid": 25, "id": 25, "cluster_id": "197", "column": null, "row": "B" }, "geometry": { "type": "Point", "coordinates": [ 120.976930484175526, 14.305832387710169 ] } },
{ "type": "Feature", "properties": { "fid": 26, "id": 26, "cluster_id": "197", "column": null, "row": "B" }, "geometry": { "type": "Point", "coordinates": [ 120.976941031434151, 14.305834010365343 ] } },
{ "type": "Feature", "properties": { "fid": 27, "id": 27, "cluster_id": "197", "column": null, "row": "B" }, "geometry": { "type": "Point", "coordinates": [ 120.976951578692791, 14.305834416029137 ] } },
{ "type": "Feature", "properties": { "fid": 28, "id": 28, "cluster_id": "197", "column": null, "row": "B" }, "geometry": { "type": "Point", "coordinates": [ 120.976960097632471, 14.305835227356726 ] } },
{ "type": "Feature", "properties": { "fid": 29, "id": 29, "cluster_id": "197", "column": null, "row": "B" }, "geometry": { "type": "Point", "coordinates": [ 120.97696902223592, 14.305836038684312 ] } },
{ "type": "Feature", "properties": { "fid": 30, "id": 30, "cluster_id": "197", "column": null, "row": "B" }, "geometry": { "type": "Point", "coordinates": [ 120.976977135511802, 14.305836444348106 ] } },
{ "type": "Feature", "properties": { "fid": 31, "id": 31, "cluster_id": "197", "column": null, "row": "B" }, "geometry": { "type": "Point", "coordinates": [ 120.976984437460089, 14.305838878330869 ] } },
{ "type": "Feature", "properties": { "fid": 32, "id": 32, "cluster_id": "197", "column": null, "row": "B" }, "geometry": { "type": "Point", "coordinates": [ 120.976992956399755, 14.3058368500119 ] } },
{ "type": "Feature", "properties": { "fid": 33, "id": 33, "cluster_id": "197", "column": null, "row": "B" }, "geometry": { "type": "Point", "coordinates": [ 120.976999041356663, 14.305839689658455 ] } },
{ "type": "Feature", "properties": { "fid": 34, "id": 34, "cluster_id": "197", "column": null, "row": "B" }, "geometry": { "type": "Point", "coordinates": [ 120.977003909322192, 14.305841312313632 ] } },
{ "type": "Feature", "properties": { "fid": 35, "id": 35, "cluster_id": "197", "column": null, "row": "B" }, "geometry": { "type": "Point", "coordinates": [ 120.977011616934263, 14.305840500986044 ] } }
]
}
