{
"type": "FeatureCollection",
"name": "cltr-id-196-e-row",
"crs": { "type": "name", "properties": { "name": "urn:ogc:def:crs:OGC:1.3:CRS84" } },
"features": [
{ "type": "Feature", "properties": { "fid": 1, "id": 1, "cluster_id": "196", "column": null, "row": "E" }, "geometry": { "type": "Point", "coordinates": [ 120.976706963425201, 14.305847600102437 ] } },
{ "type": "Feature", "properties": { "fid": 2, "id": 2, "cluster_id": "196", "column": null, "row": "E" }, "geometry": { "type": "Point", "coordinates": [ 120.976715482364867, 14.305848005766231 ] } },
{ "type": "Feature", "properties": { "fid": 3, "id": 3, "cluster_id": "196", "column": null, "row": "E" }, "geometry": { "type": "Point", "coordinates": [ 120.976722784313154, 14.305848817093819 ] } },
{ "type": "Feature", "properties": { "fid": 4, "id": 4, "cluster_id": "196", "column": null, "row": "E" }, "geometry": { "type": "Point", "coordinates": [ 120.976732925907996, 14.305849628421406 ] } },
{ "type": "Feature", "properties": { "fid": 5, "id": 5, "cluster_id": "196", "column": null, "row": "E" }, "geometry": { "type": "Point", "coordinates": [ 120.976741850511459, 14.305850439748994 ] } },
{ "type": "Feature", "properties": { "fid": 6, "id": 6, "cluster_id": "196", "column": null, "row": "E" }, "geometry": { "type": "Point", "coordinates": [ 120.97675320909768, 14.305853279395549 ] } },
{ "type": "Feature", "properties": { "fid": 7, "id": 7, "cluster_id": "196", "column": null, "row": "E" }, "geometry": { "type": "Point", "coordinates": [ 120.976761322373562, 14.305853685059343 ] } },
{ "type": "Feature", "properties": { "fid": 8, "id": 8, "cluster_id": "196", "column": null, "row": "E" }, "geometry": { "type": "Point", "coordinates": [ 120.976770652640823, 14.305852873731757 ] } },
{ "type": "Feature", "properties": { "fid": 9, "id": 9, "cluster_id": "196", "column": null, "row": "E" }, "geometry": { "type": "Point", "coordinates": [ 120.97677795458911, 14.305854090723138 ] } },
{ "type": "Feature", "properties": { "fid": 10, "id": 10, "cluster_id": "196", "column": null, "row": "E" }, "geometry": { "type": "Point", "coordinates": [ 120.976786067864978, 14.305854090723138 ] } },
{ "type": "Feature", "properties": { "fid": 11, "id": 11, "cluster_id": "196", "column": null, "row": "E" }, "geometry": { "type": "Point", "coordinates": [ 120.976793775477063, 14.305856930369695 ] } },
{ "type": "Feature", "properties": { "fid": 12, "id": 12, "cluster_id": "196", "column": null, "row": "E" }, "geometry": { "type": "Point", "coordinates": [ 120.976799860433971, 14.305856930369695 ] } },
{ "type": "Feature", "properties": { "fid": 13, "id": 13, "cluster_id": "196", "column": null, "row": "E" }, "geometry": { "type": "Point", "coordinates": [ 120.976808379373637, 14.305857336033487 ] } },
{ "type": "Feature", "properties": { "fid": 14, "id": 14, "cluster_id": "196", "column": null, "row": "E" }, "geometry": { "type": "Point", "coordinates": [ 120.976816492649505, 14.3058565247059 ] } },
{ "type": "Feature", "properties": { "fid": 15, "id": 15, "cluster_id": "196", "column": null, "row": "E" }, "geometry": { "type": "Point", "coordinates": [ 120.976824200261589, 14.305858553024869 ] } },
{ "type": "Feature", "properties": { "fid": 16, "id": 16, "cluster_id": "196", "column": null, "row": "E" }, "geometry": { "type": "Point", "coordinates": [ 120.976829068227119, 14.305858553024869 ] } },
{ "type": "Feature", "properties": { "fid": 17, "id": 17, "cluster_id": "196", "column": null, "row": "E" }, "geometry": { "type": "Point", "coordinates": [ 120.976836775839203, 14.305859364352456 ] } },
{ "type": "Feature", "properties": { "fid": 18, "id": 18, "cluster_id": "196", "column": null, "row": "E" }, "geometry": { "type": "Point", "coordinates": [ 120.976846511770248, 14.305859364352456 ] } },
{ "type": "Feature", "properties": { "fid": 19, "id": 19, "cluster_id": "196", "column": null, "row": "E" }, "geometry": { "type": "Point", "coordinates": [ 120.976855842037509, 14.305859364352456 ] } },
{ "type": "Feature", "properties": { "fid": 20, "id": 20, "cluster_id": "196", "column": null, "row": "E" }, "geometry": { "type": "Point", "coordinates": [ 120.976865172304755, 14.305863015326599 ] } },
{ "type": "Feature", "properties": { "fid": 21, "id": 21, "cluster_id": "196", "column": null, "row": "E" }, "geometry": { "type": "Point", "coordinates": [ 120.976873691244421, 14.30586626063695 ] } },
{ "type": "Feature", "properties": { "fid": 22, "id": 22, "cluster_id": "196", "column": null, "row": "E" }, "geometry": { "type": "Point", "coordinates": [ 120.976882615847884, 14.305867477628331 ] } },
{ "type": "Feature", "properties": { "fid": 23, "id": 23, "cluster_id": "196", "column": null, "row": "E" }, "geometry": { "type": "Point", "coordinates": [ 120.976894380097903, 14.305867477628331 ] } },
{ "type": "Feature", "properties": { "fid": 24, "id": 24, "cluster_id": "196", "column": null, "row": "E" }, "geometry": { "type": "Point", "coordinates": [ 120.976902087709988, 14.305867883292125 ] } },
{ "type": "Feature", "properties": { "fid": 25, "id": 25, "cluster_id": "196", "column": null, "row": "E" }, "geometry": { "type": "Point", "coordinates": [ 120.976910606649653, 14.3058695059473 ] } },
{ "type": "Feature", "properties": { "fid": 26, "id": 26, "cluster_id": "196", "column": null, "row": "E" }, "geometry": { "type": "Point", "coordinates": [ 120.976921153908293, 14.305872345593857 ] } },
{ "type": "Feature", "properties": { "fid": 27, "id": 27, "cluster_id": "196", "column": null, "row": "E" }, "geometry": { "type": "Point", "coordinates": [ 120.976928861520378, 14.305871128602474 ] } },
{ "type": "Feature", "properties": { "fid": 28, "id": 28, "cluster_id": "196", "column": null, "row": "E" }, "geometry": { "type": "Point", "coordinates": [ 120.976941437097977, 14.305871128602474 ] } },
{ "type": "Feature", "properties": { "fid": 29, "id": 29, "cluster_id": "196", "column": null, "row": "E" }, "geometry": { "type": "Point", "coordinates": [ 120.97695157869282, 14.305871939930062 ] } },
{ "type": "Feature", "properties": { "fid": 30, "id": 30, "cluster_id": "196", "column": null, "row": "E" }, "geometry": { "type": "Point", "coordinates": [ 120.976962937279055, 14.305871534266268 ] } },
{ "type": "Feature", "properties": { "fid": 31, "id": 31, "cluster_id": "196", "column": null, "row": "E" }, "geometry": { "type": "Point", "coordinates": [ 120.976971050554923, 14.305875996568 ] } },
{ "type": "Feature", "properties": { "fid": 32, "id": 32, "cluster_id": "196", "column": null, "row": "E" }, "geometry": { "type": "Point", "coordinates": [ 120.976982409141144, 14.305877619223175 ] } },
{ "type": "Feature", "properties": { "fid": 33, "id": 33, "cluster_id": "196", "column": null, "row": "E" }, "geometry": { "type": "Point", "coordinates": [ 120.976992956399783, 14.30588045886973 ] } },
{ "type": "Feature", "properties": { "fid": 34, "id": 34, "cluster_id": "196", "column": null, "row": "E" }, "geometry": { "type": "Point", "coordinates": [ 120.97700025834807, 14.305879647542143 ] } },
{ "type": "Feature", "properties": { "fid": 35, "id": 35, "cluster_id": "196", "column": null, "row": "E" }, "geometry": { "type": "Point", "coordinates": [ 120.977001069675666, 14.305875996568 ] } }
]
}
