{
"type": "FeatureCollection",
"name": "cltr-id-176-b-row",
"crs": { "type": "name", "properties": { "name": "urn:ogc:def:crs:OGC:1.3:CRS84" } },
"features": [
{ "type": "Feature", "properties": { "fid": 1, "id": 1, "cluster_id": "176", "column": null, "row": "B" }, "geometry": { "type": "Point", "coordinates": [ 120.976382470843376, 14.30561934897529 ] } },
{ "type": "Feature", "properties": { "fid": 2, "id": 2, "cluster_id": "176", "column": null, "row": "B" }, "geometry": { "type": "Point", "coordinates": [ 120.976394342120372, 14.305619772949468 ] } },
{ "type": "Feature", "properties": { "fid": 3, "id": 3, "cluster_id": "176", "column": null, "row": "B" }, "geometry": { "type": "Point", "coordinates": [ 120.976402821603941, 14.305620620897825 ] } },
{ "type": "Feature", "properties": { "fid": 4, "id": 4, "cluster_id": "176", "column": null, "row": "B" }, "geometry": { "type": "Point", "coordinates": [ 120.976411301087523, 14.305622740768717 ] } },
{ "type": "Feature", "properties": { "fid": 5, "id": 5, "cluster_id": "176", "column": null, "row": "B" }, "geometry": { "type": "Point", "coordinates": [ 120.976420204545278, 14.305623164742897 ] } },
{ "type": "Feature", "properties": { "fid": 6, "id": 6, "cluster_id": "176", "column": null, "row": "B" }, "geometry": { "type": "Point", "coordinates": [ 120.976427412106304, 14.305624436665433 ] } },
{ "type": "Feature", "properties": { "fid": 7, "id": 7, "cluster_id": "176", "column": null, "row": "B" }, "geometry": { "type": "Point", "coordinates": [ 120.976435891589873, 14.305625708587968 ] } },
{ "type": "Feature", "properties": { "fid": 8, "id": 8, "cluster_id": "176", "column": null, "row": "B" }, "geometry": { "type": "Point", "coordinates": [ 120.976443947099256, 14.30562570858797 ] } },
{ "type": "Feature", "properties": { "fid": 9, "id": 9, "cluster_id": "176", "column": null, "row": "B" }, "geometry": { "type": "Point", "coordinates": [ 120.976452426582838, 14.305626132562146 ] } },
{ "type": "Feature", "properties": { "fid": 10, "id": 10, "cluster_id": "176", "column": null, "row": "B" }, "geometry": { "type": "Point", "coordinates": [ 120.97646005811805, 14.305626556536325 ] } },
{ "type": "Feature", "properties": { "fid": 11, "id": 11, "cluster_id": "176", "column": null, "row": "B" }, "geometry": { "type": "Point", "coordinates": [ 120.97646896157579, 14.305626132562146 ] } },
{ "type": "Feature", "properties": { "fid": 12, "id": 12, "cluster_id": "176", "column": null, "row": "B" }, "geometry": { "type": "Point", "coordinates": [ 120.976476593111016, 14.305626980510503 ] } },
{ "type": "Feature", "properties": { "fid": 13, "id": 13, "cluster_id": "176", "column": null, "row": "B" }, "geometry": { "type": "Point", "coordinates": [ 120.97648549656877, 14.305628252433038 ] } }
]
}
