{
"type": "FeatureCollection",
"name": "cltr-id-189-e-row",
"crs": { "type": "name", "properties": { "name": "urn:ogc:def:crs:OGC:1.3:CRS84" } },
"features": [
{ "type": "Feature", "properties": { "fid": 1, "id": 1, "cluster_id": "189", "column": null, "row": "E" }, "geometry": { "type": "Point", "coordinates": [ 120.976580531543007, 14.305816363990308 ] } },
{ "type": "Feature", "properties": { "fid": 2, "id": 2, "cluster_id": "189", "column": null, "row": "E" }, "geometry": { "type": "Point", "coordinates": [ 120.976581478091859, 14.305810549475932 ] } },
{ "type": "Feature", "properties": { "fid": 3, "id": 3, "cluster_id": "189", "column": null, "row": "E" }, "geometry": { "type": "Point", "coordinates": [ 120.976586886942428, 14.305805816731674 ] } },
{ "type": "Feature", "properties": { "fid": 4, "id": 4, "cluster_id": "189", "column": null, "row": "E" }, "geometry": { "type": "Point", "coordinates": [ 120.976595135439567, 14.305806222395468 ] } },
{ "type": "Feature", "properties": { "fid": 5, "id": 5, "cluster_id": "189", "column": null, "row": "E" }, "geometry": { "type": "Point", "coordinates": [ 120.976602437387854, 14.305806628059262 ] } },
{ "type": "Feature", "properties": { "fid": 6, "id": 6, "cluster_id": "189", "column": null, "row": "E" }, "geometry": { "type": "Point", "coordinates": [ 120.976608387123505, 14.305807574608114 ] } },
{ "type": "Feature", "properties": { "fid": 7, "id": 7, "cluster_id": "189", "column": null, "row": "E" }, "geometry": { "type": "Point", "coordinates": [ 120.9766167708419, 14.305808521156965 ] } },
{ "type": "Feature", "properties": { "fid": 8, "id": 8, "cluster_id": "189", "column": null, "row": "E" }, "geometry": { "type": "Point", "coordinates": [ 120.976622585356282, 14.305808115493171 ] } },
{ "type": "Feature", "properties": { "fid": 9, "id": 9, "cluster_id": "189", "column": null, "row": "E" }, "geometry": { "type": "Point", "coordinates": [ 120.976631780402272, 14.305809602927081 ] } },
{ "type": "Feature", "properties": { "fid": 10, "id": 10, "cluster_id": "189", "column": null, "row": "E" }, "geometry": { "type": "Point", "coordinates": [ 120.976639352793086, 14.30581014381214 ] } },
{ "type": "Feature", "properties": { "fid": 11, "id": 11, "cluster_id": "189", "column": null, "row": "E" }, "geometry": { "type": "Point", "coordinates": [ 120.97664908872413, 14.305811360803521 ] } },
{ "type": "Feature", "properties": { "fid": 12, "id": 12, "cluster_id": "189", "column": null, "row": "E" }, "geometry": { "type": "Point", "coordinates": [ 120.976660582531622, 14.305811901688578 ] } },
{ "type": "Feature", "properties": { "fid": 13, "id": 13, "cluster_id": "189", "column": null, "row": "E" }, "geometry": { "type": "Point", "coordinates": [ 120.97667085934772, 14.30581284823743 ] } },
{ "type": "Feature", "properties": { "fid": 14, "id": 14, "cluster_id": "189", "column": null, "row": "E" }, "geometry": { "type": "Point", "coordinates": [ 120.976680324836238, 14.305813524343753 ] } }
]
}
