{
"type": "FeatureCollection",
"name": "cltr-id-189-c-row",
"crs": { "type": "name", "properties": { "name": "urn:ogc:def:crs:OGC:1.3:CRS84" } },
"features": [
{ "type": "Feature", "properties": { "fid": 1, "id": 1, "cluster_id": "189", "column": null, "row": "C" }, "geometry": { "type": "Point", "coordinates": [ 120.976579449772885, 14.305816228769045 ] } },
{ "type": "Feature", "properties": { "fid": 2, "id": 2, "cluster_id": "189", "column": null, "row": "C" }, "geometry": { "type": "Point", "coordinates": [ 120.976579855436668, 14.305810549475932 ] } },
{ "type": "Feature", "properties": { "fid": 3, "id": 3, "cluster_id": "189", "column": null, "row": "C" }, "geometry": { "type": "Point", "coordinates": [ 120.976586886942442, 14.305804194076499 ] } },
{ "type": "Feature", "properties": { "fid": 4, "id": 4, "cluster_id": "189", "column": null, "row": "C" }, "geometry": { "type": "Point", "coordinates": [ 120.97659486499704, 14.305805140625351 ] } },
{ "type": "Feature", "properties": { "fid": 5, "id": 5, "cluster_id": "189", "column": null, "row": "C" }, "geometry": { "type": "Point", "coordinates": [ 120.9766018965028, 14.305805546289145 ] } },
{ "type": "Feature", "properties": { "fid": 6, "id": 6, "cluster_id": "189", "column": null, "row": "C" }, "geometry": { "type": "Point", "coordinates": [ 120.976608387123505, 14.305806492837997 ] } },
{ "type": "Feature", "properties": { "fid": 7, "id": 7, "cluster_id": "189", "column": null, "row": "C" }, "geometry": { "type": "Point", "coordinates": [ 120.976616365178103, 14.305806898501791 ] } },
{ "type": "Feature", "properties": { "fid": 8, "id": 8, "cluster_id": "189", "column": null, "row": "C" }, "geometry": { "type": "Point", "coordinates": [ 120.976622855798794, 14.305806628059262 ] } },
{ "type": "Feature", "properties": { "fid": 9, "id": 9, "cluster_id": "189", "column": null, "row": "C" }, "geometry": { "type": "Point", "coordinates": [ 120.976632050844799, 14.305808115493171 ] } },
{ "type": "Feature", "properties": { "fid": 10, "id": 10, "cluster_id": "189", "column": null, "row": "C" }, "geometry": { "type": "Point", "coordinates": [ 120.976640028899411, 14.305808656378229 ] } },
{ "type": "Feature", "properties": { "fid": 11, "id": 11, "cluster_id": "189", "column": null, "row": "C" }, "geometry": { "type": "Point", "coordinates": [ 120.976649900051711, 14.305809738148346 ] } },
{ "type": "Feature", "properties": { "fid": 12, "id": 12, "cluster_id": "189", "column": null, "row": "C" }, "geometry": { "type": "Point", "coordinates": [ 120.97666098819542, 14.30580987336961 ] } },
{ "type": "Feature", "properties": { "fid": 13, "id": 13, "cluster_id": "189", "column": null, "row": "C" }, "geometry": { "type": "Point", "coordinates": [ 120.976671265011518, 14.305811090360992 ] } },
{ "type": "Feature", "properties": { "fid": 14, "id": 14, "cluster_id": "189", "column": null, "row": "C" }, "geometry": { "type": "Point", "coordinates": [ 120.976680460057509, 14.305811766467313 ] } }
]
}
