{
"type": "FeatureCollection",
"name": "cltr-id-182-a-row",
"crs": { "type": "name", "properties": { "name": "urn:ogc:def:crs:OGC:1.3:CRS84" } },
"features": [
{ "type": "Feature", "properties": { "fid": 1, "id": 1, "cluster_id": "182", "column": null, "row": "A" }, "geometry": { "type": "Point", "coordinates": [ 120.976622799456564, 14.305446240852373 ] } },
{ "type": "Feature", "properties": { "fid": 2, "id": 2, "cluster_id": "182", "column": null, "row": "A" }, "geometry": { "type": "Point", "coordinates": [ 120.976633887600258, 14.305448404392607 ] } },
{ "type": "Feature", "properties": { "fid": 3, "id": 3, "cluster_id": "182", "column": null, "row": "A" }, "geometry": { "type": "Point", "coordinates": [ 120.976647409726723, 14.305448674835135 ] } },
{ "type": "Feature", "properties": { "fid": 4, "id": 4, "cluster_id": "182", "column": null, "row": "A" }, "geometry": { "type": "Point", "coordinates": [ 120.976658768312944, 14.30545002704778 ] } },
{ "type": "Feature", "properties": { "fid": 5, "id": 5, "cluster_id": "182", "column": null, "row": "A" }, "geometry": { "type": "Point", "coordinates": [ 120.976668504243989, 14.305451108817897 ] } },
{ "type": "Feature", "properties": { "fid": 6, "id": 6, "cluster_id": "182", "column": null, "row": "A" }, "geometry": { "type": "Point", "coordinates": [ 120.976677699289979, 14.305451649702954 ] } },
{ "type": "Feature", "properties": { "fid": 7, "id": 7, "cluster_id": "182", "column": null, "row": "A" }, "geometry": { "type": "Point", "coordinates": [ 120.976686623893443, 14.3054530019156 ] } },
{ "type": "Feature", "properties": { "fid": 8, "id": 8, "cluster_id": "182", "column": null, "row": "A" }, "geometry": { "type": "Point", "coordinates": [ 120.976696630267014, 14.305453272358129 ] } },
{ "type": "Feature", "properties": { "fid": 9, "id": 9, "cluster_id": "182", "column": null, "row": "A" }, "geometry": { "type": "Point", "coordinates": [ 120.97670528442795, 14.305453813243188 ] } },
{ "type": "Feature", "properties": { "fid": 10, "id": 10, "cluster_id": "182", "column": null, "row": "A" }, "geometry": { "type": "Point", "coordinates": [ 120.976713668146346, 14.305454354128246 ] } },
{ "type": "Feature", "properties": { "fid": 11, "id": 11, "cluster_id": "182", "column": null, "row": "A" }, "geometry": { "type": "Point", "coordinates": [ 120.976722592749809, 14.305444618197198 ] } },
{ "type": "Feature", "properties": { "fid": 12, "id": 12, "cluster_id": "182", "column": null, "row": "A" }, "geometry": { "type": "Point", "coordinates": [ 120.976723404077404, 14.305437316248913 ] } }
]
}
