{
"type": "FeatureCollection",
"name": "cltr-id-172-a-row",
"crs": { "type": "name", "properties": { "name": "urn:ogc:def:crs:OGC:1.3:CRS84" } },
"features": [
{ "type": "Feature", "properties": { "fid": 1, "id": 1, "cluster_id": "172", "column": null, "rows": "A" }, "geometry": { "type": "Point", "coordinates": [ 120.9763960380171, 14.305426016749866 ] } },
{ "type": "Feature", "properties": { "fid": 2, "id": 2, "cluster_id": "172", "column": null, "rows": "A" }, "geometry": { "type": "Point", "coordinates": [ 120.976406849358654, 14.305426440724045 ] } },
{ "type": "Feature", "properties": { "fid": 3, "id": 3, "cluster_id": "172", "column": null, "rows": "A" }, "geometry": { "type": "Point", "coordinates": [ 120.976417448713121, 14.305427288672401 ] } },
{ "type": "Feature", "properties": { "fid": 4, "id": 4, "cluster_id": "172", "column": null, "rows": "A" }, "geometry": { "type": "Point", "coordinates": [ 120.976426352170861, 14.305428136620758 ] } },
{ "type": "Feature", "properties": { "fid": 5, "id": 5, "cluster_id": "172", "column": null, "rows": "A" }, "geometry": { "type": "Point", "coordinates": [ 120.976436103576972, 14.305428984569117 ] } },
{ "type": "Feature", "properties": { "fid": 6, "id": 6, "cluster_id": "172", "column": null, "rows": "A" }, "geometry": { "type": "Point", "coordinates": [ 120.976444795047641, 14.305429408543295 ] } },
{ "type": "Feature", "properties": { "fid": 7, "id": 7, "cluster_id": "172", "column": null, "rows": "A" }, "geometry": { "type": "Point", "coordinates": [ 120.976452638569938, 14.305429620530385 ] } },
{ "type": "Feature", "properties": { "fid": 8, "id": 8, "cluster_id": "172", "column": null, "rows": "A" }, "geometry": { "type": "Point", "coordinates": [ 120.976460694079336, 14.305431104440009 ] } },
{ "type": "Feature", "properties": { "fid": 9, "id": 9, "cluster_id": "172", "column": null, "rows": "A" }, "geometry": { "type": "Point", "coordinates": [ 120.976469809524176, 14.305431104440009 ] } },
{ "type": "Feature", "properties": { "fid": 10, "id": 10, "cluster_id": "172", "column": null, "rows": "A" }, "geometry": { "type": "Point", "coordinates": [ 120.976478077020644, 14.305432164375455 ] } },
{ "type": "Feature", "properties": { "fid": 11, "id": 11, "cluster_id": "172", "column": null, "rows": "A" }, "geometry": { "type": "Point", "coordinates": [ 120.976485920542956, 14.305432588349634 ] } },
{ "type": "Feature", "properties": { "fid": 12, "id": 12, "cluster_id": "172", "column": null, "rows": "A" }, "geometry": { "type": "Point", "coordinates": [ 120.976493128103996, 14.305433224310901 ] } },
{ "type": "Feature", "properties": { "fid": 13, "id": 13, "cluster_id": "172", "column": null, "rows": "A" }, "geometry": { "type": "Point", "coordinates": [ 120.976500971626294, 14.305433860272169 ] } }
]
}
