{
"type": "FeatureCollection",
"name": "cltr-id-201-a-row",
"crs": { "type": "name", "properties": { "name": "urn:ogc:def:crs:OGC:1.3:CRS84" } },
"features": [
{ "type": "Feature", "properties": { "fid": 1, "id": 1, "cluster_id": "201", "column": null, "row": "A" }, "geometry": { "type": "Point", "coordinates": [ 120.976624692554267, 14.305471121565045 ] } },
{ "type": "Feature", "properties": { "fid": 2, "id": 2, "cluster_id": "201", "column": null, "row": "A" }, "geometry": { "type": "Point", "coordinates": [ 120.976634293264055, 14.305471662450104 ] } },
{ "type": "Feature", "properties": { "fid": 3, "id": 3, "cluster_id": "201", "column": null, "row": "A" }, "geometry": { "type": "Point", "coordinates": [ 120.976644299637627, 14.305473149884014 ] } },
{ "type": "Feature", "properties": { "fid": 4, "id": 4, "cluster_id": "201", "column": null, "row": "A" }, "geometry": { "type": "Point", "coordinates": [ 120.976654441232469, 14.305473690769071 ] } },
{ "type": "Feature", "properties": { "fid": 5, "id": 5, "cluster_id": "201", "column": null, "row": "A" }, "geometry": { "type": "Point", "coordinates": [ 120.976660796631904, 14.305474637317923 ] } },
{ "type": "Feature", "properties": { "fid": 6, "id": 6, "cluster_id": "201", "column": null, "row": "A" }, "geometry": { "type": "Point", "coordinates": [ 120.976668639465245, 14.305475313424246 ] } },
{ "type": "Feature", "properties": { "fid": 7, "id": 7, "cluster_id": "201", "column": null, "row": "A" }, "geometry": { "type": "Point", "coordinates": [ 120.976678240175033, 14.305476395194363 ] } },
{ "type": "Feature", "properties": { "fid": 8, "id": 8, "cluster_id": "201", "column": null, "row": "A" }, "geometry": { "type": "Point", "coordinates": [ 120.976688516991132, 14.305477206521951 ] } },
{ "type": "Feature", "properties": { "fid": 9, "id": 9, "cluster_id": "201", "column": null, "row": "A" }, "geometry": { "type": "Point", "coordinates": [ 120.976697306373339, 14.305478017849538 ] } },
{ "type": "Feature", "properties": { "fid": 10, "id": 10, "cluster_id": "201", "column": null, "row": "A" }, "geometry": { "type": "Point", "coordinates": [ 120.976707042304383, 14.305478829177126 ] } }
]
}
