{
"type": "FeatureCollection",
"name": "cltr-id-152-a-row",
"crs": { "type": "name", "properties": { "name": "urn:ogc:def:crs:OGC:1.3:CRS84" } },
"features": [
{ "type": "Feature", "properties": { "fid": 1, "id": 1, "cluster_id": "152", "column": null, "row": "A" }, "geometry": { "type": "Point", "coordinates": [ 120.976033385632533, 14.305808362167493 ] } },
{ "type": "Feature", "properties": { "fid": 2, "id": 2, "cluster_id": "152", "column": null, "row": "A" }, "geometry": { "type": "Point", "coordinates": [ 120.976041799400107, 14.305809484003168 ] } },
{ "type": "Feature", "properties": { "fid": 3, "id": 3, "cluster_id": "152", "column": null, "row": "A" }, "geometry": { "type": "Point", "coordinates": [ 120.976049652249841, 14.305809484003168 ] } },
{ "type": "Feature", "properties": { "fid": 4, "id": 4, "cluster_id": "152", "column": null, "row": "A" }, "geometry": { "type": "Point", "coordinates": [ 120.976058066017416, 14.305810044921007 ] } },
{ "type": "Feature", "properties": { "fid": 5, "id": 5, "cluster_id": "152", "column": null, "row": "A" }, "geometry": { "type": "Point", "coordinates": [ 120.976065357949309, 14.305810044921007 ] } },
{ "type": "Feature", "properties": { "fid": 6, "id": 6, "cluster_id": "152", "column": null, "row": "A" }, "geometry": { "type": "Point", "coordinates": [ 120.976072649881218, 14.305810044921007 ] } },
{ "type": "Feature", "properties": { "fid": 7, "id": 7, "cluster_id": "152", "column": null, "row": "A" }, "geometry": { "type": "Point", "coordinates": [ 120.976079941813111, 14.30581228859236 ] } },
{ "type": "Feature", "properties": { "fid": 8, "id": 8, "cluster_id": "152", "column": null, "row": "A" }, "geometry": { "type": "Point", "coordinates": [ 120.976087794662845, 14.305812849510199 ] } },
{ "type": "Feature", "properties": { "fid": 9, "id": 9, "cluster_id": "152", "column": null, "row": "A" }, "geometry": { "type": "Point", "coordinates": [ 120.97609676934826, 14.305813410428037 ] } },
{ "type": "Feature", "properties": { "fid": 10, "id": 10, "cluster_id": "152", "column": null, "row": "A" }, "geometry": { "type": "Point", "coordinates": [ 120.976104061280154, 14.305813971345875 ] } },
{ "type": "Feature", "properties": { "fid": 11, "id": 11, "cluster_id": "152", "column": null, "row": "A" }, "geometry": { "type": "Point", "coordinates": [ 120.976113035965568, 14.305816775935066 ] } },
{ "type": "Feature", "properties": { "fid": 12, "id": 12, "cluster_id": "152", "column": null, "row": "A" }, "geometry": { "type": "Point", "coordinates": [ 120.976120327897462, 14.305815654099389 ] } },
{ "type": "Feature", "properties": { "fid": 13, "id": 13, "cluster_id": "152", "column": null, "row": "A" }, "geometry": { "type": "Point", "coordinates": [ 120.976128180747196, 14.305816215017227 ] } },
{ "type": "Feature", "properties": { "fid": 14, "id": 14, "cluster_id": "152", "column": null, "row": "A" }, "geometry": { "type": "Point", "coordinates": [ 120.976138838186117, 14.305816775935066 ] } },
{ "type": "Feature", "properties": { "fid": 15, "id": 15, "cluster_id": "152", "column": null, "row": "A" }, "geometry": { "type": "Point", "coordinates": [ 120.976146691035851, 14.305817897770742 ] } },
{ "type": "Feature", "properties": { "fid": 16, "id": 16, "cluster_id": "152", "column": null, "row": "A" }, "geometry": { "type": "Point", "coordinates": [ 120.976157909392626, 14.305817897770742 ] } },
{ "type": "Feature", "properties": { "fid": 17, "id": 17, "cluster_id": "152", "column": null, "row": "A" }, "geometry": { "type": "Point", "coordinates": [ 120.976164079488839, 14.305817897770742 ] } },
{ "type": "Feature", "properties": { "fid": 18, "id": 18, "cluster_id": "152", "column": null, "row": "A" }, "geometry": { "type": "Point", "coordinates": [ 120.976172493256414, 14.305819580524256 ] } },
{ "type": "Feature", "properties": { "fid": 19, "id": 19, "cluster_id": "152", "column": null, "row": "A" }, "geometry": { "type": "Point", "coordinates": [ 120.976180907023988, 14.305820141442094 ] } },
{ "type": "Feature", "properties": { "fid": 20, "id": 20, "cluster_id": "152", "column": null, "row": "A" }, "geometry": { "type": "Point", "coordinates": [ 120.976188759873722, 14.305820141442094 ] } },
{ "type": "Feature", "properties": { "fid": 21, "id": 21, "cluster_id": "152", "column": null, "row": "A" }, "geometry": { "type": "Point", "coordinates": [ 120.976196612723456, 14.305821263277771 ] } },
{ "type": "Feature", "properties": { "fid": 22, "id": 22, "cluster_id": "152", "column": null, "row": "A" }, "geometry": { "type": "Point", "coordinates": [ 120.97620502649103, 14.305822385113448 ] } },
{ "type": "Feature", "properties": { "fid": 23, "id": 23, "cluster_id": "152", "column": null, "row": "A" }, "geometry": { "type": "Point", "coordinates": [ 120.976213440258604, 14.305822385113448 ] } },
{ "type": "Feature", "properties": { "fid": 24, "id": 24, "cluster_id": "152", "column": null, "row": "A" }, "geometry": { "type": "Point", "coordinates": [ 120.976221293108338, 14.305823506949125 ] } },
{ "type": "Feature", "properties": { "fid": 25, "id": 25, "cluster_id": "152", "column": null, "row": "A" }, "geometry": { "type": "Point", "coordinates": [ 120.976229145958072, 14.305823506949125 ] } },
{ "type": "Feature", "properties": { "fid": 26, "id": 26, "cluster_id": "152", "column": null, "row": "A" }, "geometry": { "type": "Point", "coordinates": [ 120.976236437889966, 14.305824067866963 ] } },
{ "type": "Feature", "properties": { "fid": 27, "id": 27, "cluster_id": "152", "column": null, "row": "A" }, "geometry": { "type": "Point", "coordinates": [ 120.976245973493221, 14.305823506949125 ] } },
{ "type": "Feature", "properties": { "fid": 28, "id": 28, "cluster_id": "152", "column": null, "row": "A" }, "geometry": { "type": "Point", "coordinates": [ 120.976256070014301, 14.305825750620476 ] } },
{ "type": "Feature", "properties": { "fid": 29, "id": 29, "cluster_id": "152", "column": null, "row": "A" }, "geometry": { "type": "Point", "coordinates": [ 120.976263922864035, 14.305825750620476 ] } },
{ "type": "Feature", "properties": { "fid": 30, "id": 30, "cluster_id": "152", "column": null, "row": "A" }, "geometry": { "type": "Point", "coordinates": [ 120.97627289754945, 14.305826311538315 ] } },
{ "type": "Feature", "properties": { "fid": 31, "id": 31, "cluster_id": "152", "column": null, "row": "A" }, "geometry": { "type": "Point", "coordinates": [ 120.97628243315269, 14.305827433373992 ] } },
{ "type": "Feature", "properties": { "fid": 32, "id": 32, "cluster_id": "152", "column": null, "row": "A" }, "geometry": { "type": "Point", "coordinates": [ 120.976292529673785, 14.305828555209668 ] } },
{ "type": "Feature", "properties": { "fid": 33, "id": 33, "cluster_id": "152", "column": null, "row": "A" }, "geometry": { "type": "Point", "coordinates": [ 120.976302626194865, 14.305830798881022 ] } },
{ "type": "Feature", "properties": { "fid": 34, "id": 34, "cluster_id": "152", "column": null, "row": "A" }, "geometry": { "type": "Point", "coordinates": [ 120.976314966387307, 14.305830237963184 ] } },
{ "type": "Feature", "properties": { "fid": 35, "id": 35, "cluster_id": "152", "column": null, "row": "A" }, "geometry": { "type": "Point", "coordinates": [ 120.976343704027144, 14.305822451446 ] } },
{ "type": "Feature", "properties": { "fid": 36, "id": 36, "cluster_id": "152", "column": null, "row": "A" }, "geometry": { "type": "Point", "coordinates": [ 120.976344264944984, 14.305813476760587 ] } }
]
}
