{
"type": "FeatureCollection",
"name": "cltr-id-213-a-row",
"crs": { "type": "name", "properties": { "name": "urn:ogc:def:crs:OGC:1.3:CRS84" } },
"features": [
{ "type": "Feature", "properties": { "fid": 1, "id": 1, "cluster_id": "213", "column": null, "row": "A" }, "geometry": { "type": "Point", "coordinates": [ 120.976731168031577, 14.305626513334877 ] } },
{ "type": "Feature", "properties": { "fid": 2, "id": 2, "cluster_id": "213", "column": null, "row": "A" }, "geometry": { "type": "Point", "coordinates": [ 120.97674009263504, 14.305627595104992 ] } },
{ "type": "Feature", "properties": { "fid": 3, "id": 3, "cluster_id": "213", "column": null, "row": "A" }, "geometry": { "type": "Point", "coordinates": [ 120.976751992106315, 14.305630029087755 ] } },
{ "type": "Feature", "properties": { "fid": 4, "id": 4, "cluster_id": "213", "column": null, "row": "A" }, "geometry": { "type": "Point", "coordinates": [ 120.976763080250009, 14.305630569972813 ] } },
{ "type": "Feature", "properties": { "fid": 5, "id": 5, "cluster_id": "213", "column": null, "row": "A" }, "geometry": { "type": "Point", "coordinates": [ 120.976772816181054, 14.305631381300399 ] } },
{ "type": "Feature", "properties": { "fid": 6, "id": 6, "cluster_id": "213", "column": null, "row": "A" }, "geometry": { "type": "Point", "coordinates": [ 120.976785797422451, 14.305632192627987 ] } },
{ "type": "Feature", "properties": { "fid": 7, "id": 7, "cluster_id": "213", "column": null, "row": "A" }, "geometry": { "type": "Point", "coordinates": [ 120.97679553335351, 14.305631381300399 ] } },
{ "type": "Feature", "properties": { "fid": 8, "id": 8, "cluster_id": "213", "column": null, "row": "A" }, "geometry": { "type": "Point", "coordinates": [ 120.976802835301797, 14.305633544840633 ] } },
{ "type": "Feature", "properties": { "fid": 9, "id": 9, "cluster_id": "213", "column": null, "row": "A" }, "geometry": { "type": "Point", "coordinates": [ 120.976813653002949, 14.305634897053279 ] } },
{ "type": "Feature", "properties": { "fid": 10, "id": 10, "cluster_id": "213", "column": null, "row": "A" }, "geometry": { "type": "Point", "coordinates": [ 120.97682284804894, 14.305636249265923 ] } },
{ "type": "Feature", "properties": { "fid": 11, "id": 11, "cluster_id": "213", "column": null, "row": "A" }, "geometry": { "type": "Point", "coordinates": [ 120.976831231767349, 14.305638412806157 ] } },
{ "type": "Feature", "properties": { "fid": 12, "id": 12, "cluster_id": "213", "column": null, "row": "A" }, "geometry": { "type": "Point", "coordinates": [ 120.976842319911043, 14.305637871921098 ] } },
{ "type": "Feature", "properties": { "fid": 13, "id": 13, "cluster_id": "213", "column": null, "row": "A" }, "geometry": { "type": "Point", "coordinates": [ 120.976852326284614, 14.305638683248686 ] } },
{ "type": "Feature", "properties": { "fid": 14, "id": 14, "cluster_id": "213", "column": null, "row": "A" }, "geometry": { "type": "Point", "coordinates": [ 120.976863143985781, 14.305638683248686 ] } },
{ "type": "Feature", "properties": { "fid": 15, "id": 15, "cluster_id": "213", "column": null, "row": "A" }, "geometry": { "type": "Point", "coordinates": [ 120.976870716376595, 14.305640305903861 ] } },
{ "type": "Feature", "properties": { "fid": 16, "id": 16, "cluster_id": "213", "column": null, "row": "A" }, "geometry": { "type": "Point", "coordinates": [ 120.976881263635235, 14.30564057634639 ] } },
{ "type": "Feature", "properties": { "fid": 17, "id": 17, "cluster_id": "213", "column": null, "row": "A" }, "geometry": { "type": "Point", "coordinates": [ 120.976889106468576, 14.305641658116507 ] } },
{ "type": "Feature", "properties": { "fid": 18, "id": 18, "cluster_id": "213", "column": null, "row": "A" }, "geometry": { "type": "Point", "coordinates": [ 120.976899383284675, 14.305642199001564 ] } },
{ "type": "Feature", "properties": { "fid": 19, "id": 19, "cluster_id": "213", "column": null, "row": "A" }, "geometry": { "type": "Point", "coordinates": [ 120.976907496560557, 14.305642739886622 ] } },
{ "type": "Feature", "properties": { "fid": 20, "id": 20, "cluster_id": "213", "column": null, "row": "A" }, "geometry": { "type": "Point", "coordinates": [ 120.976915068951371, 14.305643010329153 ] } },
{ "type": "Feature", "properties": { "fid": 21, "id": 21, "cluster_id": "213", "column": null, "row": "A" }, "geometry": { "type": "Point", "coordinates": [ 120.976922641342185, 14.30564355121421 ] } },
{ "type": "Feature", "properties": { "fid": 22, "id": 22, "cluster_id": "213", "column": null, "row": "A" }, "geometry": { "type": "Point", "coordinates": [ 120.976931565945648, 14.305643821656739 ] } },
{ "type": "Feature", "properties": { "fid": 23, "id": 23, "cluster_id": "213", "column": null, "row": "A" }, "geometry": { "type": "Point", "coordinates": [ 120.976938327008867, 14.305644362541797 ] } },
{ "type": "Feature", "properties": { "fid": 24, "id": 24, "cluster_id": "213", "column": null, "row": "A" }, "geometry": { "type": "Point", "coordinates": [ 120.976947522054857, 14.305644903426856 ] } },
{ "type": "Feature", "properties": { "fid": 25, "id": 25, "cluster_id": "213", "column": null, "row": "A" }, "geometry": { "type": "Point", "coordinates": [ 120.976955094445671, 14.305645714754442 ] } },
{ "type": "Feature", "properties": { "fid": 26, "id": 26, "cluster_id": "213", "column": null, "row": "A" }, "geometry": { "type": "Point", "coordinates": [ 120.976961044181323, 14.305645985196971 ] } },
{ "type": "Feature", "properties": { "fid": 27, "id": 27, "cluster_id": "213", "column": null, "row": "A" }, "geometry": { "type": "Point", "coordinates": [ 120.976969427899718, 14.305645714754442 ] } },
{ "type": "Feature", "properties": { "fid": 28, "id": 28, "cluster_id": "213", "column": null, "row": "A" }, "geometry": { "type": "Point", "coordinates": [ 120.976980245600885, 14.305645985196971 ] } },
{ "type": "Feature", "properties": { "fid": 29, "id": 29, "cluster_id": "213", "column": null, "row": "A" }, "geometry": { "type": "Point", "coordinates": [ 120.976986195336522, 14.305647337409617 ] } },
{ "type": "Feature", "properties": { "fid": 30, "id": 30, "cluster_id": "213", "column": null, "row": "A" }, "geometry": { "type": "Point", "coordinates": [ 120.976996742595162, 14.305647066967088 ] } },
{ "type": "Feature", "properties": { "fid": 31, "id": 31, "cluster_id": "213", "column": null, "row": "A" }, "geometry": { "type": "Point", "coordinates": [ 120.977005126313557, 14.305647607852146 ] } },
{ "type": "Feature", "properties": { "fid": 32, "id": 32, "cluster_id": "213", "column": null, "row": "A" }, "geometry": { "type": "Point", "coordinates": [ 120.977012698704371, 14.305649230507321 ] } },
{ "type": "Feature", "properties": { "fid": 33, "id": 33, "cluster_id": "213", "column": null, "row": "A" }, "geometry": { "type": "Point", "coordinates": [ 120.977021893750361, 14.305648960064792 ] } },
{ "type": "Feature", "properties": { "fid": 34, "id": 34, "cluster_id": "213", "column": null, "row": "A" }, "geometry": { "type": "Point", "coordinates": [ 120.977031900123947, 14.305650041834909 ] } },
{ "type": "Feature", "properties": { "fid": 35, "id": 35, "cluster_id": "213", "column": null, "row": "A" }, "geometry": { "type": "Point", "coordinates": [ 120.977042176940046, 14.305650312277438 ] } }
]
}
