{
"type": "FeatureCollection",
"name": "cltr-id-190-c-row",
"crs": { "type": "name", "properties": { "name": "urn:ogc:def:crs:OGC:1.3:CRS84" } },
"features": [
{ "type": "Feature", "properties": { "fid": 1, "id": 1, "cluster_id": "190", "column": null, "row": "C" }, "geometry": { "type": "Point", "coordinates": [ 120.976781876005887, 14.305457216311655 ] } },
{ "type": "Feature", "properties": { "fid": 2, "id": 2, "cluster_id": "190", "column": null, "row": "C" }, "geometry": { "type": "Point", "coordinates": [ 120.976792152822, 14.30545883896683 ] } },
{ "type": "Feature", "properties": { "fid": 3, "id": 3, "cluster_id": "190", "column": null, "row": "C" }, "geometry": { "type": "Point", "coordinates": [ 120.976796479902461, 14.305459379851889 ] } },
{ "type": "Feature", "properties": { "fid": 4, "id": 4, "cluster_id": "190", "column": null, "row": "C" }, "geometry": { "type": "Point", "coordinates": [ 120.976807297603628, 14.305462084277179 ] } },
{ "type": "Feature", "properties": { "fid": 5, "id": 5, "cluster_id": "190", "column": null, "row": "C" }, "geometry": { "type": "Point", "coordinates": [ 120.976815410879496, 14.305463706932354 ] } },
{ "type": "Feature", "properties": { "fid": 6, "id": 6, "cluster_id": "190", "column": null, "row": "C" }, "geometry": { "type": "Point", "coordinates": [ 120.97682514681054, 14.305464788702471 ] } },
{ "type": "Feature", "properties": { "fid": 7, "id": 7, "cluster_id": "190", "column": null, "row": "C" }, "geometry": { "type": "Point", "coordinates": [ 120.976836505396776, 14.305464788702471 ] } },
{ "type": "Feature", "properties": { "fid": 8, "id": 8, "cluster_id": "190", "column": null, "row": "C" }, "geometry": { "type": "Point", "coordinates": [ 120.976848404868051, 14.305465329587529 ] } },
{ "type": "Feature", "properties": { "fid": 9, "id": 9, "cluster_id": "190", "column": null, "row": "C" }, "geometry": { "type": "Point", "coordinates": [ 120.976859763454272, 14.305469115782937 ] } },
{ "type": "Feature", "properties": { "fid": 10, "id": 10, "cluster_id": "190", "column": null, "row": "C" }, "geometry": { "type": "Point", "coordinates": [ 120.976872203810615, 14.305470197553053 ] } },
{ "type": "Feature", "properties": { "fid": 11, "id": 11, "cluster_id": "190", "column": null, "row": "C" }, "geometry": { "type": "Point", "coordinates": [ 120.976881939741659, 14.305470197553053 ] } },
{ "type": "Feature", "properties": { "fid": 12, "id": 12, "cluster_id": "190", "column": null, "row": "C" }, "geometry": { "type": "Point", "coordinates": [ 120.976893839212934, 14.305470738438112 ] } },
{ "type": "Feature", "properties": { "fid": 13, "id": 13, "cluster_id": "190", "column": null, "row": "C" }, "geometry": { "type": "Point", "coordinates": [ 120.976905738684223, 14.305472901978344 ] } },
{ "type": "Feature", "properties": { "fid": 14, "id": 14, "cluster_id": "190", "column": null, "row": "C" }, "geometry": { "type": "Point", "coordinates": [ 120.976918719925621, 14.305472361093287 ] } },
{ "type": "Feature", "properties": { "fid": 15, "id": 15, "cluster_id": "190", "column": null, "row": "C" }, "geometry": { "type": "Point", "coordinates": [ 120.976928996741719, 14.305473442863402 ] } },
{ "type": "Feature", "properties": { "fid": 16, "id": 16, "cluster_id": "190", "column": null, "row": "C" }, "geometry": { "type": "Point", "coordinates": [ 120.976938732672778, 14.305473442863402 ] } },
{ "type": "Feature", "properties": { "fid": 17, "id": 17, "cluster_id": "190", "column": null, "row": "C" }, "geometry": { "type": "Point", "coordinates": [ 120.976949550373931, 14.305478310828926 ] } },
{ "type": "Feature", "properties": { "fid": 18, "id": 18, "cluster_id": "190", "column": null, "row": "C" }, "geometry": { "type": "Point", "coordinates": [ 120.976958745419921, 14.305477769943868 ] } },
{ "type": "Feature", "properties": { "fid": 19, "id": 19, "cluster_id": "190", "column": null, "row": "C" }, "geometry": { "type": "Point", "coordinates": [ 120.976971185776264, 14.305479392599043 ] } },
{ "type": "Feature", "properties": { "fid": 20, "id": 20, "cluster_id": "190", "column": null, "row": "C" }, "geometry": { "type": "Point", "coordinates": [ 120.976978217282024, 14.305479392599043 ] } },
{ "type": "Feature", "properties": { "fid": 21, "id": 21, "cluster_id": "190", "column": null, "row": "C" }, "geometry": { "type": "Point", "coordinates": [ 120.976990116753299, 14.305484260564567 ] } },
{ "type": "Feature", "properties": { "fid": 22, "id": 22, "cluster_id": "190", "column": null, "row": "C" }, "geometry": { "type": "Point", "coordinates": [ 120.976996066488937, 14.305482097024335 ] } },
{ "type": "Feature", "properties": { "fid": 23, "id": 23, "cluster_id": "190", "column": null, "row": "C" }, "geometry": { "type": "Point", "coordinates": [ 120.977005802419995, 14.305483719679509 ] } },
{ "type": "Feature", "properties": { "fid": 24, "id": 24, "cluster_id": "190", "column": null, "row": "C" }, "geometry": { "type": "Point", "coordinates": [ 120.977016620121148, 14.305484801449625 ] } },
{ "type": "Feature", "properties": { "fid": 25, "id": 25, "cluster_id": "190", "column": null, "row": "C" }, "geometry": { "type": "Point", "coordinates": [ 120.977025274282084, 14.305484801449625 ] } },
{ "type": "Feature", "properties": { "fid": 26, "id": 26, "cluster_id": "190", "column": null, "row": "C" }, "geometry": { "type": "Point", "coordinates": [ 120.977035010213129, 14.305486424104799 ] } },
{ "type": "Feature", "properties": { "fid": 27, "id": 27, "cluster_id": "190", "column": null, "row": "C" }, "geometry": { "type": "Point", "coordinates": [ 120.977043664374065, 14.305484801449625 ] } },
{ "type": "Feature", "properties": { "fid": 28, "id": 28, "cluster_id": "190", "column": null, "row": "C" }, "geometry": { "type": "Point", "coordinates": [ 120.977051236764879, 14.305491292070323 ] } },
{ "type": "Feature", "properties": { "fid": 29, "id": 29, "cluster_id": "190", "column": null, "row": "C" }, "geometry": { "type": "Point", "coordinates": [ 120.977056645615463, 14.305488587645032 ] } },
{ "type": "Feature", "properties": { "fid": 30, "id": 30, "cluster_id": "190", "column": null, "row": "C" }, "geometry": { "type": "Point", "coordinates": [ 120.977066381546507, 14.305487505874916 ] } },
{ "type": "Feature", "properties": { "fid": 31, "id": 31, "cluster_id": "190", "column": null, "row": "C" }, "geometry": { "type": "Point", "coordinates": [ 120.977076117477552, 14.305488587645032 ] } },
{ "type": "Feature", "properties": { "fid": 32, "id": 32, "cluster_id": "190", "column": null, "row": "C" }, "geometry": { "type": "Point", "coordinates": [ 120.977082067213203, 14.305489128530091 ] } },
{ "type": "Feature", "properties": { "fid": 33, "id": 33, "cluster_id": "190", "column": null, "row": "C" }, "geometry": { "type": "Point", "coordinates": [ 120.977088557833895, 14.30549237384044 ] } },
{ "type": "Feature", "properties": { "fid": 34, "id": 34, "cluster_id": "190", "column": null, "row": "C" }, "geometry": { "type": "Point", "coordinates": [ 120.977093425799424, 14.305490210300206 ] } },
{ "type": "Feature", "properties": { "fid": 35, "id": 35, "cluster_id": "190", "column": null, "row": "C" }, "geometry": { "type": "Point", "coordinates": [ 120.977096130224709, 14.30548047436916 ] } },
{ "type": "Feature", "properties": { "fid": 36, "id": 36, "cluster_id": "190", "column": null, "row": "C" }, "geometry": { "type": "Point", "coordinates": [ 120.977097752879885, 14.305470197553053 ] } }
]
}
